{"type":"FeatureCollection","features":[{"type":"Feature","properties":{"gid":"FRA.1_1","name":"奥弗涅-罗讷-阿尔卑斯大区","nameEn":"Auvergne-Rhône-Alpes","nameLocal":"","type":"Region","typeEn":"Region","groupZh":"大区","area":71049.1,"iso":"NA","engtype":"Region","capital":"里昂","pop":8000000,"blurb":"人口第二的大区，里昂与阿尔卑斯山、美食之都。"},"geometry":{"type":"Polygon","coordinates":[[[5.41583,44.15465],[5.43576,44.15225],[5.45472,44.11923],[5.49879,44.11572],[5.58119,44.15515],[5.56437,44.1709],[5.60205,44.1915],[5.63879,44.16628],[5.63114,44.15058],[5.67861,44.1461],[5.68273,44.16349],[5.6439,44.17052],[5.65159,44.18958],[5.68523,44.19368],[5.67264,44.24567],[5.68665,44.26607],[5.67561,44.27589],[5.64678,44.26709],[5.6338,44.30088],[5.60832,44.30612],[5.63122,44.33122],[5.54913,44.33059],[5.521,44.34923],[5.49294,44.33714],[5.46278,44.36724],[5.43495,44.36912],[5.4417,44.39168],[5.4184,44.42477],[5.49362,44.42822],[5.49549,44.4388],[5.46384,44.45205],[5.45784,44.49815],[5.60364,44.4655],[5.63319,44.5021],[5.6645,44.5019],[5.59725,44.54327],[5.64609,44.60992],[5.64172,44.65108],[5.7255,44.64009],[5.75377,44.66053],[5.79062,44.6533],[5.82996,44.69124],[5.80147,44.70678],[5.82936,44.74244],[5.82709,44.75969],[5.88546,44.74729],[5.95112,44.75962],[5.98027,44.78119],[5.94952,44.80453],[6.01621,44.83529],[6.0565,44.81581],[6.13045,44.86251],[6.24887,44.85256],[6.29456,44.87399],[6.33632,44.84837],[6.35536,44.85482],[6.35817,44.94157],[6.32387,44.95309],[6.3182,45.00386],[6.25617,44.99622],[6.20314,45.01245],[6.22008,45.06537],[6.24329,45.06995],[6.22926,45.10681],[6.26057,45.12685],[6.29334,45.10863],[6.33423,45.12294],[6.3651,45.10199],[6.3746,45.08229],[6.36488,45.07017],[6.48708,45.05641],[6.48172,45.09045],[6.51042,45.109],[6.53519,45.09897],[6.57653,45.1231],[6.62999,45.10933],[6.69058,45.1385],[6.74587,45.1387],[6.77277,45.1543],[6.85426,45.12862],[6.89646,45.1402],[6.90086,45.16431],[6.95386,45.1758],[6.97625,45.20828],[7.05118,45.22534],[7.07591,45.21214],[7.13511,45.25456],[7.1132,45.32698],[7.15986,45.35958],[7.18512,45.40369],[7.12164,45.43748],[7.09284,45.47478],[7.05704,45.47848],[7.05384,45.49998],[7.00645,45.51078],[6.9855,45.62044],[7.01185,45.64838],[6.92597,45.65248],[6.90676,45.67847],[6.86707,45.68407],[6.82428,45.72187],[6.81217,45.76046],[6.82088,45.82687],[6.87668,45.82396],[7.00625,45.87545],[7.01314,45.90536],[7.04205,45.92477],[7.04628,45.95525],[7.02021,45.9645],[7.01074,45.99837],[6.93907,46.06666],[6.89335,46.04592],[6.8806,46.05314],[6.90612,46.12699],[6.8025,46.14137],[6.79796,46.16555],[6.81944,46.185],[6.81,46.20679],[6.85963,46.25639],[6.86914,46.28419],[6.77467,46.34728],[6.77128,46.36014],[6.80613,46.38004],[6.82639,46.42697],[6.68675,46.45647],[6.52342,46.45698],[6.43169,46.41806],[6.33843,46.40609],[6.25462,46.36282],[6.22157,46.31298],[6.24838,46.30077],[6.23882,46.27532],[6.2645,46.24975],[6.29488,46.26459],[6.30853,46.25502],[6.29447,46.22493],[6.23384,46.20601],[6.13541,46.14133],[6.05704,46.15112],[6.03535,46.13616],[5.99352,46.14385],[5.95729,46.12795],[5.99324,46.18482],[5.96368,46.19697],[5.97441,46.21475],[6.06195,46.24488],[6.11588,46.24443],[6.12011,46.26363],[6.10237,46.28485],[6.16674,46.36414],[6.16098,46.37655],[6.06058,46.41751],[5.98412,46.36266],[5.94153,46.30927],[5.91893,46.3093],[5.9092,46.28394],[5.85066,46.2617],[5.72518,46.26069],[5.71455,46.30807],[5.64528,46.32479],[5.64609,46.34281],[5.61252,46.32656],[5.59789,46.2979],[5.56467,46.29277],[5.5393,46.2689],[5.47536,46.26522],[5.45767,46.27685],[5.4753,46.31538],[5.43715,46.31513],[5.42353,46.34773],[5.41024,46.3091],[5.401,46.3393],[5.36347,46.37002],[5.37788,46.38232],[5.29996,46.41229],[5.32173,46.42896],[5.31056,46.44677],[5.21506,46.46836],[5.20122,46.50782],[5.16584,46.51768],[5.16416,46.50475],[5.05475,46.48428],[5.01059,46.51107],[4.95371,46.50411],[4.9356,46.51423],[4.89289,46.44257],[4.88821,46.40298],[4.85105,46.35234],[4.85142,46.32608],[4.78021,46.17668],[4.72438,46.18431],[4.73568,46.2117],[4.72002,46.2285],[4.73618,46.2332],[4.6833,46.25501],[4.67992,46.26787],[4.70769,46.26965],[4.69344,46.30233],[4.63872,46.30142],[4.61702,46.28062],[4.61856,46.26479],[4.58651,46.26869],[4.55779,46.29455],[4.54645,46.27392],[4.504,46.26714],[4.48846,46.28799],[4.42704,46.30283],[4.39876,46.28432],[4.38842,46.21309],[4.36335,46.19856],[4.37081,46.18433],[4.32664,46.18489],[4.28243,46.15681],[4.25319,46.15782],[4.25815,46.18455],[4.22499,46.17763],[4.20622,46.19449],[4.18493,46.19012],[4.17813,46.17369],[4.13339,46.17732],[4.10383,46.19844],[4.02749,46.16959],[3.98853,46.16986],[3.97257,46.19973],[3.89013,46.21449],[3.90876,46.26062],[3.89263,46.28486],[3.94786,46.30367],[3.94901,46.31934],[4.00457,46.32748],[3.98565,46.32869],[3.99154,46.37042],[3.97757,46.39787],[3.99531,46.4251],[3.98929,46.43699],[4.0043,46.44371],[3.99872,46.4649],[3.95227,46.47879],[3.95813,46.49059],[3.91649,46.4961],[3.89256,46.48088],[3.86526,46.48965],[3.86383,46.51268],[3.84504,46.51309],[3.83701,46.5316],[3.80278,46.51966],[3.74185,46.53955],[3.73456,46.60378],[3.71344,46.61072],[3.72369,46.62627],[3.63764,46.70748],[3.62942,46.74946],[3.59268,46.76308],[3.57803,46.74962],[3.59587,46.72554],[3.54772,46.72242],[3.55426,46.6846],[3.52047,46.68524],[3.48312,46.65165],[3.4553,46.6524],[3.44208,46.662],[3.45347,46.68495],[3.43169,46.69586],[3.43421,46.71222],[3.38071,46.71233],[3.34809,46.68483],[3.31805,46.68844],[3.29805,46.71588],[3.26854,46.71592],[3.20443,46.67875],[3.16741,46.69097],[3.12906,46.72749],[3.04969,46.75781],[3.03207,46.79491],[2.95991,46.80387],[2.88042,46.77003],[2.84463,46.74236],[2.84573,46.72662],[2.79342,46.73355],[2.75852,46.71766],[2.73064,46.74799],[2.70483,46.73904],[2.70309,46.72224],[2.6778,46.70461],[2.62348,46.68931],[2.62391,46.65663],[2.60615,46.6693],[2.57055,46.65927],[2.59632,46.63672],[2.56838,46.60939],[2.59846,46.59531],[2.61105,46.55151],[2.53665,46.51971],[2.48293,46.5327],[2.3683,46.51844],[2.33421,46.49956],[2.32736,46.47347],[2.30547,46.47543],[2.28467,46.45136],[2.28479,46.38631],[2.33141,46.37841],[2.33714,46.36574],[2.30211,46.34237],[2.36621,46.31118],[2.38816,46.33157],[2.42066,46.31013],[2.42137,46.28533],[2.44303,46.295],[2.47021,46.28635],[2.48892,46.25001],[2.51631,46.23944],[2.5285,46.18494],[2.55915,46.17441],[2.56538,46.14304],[2.55061,46.08645],[2.57334,46.04692],[2.6027,46.03288],[2.59314,45.99606],[2.6094,45.97606],[2.56871,45.95787],[2.54415,45.93021],[2.55784,45.91296],[2.50198,45.88616],[2.49223,45.86403],[2.44342,45.86674],[2.44782,45.84582],[2.38802,45.82738],[2.43086,45.78862],[2.43412,45.76986],[2.48524,45.74687],[2.52687,45.69492],[2.51454,45.67214],[2.52093,45.64178],[2.48629,45.64082],[2.46347,45.59468],[2.49629,45.55683],[2.51588,45.55388],[2.51389,45.49284],[2.48754,45.41817],[2.52223,45.4026],[2.52337,45.38155],[2.4802,45.36969],[2.35513,45.41503],[2.3688,45.38601],[2.35342,45.32979],[2.31608,45.32203],[2.29033,45.28847],[2.2697,45.28989],[2.23987,45.2488],[2.19116,45.22306],[2.20246,45.18142],[2.23042,45.16192],[2.17879,45.1363],[2.18793,45.11671],[2.17278,45.08128],[2.1434,45.08632],[2.09516,45.05604],[2.1409,45.00541],[2.13329,44.98575],[2.06291,44.97651],[2.0807,44.95158],[2.07635,44.93478],[2.10811,44.9106],[2.08714,44.90207],[2.08556,44.88496],[2.1398,44.82383],[2.16629,44.81207],[2.17163,44.79026],[2.14915,44.7697],[2.14809,44.72285],[2.13006,44.6993],[2.15467,44.69937],[2.17915,44.67445],[2.16601,44.66129],[2.16942,44.63799],[2.20748,44.61553],[2.22057,44.62204],[2.20841,44.64384],[2.22714,44.65411],[2.32413,44.66916],[2.35098,44.64124],[2.46804,44.64289],[2.5005,44.68881],[2.55623,44.72223],[2.55368,44.75742],[2.56449,44.77809],[2.60012,44.79367],[2.60416,44.84309],[2.62908,44.87226],[2.65305,44.86977],[2.68187,44.90735],[2.70637,44.90709],[2.73825,44.94122],[2.7761,44.90964],[2.77179,44.85831],[2.80478,44.87379],[2.85968,44.87447],[2.85556,44.85123],[2.88964,44.78833],[2.92019,44.79432],[2.93377,44.78065],[2.93403,44.76715],[2.9145,44.76173],[2.93335,44.7476],[2.92326,44.72865],[2.93935,44.67757],[2.98168,44.64468],[3.01611,44.71206],[3.03913,44.715],[3.02731,44.73022],[3.04824,44.76432],[3.04827,44.80426],[3.07698,44.82428],[3.07218,44.83627],[3.09916,44.83291],[3.10313,44.88464],[3.14285,44.90228],[3.19028,44.86252],[3.23499,44.88877],[3.22643,44.90998],[3.24969,44.91624],[3.24841,44.93951],[3.28564,44.92631],[3.35453,44.95482],[3.37271,44.97572],[3.37439,44.95909],[3.41283,44.94484],[3.41929,44.89801],[3.47824,44.80968],[3.56877,44.83418],[3.58245,44.82612],[3.59502,44.87579],[3.6443,44.87713],[3.67364,44.85413],[3.65742,44.83612],[3.66636,44.82878],[3.74387,44.8378],[3.76414,44.80038],[3.79735,44.78649],[3.80699,44.76758],[3.84185,44.77213],[3.82992,44.75464],[3.87564,44.73948],[3.86313,44.71218],[3.88353,44.69672],[3.87165,44.67934],[3.89478,44.64996],[3.90654,44.59237],[3.92357,44.57188],[3.94877,44.57289],[3.98686,44.50217],[3.98722,44.47463],[4.0371,44.44595],[4.03781,44.42092],[4.06844,44.40506],[4.04239,44.39407],[4.05709,44.36414],[4.05126,44.33672],[4.03571,44.32985],[4.05145,44.31732],[4.12675,44.33773],[4.14287,44.31335],[4.17799,44.31774],[4.18658,44.29974],[4.2589,44.26442],[4.289,44.29214],[4.28837,44.31502],[4.3181,44.32175],[4.32577,44.33833],[4.38705,44.34706],[4.40235,44.33501],[4.39159,44.30476],[4.40357,44.28818],[4.44042,44.28342],[4.45534,44.34027],[4.5061,44.34025],[4.54911,44.32451],[4.55717,44.30417],[4.64922,44.27036],[4.65062,44.32981],[4.763,44.3251],[4.80456,44.3039],[4.81345,44.23243],[4.82534,44.22845],[4.88025,44.26177],[4.93291,44.26215],[5.06056,44.30814],[5.07651,44.28408],[5.10955,44.28055],[5.16643,44.31486],[5.17011,44.29874],[5.14746,44.26917],[5.16053,44.26562],[5.15001,44.23524],[5.20878,44.21442],[5.23815,44.21323],[5.24854,44.23112],[5.3033,44.20539],[5.35579,44.2136],[5.38453,44.20119],[5.38324,44.15528],[5.41583,44.15465]],[[4.97997,44.29725],[4.88946,44.30402],[4.88222,44.32529],[4.89533,44.33806],[4.86953,44.34508],[4.90708,44.37463],[4.91852,44.40778],[4.97055,44.42985],[5.01876,44.41598],[5.01862,44.39259],[5.07088,44.38322],[5.02506,44.361],[5.01333,44.32565],[4.97997,44.29725]]]}},{"type":"Feature","properties":{"gid":"FRA.2_1","name":"勃艮第-弗朗什-孔泰大区","nameEn":"Bourgogne-Franche-Comté","nameLocal":"","type":"Region","typeEn":"Region","groupZh":"大区","area":47939.2,"iso":"NA","engtype":"Region","capital":"第戎","pop":2800000,"blurb":"葡萄酒之乡与汝拉山地，第戎芥末与古城。"},"geometry":{"type":"Polygon","coordinates":[[[5.25627,46.45188],[5.31056,46.44677],[5.32173,46.42896],[5.29996,46.41229],[5.37788,46.38232],[5.36347,46.37002],[5.401,46.3393],[5.41024,46.3091],[5.42353,46.34773],[5.43715,46.31513],[5.4753,46.31538],[5.45767,46.27685],[5.47536,46.26522],[5.5393,46.2689],[5.56467,46.29277],[5.59789,46.2979],[5.61252,46.32656],[5.64609,46.34281],[5.64528,46.32479],[5.71455,46.30807],[5.72518,46.26069],[5.85066,46.2617],[5.9092,46.28394],[5.91893,46.3093],[5.94153,46.30927],[5.98412,46.36266],[6.06401,46.41623],[6.08625,46.44315],[6.07378,46.46441],[6.14665,46.53031],[6.15549,46.54556],[6.1133,46.57862],[6.27049,46.68319],[6.45082,46.7752],[6.45725,46.78857],[6.431,46.81232],[6.45976,46.85159],[6.46454,46.88991],[6.43301,46.92782],[6.49669,46.97419],[6.50596,46.96613],[6.61121,46.99099],[6.69795,47.03836],[6.71597,47.05103],[6.69634,47.06651],[6.7109,47.08503],[6.85296,47.15993],[6.84437,47.17207],[6.95512,47.24316],[6.94092,47.28663],[6.99578,47.29681],[7.01548,47.31559],[7.00973,47.32436],[7.05479,47.33374],[7.04819,47.36053],[7.01135,47.37155],[6.8798,47.35244],[6.91729,47.40546],[6.94,47.40971],[6.93918,47.4337],[6.99821,47.45164],[6.9829,47.49426],[7.02439,47.50422],[7.0788,47.48906],[7.13662,47.50826],[7.14217,47.52502],[7.10622,47.55134],[7.08539,47.59305],[7.04312,47.59997],[7.01956,47.58854],[7.00921,47.59939],[7.00666,47.62643],[7.04528,47.67038],[7.02757,47.70537],[7.03742,47.72156],[7.01578,47.74347],[6.86496,47.78461],[6.84618,47.82294],[6.82354,47.81305],[6.79195,47.83017],[6.78495,47.84958],[6.6452,47.90409],[6.60598,47.94447],[6.56871,47.9345],[6.54201,47.90253],[6.47826,47.88544],[6.43192,47.94381],[6.38835,47.96002],[6.27733,47.95381],[6.20522,47.93205],[6.20706,47.94573],[6.14958,47.9688],[6.16268,47.97264],[6.15606,48.00694],[6.1314,48.02409],[6.03686,48.00145],[6.00226,47.95609],[5.97078,47.95721],[5.94763,47.93618],[5.93263,47.93793],[5.9597,47.96655],[5.94753,47.97971],[5.92739,47.9744],[5.91804,47.94736],[5.88473,47.92605],[5.88649,47.90263],[5.84819,47.90343],[5.82186,47.86911],[5.82852,47.85195],[5.76119,47.85934],[5.7442,47.84885],[5.74023,47.81894],[5.69827,47.82336],[5.67661,47.77916],[5.70729,47.76772],[5.70942,47.74495],[5.6852,47.72269],[5.68878,47.68478],[5.59681,47.67165],[5.56739,47.70712],[5.53059,47.67401],[5.48277,47.68464],[5.40649,47.67362],[5.40562,47.64813],[5.35572,47.59169],[5.3233,47.61199],[5.25623,47.57655],[5.23952,47.59762],[5.2586,47.62222],[5.23694,47.61678],[5.17341,47.65353],[5.17834,47.68095],[5.12757,47.64847],[5.05257,47.66984],[5.05624,47.69481],[5.03123,47.69413],[5.02915,47.70993],[4.96857,47.68733],[4.95451,47.70289],[4.97154,47.73108],[4.9605,47.73281],[4.95899,47.76188],[4.92478,47.76062],[4.91796,47.7771],[4.9861,47.8036],[4.99413,47.81975],[4.96838,47.83226],[4.95409,47.86677],[4.92746,47.87155],[4.90596,47.91647],[4.87459,47.91952],[4.85678,47.89563],[4.83402,47.9068],[4.86521,47.94156],[4.84503,47.96043],[4.78778,47.96526],[4.80831,47.98878],[4.78942,48.00787],[4.59834,48.0305],[4.53577,48.00657],[4.55544,47.98477],[4.55238,47.96779],[4.44696,47.9562],[4.41641,47.9682],[4.3128,47.9625],[4.29342,47.92567],[4.24621,47.93041],[4.2239,47.9485],[4.22596,47.97194],[4.20195,47.97258],[4.2004,47.94183],[4.16734,47.96001],[4.1137,47.92816],[4.06094,47.94571],[4.04599,47.9269],[4.00554,47.94237],[3.90518,47.92648],[3.89403,47.92929],[3.91417,47.97559],[3.90372,47.99163],[3.88582,48.00028],[3.88045,47.98145],[3.85003,47.98366],[3.83981,48.00389],[3.87081,48.00286],[3.87024,48.01631],[3.82198,48.04392],[3.82635,48.06351],[3.79861,48.08617],[3.80166,48.10673],[3.76893,48.13285],[3.74065,48.13198],[3.75454,48.15209],[3.74548,48.16753],[3.71654,48.17418],[3.72052,48.15481],[3.66787,48.13921],[3.64051,48.18462],[3.62355,48.19201],[3.59397,48.1787],[3.57519,48.18874],[3.6216,48.22561],[3.59995,48.23563],[3.62376,48.25929],[3.58251,48.28284],[3.58754,48.29848],[3.56407,48.32108],[3.5439,48.31979],[3.54511,48.33455],[3.50441,48.36549],[3.47048,48.37467],[3.42658,48.36169],[3.41479,48.39027],[3.38518,48.39886],[3.35635,48.37186],[3.28317,48.38139],[3.25102,48.3651],[3.20445,48.3642],[3.17181,48.37767],[3.12247,48.36863],[3.10342,48.34951],[3.04945,48.36003],[3.04057,48.32893],[3.01569,48.30732],[3.04757,48.2497],[3.0327,48.24874],[3.00599,48.20942],[2.93475,48.17882],[2.93631,48.16339],[3.02754,48.13407],[3.01588,48.11571],[3.0351,48.11563],[3.05047,48.07233],[3.12426,48.03113],[3.10115,48.01903],[3.12085,48.00936],[3.12812,47.97251],[3.04824,47.91133],[3.01182,47.90482],[3.01149,47.8751],[2.9949,47.86735],[3.0233,47.86102],[3.03382,47.84387],[3.01387,47.83184],[3.0238,47.78637],[2.85388,47.75868],[2.84897,47.71685],[2.87773,47.71885],[2.87966,47.70378],[2.92416,47.6825],[2.91815,47.6698],[2.95423,47.64569],[2.93232,47.62704],[2.94036,47.59821],[2.97654,47.56943],[2.84519,47.54493],[2.88957,47.50776],[2.93156,47.44067],[2.87025,47.34234],[2.87369,47.32911],[2.98339,47.25964],[2.97903,47.22906],[3.02828,47.12844],[3.01876,47.07014],[3.07478,47.02999],[3.06397,46.97694],[3.07828,46.95343],[3.05023,46.90915],[3.0694,46.85226],[3.03207,46.79491],[3.04969,46.75781],[3.12906,46.72749],[3.16741,46.69097],[3.20443,46.67875],[3.26854,46.71592],[3.29805,46.71588],[3.31805,46.68844],[3.34809,46.68483],[3.38071,46.71233],[3.43421,46.71222],[3.43169,46.69586],[3.45347,46.68495],[3.44208,46.662],[3.48312,46.65165],[3.52047,46.68524],[3.54783,46.67944],[3.55985,46.68999],[3.54772,46.72242],[3.59587,46.72554],[3.57803,46.74962],[3.59268,46.76308],[3.62942,46.74946],[3.63764,46.70748],[3.72369,46.62627],[3.71344,46.61072],[3.73456,46.60378],[3.74185,46.53955],[3.80278,46.51966],[3.83701,46.5316],[3.84504,46.51309],[3.86383,46.51268],[3.86526,46.48965],[3.89256,46.48088],[3.91649,46.4961],[3.95813,46.49059],[3.95227,46.47879],[3.99872,46.4649],[4.0043,46.44371],[3.98929,46.43699],[3.99531,46.4251],[3.97757,46.39787],[3.99154,46.37042],[3.98565,46.32869],[4.00457,46.32748],[3.94901,46.31934],[3.94786,46.30367],[3.89263,46.28486],[3.90876,46.26062],[3.89013,46.21449],[3.97257,46.19973],[3.98853,46.16986],[4.02749,46.16959],[4.10383,46.19844],[4.13339,46.17732],[4.17813,46.17369],[4.18493,46.19012],[4.20622,46.19449],[4.22499,46.17763],[4.25815,46.18455],[4.25319,46.15782],[4.28243,46.15681],[4.32664,46.18489],[4.37081,46.18433],[4.36335,46.19856],[4.38842,46.21309],[4.39876,46.28432],[4.42704,46.30283],[4.48846,46.28799],[4.504,46.26714],[4.54645,46.27392],[4.55779,46.29455],[4.58651,46.26869],[4.61856,46.26479],[4.61702,46.28062],[4.63872,46.30142],[4.69344,46.30233],[4.70769,46.26965],[4.67992,46.26787],[4.6833,46.25501],[4.73618,46.2332],[4.72002,46.2285],[4.73568,46.2117],[4.72438,46.18431],[4.78021,46.17668],[4.85142,46.32608],[4.85105,46.35234],[4.88821,46.40298],[4.89289,46.44257],[4.9356,46.51423],[4.95371,46.50411],[5.01059,46.51107],[5.05475,46.48428],[5.16416,46.50475],[5.16584,46.51768],[5.20122,46.50782],[5.21506,46.46836],[5.25627,46.45188]]]}},{"type":"Feature","properties":{"gid":"FRA.3_1","name":"布列塔尼大区","nameEn":"Bretagne","nameLocal":"","type":"Region","typeEn":"Region","groupZh":"大区","area":27526.2,"iso":"FR-BRE","engtype":"Region","capital":"雷恩","pop":3350000,"blurb":"西北海角，凯尔特文化与海岸，圣米歇尔山近旁。"},"geometry":{"type":"MultiPolygon","coordinates":[[[[-3.16069,47.29514],[-3.09014,47.27875],[-3.05569,47.30875],[-3.13847,47.32903],[-3.15736,47.36486],[-3.19208,47.36514],[-3.25292,47.39097],[-3.24708,47.37125],[-3.26347,47.37153],[-3.26431,47.35153],[-3.23847,47.32597],[-3.24514,47.30819],[-3.21875,47.29319],[-3.16069,47.29514]]],[[[-3.16279,47.60875],[-3.13514,47.54847],[-3.16319,47.53014],[-3.14625,47.48292],[-3.07931,47.46792],[-3.12653,47.51292],[-3.13347,47.54458],[-3.11458,47.57681],[-3.1282,47.57431],[-3.12875,47.59792],[-3.09292,47.5793],[-3.10681,47.57458],[-3.09625,47.56319],[-3.0393,47.58125],[-3.01708,47.56542],[-3.02347,47.60486],[-3.00542,47.56653],[-2.9868,47.56542],[-2.99486,47.58931],[-2.96264,47.55292],[-2.95736,47.56458],[-2.92819,47.55347],[-2.96875,47.5882],[-2.95347,47.61347],[-2.97736,47.65736],[-2.95792,47.63847],[-2.92597,47.66736],[-2.92653,47.64986],[-2.96208,47.6343],[-2.94014,47.62764],[-2.95097,47.6068],[-2.93625,47.58569],[-2.92764,47.60181],[-2.91958,47.58209],[-2.91069,47.59181],[-2.89069,47.58125],[-2.88763,47.6035],[-2.86153,47.59708],[-2.86292,47.62208],[-2.79042,47.61903],[-2.77597,47.62819],[-2.79097,47.64042],[-2.76736,47.63014],[-2.76097,47.64208],[-2.73625,47.61458],[-2.7793,47.61931],[-2.72347,47.60292],[-2.71847,47.59319],[-2.73069,47.59319],[-2.71986,47.58958],[-2.69569,47.60903],[-2.69486,47.62819],[-2.69125,47.5918],[-2.70764,47.58986],[-2.69875,47.58125],[-2.70764,47.57708],[-2.71792,47.5882],[-2.71097,47.57958],[-2.72875,47.56792],[-2.73375,47.54125],[-2.76569,47.53569],[-2.78764,47.55292],[-2.79958,47.53792],[-2.80514,47.55542],[-2.82403,47.55681],[-2.82014,47.54292],[-2.84875,47.54792],[-2.85347,47.53708],[-2.87931,47.56403],[-2.90792,47.56292],[-2.91958,47.54736],[-2.8618,47.5257],[-2.85042,47.4982],[-2.79347,47.48375],[-2.72931,47.50958],[-2.67403,47.49125],[-2.67069,47.52347],[-2.62792,47.5168],[-2.62097,47.52764],[-2.64986,47.53208],[-2.60292,47.53069],[-2.57569,47.54792],[-2.63292,47.50208],[-2.59514,47.51764],[-2.54931,47.50903],[-2.54319,47.52291],[-2.51736,47.52764],[-2.46653,47.51153],[-2.44458,47.49958],[-2.45097,47.4907],[-2.50208,47.49319],[-2.48903,47.47264],[-2.50153,47.45819],[-2.47986,47.44097],[-2.42303,47.47712],[-2.39533,47.45657],[-2.31613,47.46252],[-2.29706,47.51585],[-2.25948,47.51185],[-2.24428,47.49361],[-2.18818,47.51212],[-2.1897,47.49588],[-2.16613,47.49083],[-2.1534,47.52203],[-2.09885,47.53345],[-2.10252,47.5953],[-2.08648,47.60326],[-2.09704,47.63136],[-2.08205,47.64942],[-2.01228,47.66645],[-1.9734,47.69415],[-1.95633,47.67119],[-1.86279,47.70733],[-1.77161,47.69868],[-1.66103,47.71014],[-1.63813,47.72221],[-1.61963,47.76357],[-1.46845,47.8059],[-1.47964,47.83481],[-1.39153,47.82832],[-1.36408,47.8007],[-1.24588,47.77672],[-1.24205,47.80814],[-1.21608,47.83615],[-1.22213,47.85036],[-1.18916,47.86771],[-1.19713,47.88559],[-1.17617,47.89772],[-1.15619,47.96445],[-1.1223,47.98651],[-1.05032,47.98463],[-1.0182,48.00152],[-1.03355,48.03261],[-1.0215,48.06841],[-1.04913,48.0896],[-1.09867,48.25131],[-1.09085,48.28693],[-1.04583,48.32965],[-1.06484,48.36724],[-1.05279,48.38093],[-1.08259,48.43525],[-1.06533,48.45125],[-1.07739,48.4911],[-1.06746,48.50562],[-1.24949,48.5437],[-1.27291,48.53372],[-1.279,48.50918],[-1.32181,48.4998],[-1.37494,48.45926],[-1.42775,48.46235],[-1.44157,48.48295],[-1.48995,48.48938],[-1.53311,48.54944],[-1.52775,48.57908],[-1.54201,48.58087],[-1.53889,48.59746],[-1.5782,48.64097],[-1.70931,48.60653],[-1.77042,48.61403],[-1.77708,48.60375],[-1.84986,48.61986],[-1.86958,48.64708],[-1.86236,48.66736],[-1.83514,48.68042],[-1.84986,48.69903],[-1.84486,48.7132],[-1.90014,48.69069],[-1.93819,48.70347],[-1.95986,48.69125],[-1.94708,48.68319],[-1.98986,48.68431],[-1.98958,48.66403],[-2.02958,48.65125],[-2.01958,48.63931],[-2.03181,48.63403],[-2.01403,48.6268],[-2.0218,48.6182],[-2.00347,48.61319],[-2.01292,48.59819],[-1.96153,48.59125],[-1.95514,48.57486],[-1.98708,48.58458],[-1.97792,48.55597],[-1.96069,48.55014],[-1.97097,48.53542],[-2.01097,48.56986],[-1.99347,48.57819],[-2.03042,48.60514],[-2.02903,48.62375],[-2.0543,48.62653],[-2.04681,48.63958],[-2.09458,48.63403],[-2.11236,48.64847],[-2.15042,48.63597],[-2.12597,48.60597],[-2.14681,48.62097],[-2.17931,48.57681],[-2.18208,48.60319],[-2.19625,48.6107],[-2.19153,48.59347],[-2.21153,48.57319],[-2.21208,48.59153],[-2.25486,48.63347],[-2.24181,48.64542],[-2.31847,48.61264],[-2.32986,48.62292],[-2.28347,48.66875],[-2.30931,48.67021],[-2.31903,48.68875],[-2.39653,48.64264],[-2.43764,48.65403],[-2.48958,48.64625],[-2.46708,48.63403],[-2.47653,48.62014],[-2.55403,48.60014],[-2.63264,48.53847],[-2.63292,48.52542],[-2.68236,48.53292],[-2.67597,48.51292],[-2.68792,48.50014],[-2.71542,48.52403],[-2.71042,48.53403],[-2.72347,48.53069],[-2.71292,48.55542],[-2.82375,48.59736],[-2.81264,48.61458],[-2.82736,48.64708],[-2.81764,48.64958],[-2.88208,48.67542],[-2.89458,48.70375],[-2.94625,48.72264],[-2.92764,48.75542],[-2.95181,48.77236],[-2.99014,48.76292],[-3.02792,48.77597],[-3.00847,48.78208],[-3.04319,48.78431],[-3.00347,48.79875],[-3.01625,48.81042],[-3.00736,48.82014],[-3.08736,48.81514],[-3.06986,48.83375],[-3.09736,48.83375],[-3.07347,48.86681],[-3.09569,48.8682],[-3.07125,48.88486],[-3.16764,48.85403],[-3.19903,48.8257],[-3.20042,48.83792],[-3.21875,48.83403],[-3.20569,48.84681],[-3.21792,48.86792],[-3.23514,48.87042],[-3.26542,48.83375],[-3.27153,48.85069],[-3.29597,48.85431],[-3.28375,48.84319],[-3.29264,48.8307],[-3.32319,48.8382],[-3.40958,48.7993],[-3.44153,48.79958],[-3.42847,48.82208],[-3.45903,48.81653],[-3.47653,48.83875],[-3.50264,48.82431],[-3.51069,48.83458],[-3.49625,48.83903],[-3.52097,48.84097],[-3.52403,48.8257],[-3.55819,48.81375],[-3.53958,48.80903],[-3.54347,48.79847],[-3.59069,48.80764],[-3.56986,48.79181],[-3.58458,48.79097],[-3.58597,48.75736],[-3.56319,48.75958],[-3.55153,48.7332],[-3.53125,48.73292],[-3.58792,48.72709],[-3.58514,48.69069],[-3.56792,48.68542],[-3.58069,48.67042],[-3.61069,48.67042],[-3.62319,48.68736],[-3.65042,48.66708],[-3.6393,48.67375],[-3.65431,48.68236],[-3.64347,48.69792],[-3.68006,48.68764],[-3.72292,48.70736],[-3.78458,48.70236],[-3.8243,48.72014],[-3.8218,48.70292],[-3.82958,48.71625],[-3.85708,48.69153],[-3.84736,48.66153],[-3.86542,48.67097],[-3.84069,48.62819],[-3.85458,48.61986],[-3.85958,48.63347],[-3.89708,48.6457],[-3.90569,48.66208],[-3.88986,48.67153],[-3.92736,48.67597],[-3.92625,48.70042],[-3.92403,48.66958],[-3.95097,48.65347],[-3.95097,48.63569],[-3.94986,48.67347],[-3.97042,48.67403],[-3.95764,48.68875],[-3.97569,48.69875],[-3.96125,48.72069],[-3.98236,48.72958],[-4.00097,48.71181],[-4.01014,48.7282],[-4.0143,48.71292],[-4.04042,48.71375],[-4.04208,48.70319],[-4.07264,48.70681],[-4.05875,48.69764],[-4.06542,48.6818],[-4.09764,48.69708],[-4.18847,48.68819],[-4.22597,48.65847],[-4.20375,48.65125],[-4.27597,48.65042],[-4.29903,48.63403],[-4.31208,48.64597],[-4.29375,48.66292],[-4.32986,48.67764],[-4.39597,48.65569],[-4.43958,48.66042],[-4.40681,48.63958],[-4.43653,48.64375],[-4.43236,48.63153],[-4.44986,48.64514],[-4.46347,48.62736],[-4.50236,48.62153],[-4.54319,48.63764],[-4.56153,48.63014],[-4.54264,48.62458],[-4.57236,48.62542],[-4.57347,48.60542],[-4.55514,48.61014],[-4.56319,48.60209],[-4.48236,48.57319],[-4.54236,48.59903],[-4.59347,48.59435],[-4.58542,48.60292],[-4.59847,48.60903],[-4.61041,48.57459],[-4.52347,48.55486],[-4.59236,48.55431],[-4.59569,48.57125],[-4.62431,48.5793],[-4.6793,48.5682],[-4.69319,48.57653],[-4.70903,48.56958],[-4.70431,48.55208],[-4.73125,48.5568],[-4.76569,48.53181],[-4.7593,48.5207],[-4.78375,48.51736],[-4.76708,48.51042],[-4.77903,48.50542],[-4.77542,48.48403],[-4.74653,48.47181],[-4.77208,48.46403],[-4.79625,48.41514],[-4.76264,48.38264],[-4.76903,48.36542],[-4.78875,48.37041],[-4.75986,48.36208],[-4.78069,48.35931],[-4.77236,48.32875],[-4.70847,48.33014],[-4.69681,48.33653],[-4.70181,48.34903],[-4.68042,48.35569],[-4.60819,48.33764],[-4.49653,48.37986],[-4.43597,48.38264],[-4.43153,48.39736],[-4.40069,48.38958],[-4.34653,48.40597],[-4.29014,48.43458],[-4.40792,48.38153],[-4.45986,48.32681],[-4.39736,48.34153],[-4.41736,48.32403],[-4.37625,48.32542],[-4.34847,48.35264],[-4.35569,48.34236],[-4.32486,48.35542],[-4.32986,48.3382],[-4.26292,48.35792],[-4.32125,48.33486],[-4.30319,48.32986],[-4.33958,48.31181],[-4.24903,48.32653],[-4.28292,48.31264],[-4.19264,48.29597],[-4.27986,48.27792],[-4.24097,48.25347],[-4.21653,48.26069],[-4.13819,48.23708],[-4.21125,48.24347],[-4.21708,48.25875],[-4.24458,48.25069],[-4.28681,48.27403],[-4.28347,48.28819],[-4.26153,48.29292],[-4.2882,48.29875],[-4.3843,48.27542],[-4.45153,48.29708],[-4.51069,48.28097],[-4.51514,48.29458],[-4.49514,48.30681],[-4.50847,48.31097],[-4.53597,48.28486],[-4.5557,48.30236],[-4.53264,48.3418],[-4.58403,48.31958],[-4.57069,48.28236],[-4.62903,48.28125],[-4.61625,48.27458],[-4.62319,48.25208],[-4.61153,48.26153],[-4.54514,48.25014],[-4.57486,48.23597],[-4.55264,48.20903],[-4.56097,48.1693],[-4.53903,48.16986],[-4.49319,48.22014],[-4.50375,48.22514],[-4.4968,48.23347],[-4.42847,48.23792],[-4.4393,48.22403],[-4.31681,48.20375],[-4.29486,48.18403],[-4.29681,48.15875],[-4.27292,48.15347],[-4.27014,48.13375],[-4.30486,48.08931],[-4.36292,48.10986],[-4.41764,48.10736],[-4.48847,48.08736],[-4.53653,48.09014],[-4.54708,48.07764],[-4.71625,48.06542],[-4.70625,48.0457],[-4.74153,48.04014],[-4.69819,48.02514],[-4.63296,48.0293],[-4.56847,47.9982],[-4.54097,48.00986],[-4.53042,48.03708],[-4.49486,48.03959],[-4.53042,48.03597],[-4.53736,48.01153],[-4.42347,47.96292],[-4.36292,47.88931],[-4.34597,47.83903],[-4.35625,47.83625],[-4.34625,47.83458],[-4.39069,47.81236],[-4.3732,47.8107],[-4.38097,47.7943],[-4.17792,47.79681],[-4.15764,47.83097],[-4.18319,47.83542],[-4.19486,47.85458],[-4.19347,47.86458],[-4.17736,47.85014],[-4.19042,47.87264],[-4.18181,47.87903],[-4.15986,47.85847],[-4.17014,47.83792],[-4.11208,47.87208],[-4.09514,47.86014],[-4.07292,47.86736],[-4.06486,47.86014],[-4.08042,47.8607],[-4.04042,47.84319],[-3.97681,47.85209],[-3.98903,47.88264],[-3.97125,47.89208],[-3.99125,47.89431],[-3.97736,47.90847],[-3.97181,47.89514],[-3.94819,47.89875],[-3.93153,47.87069],[-3.91153,47.87153],[-3.90375,47.85764],[-3.92042,47.85486],[-3.88764,47.84958],[-3.90347,47.83375],[-3.85736,47.80597],[-3.85708,47.79014],[-3.74458,47.79514],[-3.74931,47.84014],[-3.73264,47.80236],[-3.69597,47.83042],[-3.68375,47.82097],[-3.72347,47.79792],[-3.67847,47.77514],[-3.64903,47.78236],[-3.53875,47.76208],[-3.51931,47.8032],[-3.52875,47.76569],[-3.45319,47.69542],[-3.38264,47.70181],[-3.3668,47.72125],[-3.39875,47.7332],[-3.36625,47.72597],[-3.30375,47.76486],[-3.31819,47.73792],[-3.34736,47.73597],[-3.34292,47.7163],[-3.36569,47.70986],[-3.30986,47.70903],[-3.31653,47.70208],[-3.28736,47.69931],[-3.28153,47.68653],[-3.32569,47.70236],[-3.35569,47.69931],[-3.36236,47.68375],[-3.31958,47.69653],[-3.21486,47.64403],[-3.21625,47.67181],[-3.19819,47.68375],[-3.21486,47.69541],[-3.19875,47.68708],[-3.18792,47.69236],[-3.19542,47.70375],[-3.16625,47.70486],[-3.16903,47.72875],[-3.19319,47.74792],[-3.15958,47.72847],[-3.14764,47.75347],[-3.14875,47.74208],[-3.13681,47.74542],[-3.15347,47.73903],[-3.14403,47.73125],[-3.16375,47.72014],[-3.15986,47.70653],[-3.15569,47.71986],[-3.10681,47.72319],[-3.12514,47.72597],[-3.13903,47.71236],[-3.13069,47.7043],[-3.14931,47.7168],[-3.1482,47.70403],[-3.16903,47.69736],[-3.12042,47.69847],[-3.2093,47.66819],[-3.20264,47.62236],[-3.16279,47.60875]]],[[[-3.49236,47.65292],[-3.51569,47.64708],[-3.46347,47.61986],[-3.42042,47.61958],[-3.41542,47.63153],[-3.49236,47.65292]]],[[[-4.86431,48.04292],[-4.87708,48.04181],[-4.83514,48.03014],[-4.86431,48.04292]]],[[[-5.07181,48.4832],[-5.14375,48.44875],[-5.09958,48.45597],[-5.09264,48.45014],[-5.1218,48.43736],[-5.08819,48.43736],[-5.07986,48.4507],[-5.03153,48.46181],[-5.07181,48.4832]]],[[[-4.00569,48.75125],[-4.04153,48.74458],[-3.98819,48.73931],[-4.00569,48.75125]]],[[[-3.30042,48.8532],[-3.31347,48.84597],[-3.30097,48.84264],[-3.30042,48.8532]]],[[[-3.18347,48.87597],[-3.19708,48.87625],[-3.18986,48.86347],[-3.18347,48.87597]]],[[[-2.86264,47.34625],[-2.89236,47.33764],[-2.87653,47.3307],[-2.86264,47.34625]]],[[[-2.98958,47.40045],[-3.00097,47.39459],[-2.94625,47.37153],[-2.95403,47.3843],[-2.94042,47.39375],[-2.98958,47.40045]]],[[[-2.83708,47.60403],[-2.85514,47.60069],[-2.86042,47.56014],[-2.84847,47.58792],[-2.82375,47.58847],[-2.84042,47.59347],[-2.83708,47.60403]]],[[[-2.80736,47.5957],[-2.81097,47.57792],[-2.7743,47.59403],[-2.79292,47.60597],[-2.80736,47.5957]]],[[[-2.98431,48.86431],[-3.01153,48.8607],[-2.99903,48.85042],[-3.01458,48.85181],[-3.01153,48.83597],[-2.99569,48.83764],[-2.98431,48.86431]]]]}},{"type":"Feature","properties":{"gid":"FRA.4_1","name":"中央-卢瓦尔河谷大区","nameEn":"Centre-Val de Loire","nameLocal":"","type":"Region","typeEn":"Region","groupZh":"大区","area":39441.2,"iso":"FR-CVL","engtype":"Region","capital":"奥尔良","pop":2570000,"blurb":"卢瓦尔河城堡群与王室行宫集中地。"},"geometry":{"type":"Polygon","coordinates":[[[2.06346,46.42135],[2.08862,46.41007],[2.19783,46.4283],[2.28105,46.42041],[2.28467,46.45136],[2.30547,46.47543],[2.32736,46.47347],[2.33421,46.49956],[2.3683,46.51844],[2.48293,46.5327],[2.53665,46.51971],[2.61329,46.55456],[2.59846,46.59531],[2.56838,46.60939],[2.59632,46.63672],[2.57055,46.65927],[2.60615,46.6693],[2.62391,46.65663],[2.62348,46.68931],[2.6778,46.70461],[2.70309,46.72224],[2.70483,46.73904],[2.73064,46.74799],[2.75852,46.71766],[2.79342,46.73355],[2.84573,46.72662],[2.84463,46.74236],[2.91707,46.7921],[2.9525,46.79268],[2.95991,46.80387],[3.02758,46.79337],[3.05764,46.82514],[3.0694,46.85226],[3.05023,46.90915],[3.07828,46.95343],[3.06397,46.97694],[3.07478,47.02999],[3.01876,47.07014],[3.02828,47.12844],[2.97903,47.22906],[2.98339,47.25964],[2.87369,47.32911],[2.87025,47.34234],[2.93156,47.44067],[2.88957,47.50776],[2.84519,47.54493],[2.97654,47.56943],[2.94036,47.59821],[2.93232,47.62704],[2.95423,47.64569],[2.91815,47.6698],[2.92416,47.6825],[2.84865,47.7258],[2.85648,47.76174],[2.93559,47.76325],[3.0238,47.78637],[3.01387,47.83184],[3.03382,47.84387],[3.0233,47.86102],[2.9949,47.86735],[3.01149,47.8751],[3.01182,47.90482],[3.04824,47.91133],[3.12812,47.97251],[3.12085,48.00936],[3.10115,48.01903],[3.12426,48.03113],[3.05047,48.07233],[3.0351,48.11563],[3.01588,48.11571],[3.02754,48.13407],[2.95197,48.16436],[2.86682,48.15604],[2.82088,48.12967],[2.80239,48.13146],[2.81092,48.16407],[2.79896,48.16803],[2.73641,48.16631],[2.7552,48.14565],[2.70655,48.12482],[2.66475,48.12054],[2.63967,48.13895],[2.57787,48.13178],[2.57056,48.14082],[2.53751,48.14052],[2.52221,48.12521],[2.44269,48.12549],[2.48324,48.16452],[2.50633,48.15644],[2.52301,48.19876],[2.50619,48.23854],[2.42172,48.26388],[2.42076,48.29925],[2.40266,48.32072],[2.35959,48.30882],[2.31718,48.33157],[2.30021,48.31124],[2.26912,48.31505],[2.24516,48.2984],[2.24631,48.32997],[2.20709,48.34494],[2.18148,48.31379],[2.15472,48.31453],[2.16159,48.29844],[2.10378,48.30683],[2.04324,48.28617],[1.97914,48.28822],[1.95923,48.30869],[1.98234,48.32832],[1.97062,48.33999],[1.98736,48.36381],[1.96672,48.38042],[1.97724,48.39917],[1.93042,48.40395],[1.94289,48.441],[1.92215,48.4576],[1.90451,48.44026],[1.86932,48.4405],[1.83457,48.46724],[1.80213,48.46809],[1.77684,48.51287],[1.78725,48.55375],[1.76145,48.57169],[1.70925,48.57803],[1.71514,48.61315],[1.66635,48.61371],[1.6432,48.65129],[1.60271,48.6631],[1.6113,48.68846],[1.5825,48.7043],[1.62496,48.74903],[1.58491,48.7633],[1.57702,48.78525],[1.59022,48.81435],[1.58179,48.82983],[1.59489,48.83914],[1.54623,48.87244],[1.56374,48.89063],[1.53852,48.90668],[1.53825,48.92169],[1.51392,48.92181],[1.5018,48.94106],[1.46131,48.93756],[1.44796,48.92464],[1.47064,48.898],[1.46582,48.87914],[1.35978,48.8312],[1.37449,48.7824],[1.32739,48.76044],[1.25841,48.75803],[1.24602,48.76968],[1.22305,48.75798],[1.1214,48.78919],[1.11374,48.7463],[1.06303,48.75897],[1.03259,48.72847],[0.97829,48.73096],[0.9212,48.70918],[0.89036,48.71943],[0.86259,48.68808],[0.80995,48.66423],[0.83176,48.63342],[0.8224,48.60888],[0.84591,48.60902],[0.84931,48.58594],[0.92571,48.55965],[0.93714,48.5486],[0.9242,48.53804],[0.96774,48.52388],[0.94155,48.49869],[0.95306,48.48016],[0.93571,48.47551],[0.95558,48.4453],[0.97642,48.43877],[0.90735,48.3701],[0.78543,48.34044],[0.75684,48.30046],[0.80707,48.28973],[0.78732,48.26144],[0.82945,48.21137],[0.79753,48.18817],[0.84057,48.16553],[0.88447,48.16184],[0.91665,48.13894],[0.85037,48.13308],[0.84122,48.10306],[0.81615,48.09464],[0.84501,48.09277],[0.84302,48.07264],[0.794,48.06944],[0.79755,48.03725],[0.83825,48.03261],[0.82038,47.98803],[0.84838,47.94393],[0.81222,47.92815],[0.81324,47.88948],[0.787,47.91175],[0.75981,47.89809],[0.75916,47.85923],[0.77424,47.8405],[0.69175,47.78353],[0.69735,47.76419],[0.62633,47.75136],[0.58051,47.71283],[0.59959,47.687],[0.61868,47.69226],[0.59334,47.67184],[0.46118,47.64381],[0.45141,47.62146],[0.43174,47.61832],[0.38279,47.6431],[0.36456,47.62207],[0.40258,47.57851],[0.37848,47.56853],[0.25911,47.6123],[0.23,47.6084],[0.23457,47.57861],[0.19312,47.53804],[0.22484,47.52728],[0.22011,47.50195],[0.18087,47.45322],[0.18094,47.4166],[0.15386,47.39873],[0.18214,47.38194],[0.14041,47.36181],[0.1473,47.34538],[0.11746,47.33234],[0.08238,47.28687],[0.0691,47.24333],[0.07684,47.21937],[0.05381,47.19886],[0.06659,47.1898],[0.05374,47.16461],[0.07839,47.14634],[0.08243,47.1178],[0.14068,47.1246],[0.13495,47.10837],[0.16192,47.10011],[0.18169,47.11536],[0.20046,47.09168],[0.1757,47.06073],[0.2082,47.05324],[0.24387,47.07095],[0.26355,47.06851],[0.26768,47.04405],[0.30794,47.04722],[0.31073,46.99731],[0.29144,46.99026],[0.32535,46.93094],[0.36463,46.94857],[0.43871,46.92958],[0.50519,46.95991],[0.59821,46.95643],[0.5988,46.97492],[0.57368,46.98339],[0.56774,47.00629],[0.61849,47.00751],[0.63779,46.98525],[0.69017,46.97498],[0.70467,46.90289],[0.75342,46.86058],[0.79664,46.84735],[0.78689,46.84123],[0.808,46.82914],[0.81335,46.79168],[0.91117,46.72707],[0.92713,46.6936],[0.90226,46.67767],[0.91564,46.65067],[0.89406,46.62862],[0.91587,46.59663],[0.96244,46.57254],[1.01476,46.56776],[1.02041,46.53715],[1.09009,46.53758],[1.14914,46.50221],[1.13612,46.49346],[1.15296,46.47284],[1.13551,46.47089],[1.15092,46.4503],[1.1858,46.42927],[1.21307,46.43308],[1.17728,46.38395],[1.18441,46.37703],[1.21295,46.388],[1.21797,46.36826],[1.31051,46.37437],[1.32184,46.38657],[1.31265,46.39371],[1.34468,46.4016],[1.41519,46.34722],[1.49695,46.39463],[1.52535,46.42665],[1.54367,46.4165],[1.54619,46.39593],[1.60906,46.42316],[1.62124,46.4194],[1.61442,46.40337],[1.62734,46.38943],[1.64109,46.38559],[1.6836,46.41818],[1.72784,46.38896],[1.75974,46.42749],[1.74759,46.45002],[1.79824,46.45491],[1.81845,46.43142],[1.84257,46.42681],[1.8878,46.44084],[1.92612,46.43191],[1.97875,46.44152],[2.06346,46.42135]]]}},{"type":"Feature","properties":{"gid":"FRA.5_1","name":"科西嘉大区","nameEn":"Corse","nameLocal":"","type":"Region","typeEn":"Region","groupZh":"大区","area":8734.7,"iso":"FR-20R","engtype":"Region","capital":"阿雅克肖","pop":350000,"blurb":"地中海第四大岛，拿破仑故乡，山地与海湾。"},"geometry":{"type":"MultiPolygon","coordinates":[[[[9.07903,41.47653],[9.06542,41.4543],[9.07347,41.44375],[9.12458,41.44375],[9.09458,41.41236],[9.09764,41.39125],[9.13347,41.39931],[9.17986,41.36542],[9.22042,41.36597],[9.25958,41.41347],[9.26486,41.42847],[9.21986,41.40514],[9.22903,41.42625],[9.21319,41.44042],[9.27625,41.46208],[9.26625,41.47042],[9.28819,41.49264],[9.26597,41.49875],[9.28486,41.51653],[9.27347,41.53125],[9.34403,41.55903],[9.36958,41.59405],[9.31958,41.60514],[9.29264,41.58153],[9.28653,41.60764],[9.30736,41.6157],[9.30764,41.62847],[9.32069,41.61514],[9.35569,41.61708],[9.34847,41.63792],[9.38625,41.64542],[9.38125,41.66403],[9.39681,41.66903],[9.37236,41.67931],[9.40125,41.69236],[9.4082,41.71375],[9.39681,41.87542],[9.41597,41.93097],[9.39931,41.95181],[9.41125,41.95375],[9.41236,41.9393],[9.42069,41.96736],[9.55291,42.11486],[9.56042,42.28264],[9.53236,42.37042],[9.54319,42.42681],[9.53319,42.54597],[9.51097,42.58931],[9.44736,42.65653],[9.46653,42.76097],[9.49319,42.80736],[9.46931,42.93625],[9.45208,42.96153],[9.46403,42.98625],[9.42264,43.01181],[9.35736,43.00708],[9.34014,42.99431],[9.35958,42.92375],[9.32181,42.89903],[9.34014,42.86542],[9.30958,42.83319],[9.34264,42.79708],[9.34514,42.73514],[9.30042,42.67597],[9.2543,42.70514],[9.25681,42.71875],[9.22903,42.71819],[9.22208,42.7357],[9.19986,42.72514],[9.12347,42.73264],[9.05875,42.69653],[9.06014,42.66125],[9.01486,42.64014],[8.94653,42.63319],[8.93319,42.6468],[8.91264,42.62931],[8.87958,42.62931],[8.86903,42.60792],[8.79847,42.60264],[8.81042,42.59486],[8.79847,42.58292],[8.80514,42.57208],[8.78375,42.5568],[8.75986,42.55847],[8.75569,42.5718],[8.72764,42.56181],[8.72431,42.58458],[8.70625,42.57014],[8.72264,42.55569],[8.70986,42.53625],[8.71958,42.52542],[8.66847,42.51764],[8.64875,42.47986],[8.67986,42.46958],[8.66764,42.44569],[8.64764,42.4432],[8.6632,42.43403],[8.65597,42.41708],[8.60792,42.41764],[8.60847,42.38625],[8.53431,42.37236],[8.55542,42.36458],[8.55292,42.33292],[8.59153,42.35292],[8.61514,42.34958],[8.62736,42.33181],[8.60125,42.32208],[8.60125,42.30875],[8.66097,42.30208],[8.69181,42.26931],[8.53847,42.23736],[8.5732,42.2282],[8.56569,42.20486],[8.58181,42.20681],[8.58625,42.18097],[8.56069,42.17181],[8.59375,42.16903],[8.55736,42.14542],[8.59097,42.14903],[8.57931,42.12792],[8.61569,42.13347],[8.65125,42.11875],[8.65819,42.10069],[8.70042,42.11292],[8.7157,42.06347],[8.73597,42.06597],[8.74847,42.04958],[8.65542,42.01014],[8.65875,41.99153],[8.67653,41.98931],[8.64958,41.96931],[8.59208,41.96403],[8.62347,41.9357],[8.60708,41.89375],[8.64125,41.90986],[8.71847,41.90736],[8.74125,41.91542],[8.74792,41.93403],[8.78319,41.92542],[8.80431,41.89569],[8.77847,41.8843],[8.78903,41.85097],[8.74875,41.84542],[8.78403,41.83264],[8.77431,41.81236],[8.74764,41.81125],[8.73736,41.79681],[8.71181,41.80264],[8.73236,41.77958],[8.69569,41.75153],[8.66125,41.75042],[8.65931,41.73847],[8.70681,41.73875],[8.70931,41.72181],[8.77597,41.74125],[8.78125,41.69931],[8.81236,41.71458],[8.84319,41.69653],[8.91458,41.69097],[8.91375,41.67986],[8.88181,41.67097],[8.87208,41.64625],[8.79403,41.63264],[8.78653,41.59708],[8.77375,41.59153],[8.80403,41.57542],[8.78292,41.56708],[8.78736,41.5568],[8.85347,41.54681],[8.84236,41.5182],[8.87653,41.52486],[8.89069,41.51597],[8.8832,41.50486],[8.91931,41.50542],[8.92042,41.48847],[8.96042,41.49181],[8.98097,41.47347],[8.99403,41.48764],[9.00264,41.47486],[9.01931,41.47986],[9.02403,41.46125],[9.03792,41.47153],[9.04042,41.45625],[9.07903,41.47653]]],[[[9.26153,41.37181],[9.24986,41.3682],[9.27542,41.3682],[9.26153,41.37181]]]]}},{"type":"Feature","properties":{"gid":"FRA.6_1","name":"大东部大区","nameEn":"Grand Est","nameLocal":"","type":"Region","typeEn":"Region","groupZh":"大区","area":57502.5,"iso":"NA","engtype":"Region","capital":"斯特拉斯堡","pop":5550000,"blurb":"东部边境，阿尔萨斯葡萄酒与欧洲议会所在地。"},"geometry":{"type":"Polygon","coordinates":[[[7.17825,47.45814],[7.17473,47.44267],[7.2359,47.43688],[7.24714,47.42113],[7.30398,47.43826],[7.40034,47.43539],[7.45348,47.47358],[7.42122,47.48017],[7.43476,47.49797],[7.48558,47.48186],[7.50792,47.49623],[7.4978,47.52122],[7.53002,47.52633],[7.50245,47.52885],[7.5045,47.54296],[7.58427,47.57571],[7.59145,47.60417],[7.52108,47.66385],[7.51159,47.69675],[7.5476,47.72982],[7.52985,47.78126],[7.56292,47.84269],[7.55631,47.87753],[7.57978,47.89489],[7.58247,47.92986],[7.62195,47.97281],[7.56853,48.03518],[7.57833,48.12229],[7.6657,48.22048],[7.69357,48.30172],[7.74464,48.32781],[7.73315,48.39721],[7.7682,48.48966],[7.80394,48.51122],[7.80029,48.58404],[7.83974,48.64128],[7.88998,48.6626],[7.9633,48.72153],[7.97201,48.75812],[8.01433,48.76102],[8.03028,48.78737],[8.08702,48.80201],[8.14655,48.90229],[8.19639,48.9565],[8.23263,48.96657],[8.22589,48.9746],[8.19948,48.9669],[8.19439,48.97713],[8.08768,48.98982],[8.04898,49.01429],[7.97479,49.0268],[7.93279,49.05806],[7.91698,49.04088],[7.88913,49.04904],[7.86683,49.03292],[7.7944,49.06569],[7.76109,49.04552],[7.6312,49.05489],[7.62931,49.07355],[7.52868,49.09709],[7.48957,49.13647],[7.50598,49.15052],[7.49398,49.16936],[7.43335,49.16518],[7.44565,49.18415],[7.36514,49.17184],[7.36273,49.14315],[7.32136,49.14139],[7.29318,49.11491],[7.24505,49.13011],[7.19804,49.11517],[7.18547,49.13124],[7.15672,49.12102],[7.12578,49.1419],[7.10406,49.13839],[7.11323,49.15196],[7.10107,49.156],[7.08218,49.15207],[7.0894,49.13018],[7.05245,49.11276],[7.02763,49.17033],[7.03501,49.19142],[6.9596,49.20309],[6.93811,49.22243],[6.89335,49.20915],[6.85887,49.22276],[6.83799,49.21349],[6.86177,49.17884],[6.83406,49.15108],[6.78272,49.16816],[6.7386,49.16367],[6.71121,49.18834],[6.73144,49.20596],[6.72347,49.21883],[6.69583,49.21527],[6.69,49.24955],[6.66142,49.25808],[6.67017,49.28025],[6.61511,49.30135],[6.58912,49.32206],[6.59116,49.33625],[6.56566,49.34765],[6.60216,49.36711],[6.54082,49.40125],[6.53868,49.4122],[6.55739,49.41953],[6.54171,49.43249],[6.42913,49.47624],[6.36886,49.45982],[6.33378,49.46689],[6.24269,49.51218],[6.15676,49.50284],[6.10001,49.46678],[6.10081,49.45289],[6.05634,49.4654],[6.04215,49.44781],[5.98205,49.45107],[5.9702,49.49022],[5.94543,49.49964],[5.86401,49.50125],[5.83605,49.51996],[5.83617,49.54178],[5.8172,49.537],[5.77274,49.56255],[5.74272,49.53928],[5.6452,49.54969],[5.61796,49.53035],[5.61103,49.50589],[5.55398,49.52787],[5.47091,49.49722],[5.4472,49.51788],[5.46526,49.53631],[5.44135,49.55214],[5.45386,49.56597],[5.43097,49.59238],[5.34686,49.63084],[5.31498,49.61203],[5.30491,49.63006],[5.33262,49.6535],[5.26838,49.69595],[5.16621,49.69292],[5.16086,49.71519],[5.12307,49.71731],[5.08972,49.76479],[5.01491,49.77951],[4.99147,49.80022],[4.90623,49.7856],[4.8551,49.79457],[4.87364,49.81897],[4.85155,49.86269],[4.88518,49.91216],[4.8452,49.94893],[4.79092,49.9584],[4.79,49.96889],[4.84009,50.04034],[4.82078,50.06527],[4.83916,50.06971],[4.85013,50.10018],[4.87243,50.09217],[4.86912,50.11979],[4.89566,50.13628],[4.82281,50.16764],[4.76517,50.13739],[4.75135,50.11174],[4.70278,50.09565],[4.68188,50.06763],[4.69703,50.05929],[4.68663,50.02778],[4.6946,49.9965],[4.59597,49.98596],[4.51132,49.94681],[4.4458,49.93717],[4.31062,49.96857],[4.23307,49.95782],[4.21777,49.91626],[4.25573,49.90398],[4.25009,49.86325],[4.21477,49.80611],[4.22704,49.79319],[4.20633,49.77962],[4.24688,49.75574],[4.18527,49.69887],[4.12702,49.67792],[4.11569,49.63326],[4.04235,49.63816],[4.02628,49.61992],[4.07677,49.57072],[4.05044,49.55159],[4.07565,49.53896],[4.0745,49.51859],[4.04071,49.50853],[4.04211,49.47073],[4.06615,49.44545],[4.03758,49.43808],[4.04987,49.41242],[4.0355,49.35991],[3.96131,49.37735],[3.92482,49.40773],[3.85984,49.38152],[3.85131,49.34494],[3.77753,49.35582],[3.6476,49.31596],[3.63834,49.30136],[3.65899,49.28677],[3.65525,49.26285],[3.67702,49.23708],[3.6548,49.21295],[3.68194,49.19875],[3.69748,49.20664],[3.70649,49.18032],[3.75115,49.1777],[3.74868,49.15853],[3.7033,49.1432],[3.68383,49.15449],[3.62111,49.14977],[3.60002,49.12069],[3.63905,49.08131],[3.58771,49.05935],[3.5852,49.03887],[3.65013,49.04136],[3.67772,49.01603],[3.63982,49.004],[3.62121,48.96603],[3.59148,48.96025],[3.60125,48.94668],[3.57444,48.93903],[3.56668,48.91349],[3.52858,48.91214],[3.503,48.87149],[3.48132,48.86647],[3.4872,48.81519],[3.40615,48.81024],[3.44084,48.80148],[3.4426,48.78814],[3.40998,48.78372],[3.39911,48.755],[3.42828,48.75716],[3.44273,48.73781],[3.4674,48.73863],[3.47778,48.69793],[3.4427,48.6725],[3.45881,48.65128],[3.45109,48.63465],[3.53324,48.64651],[3.51876,48.63669],[3.55569,48.61695],[3.50851,48.60551],[3.51522,48.59099],[3.46552,48.57048],[3.48175,48.54145],[3.4054,48.52802],[3.43491,48.49685],[3.38409,48.47803],[3.40571,48.45329],[3.39291,48.42522],[3.42068,48.41545],[3.41401,48.37654],[3.43158,48.36085],[3.47048,48.37467],[3.50441,48.36549],[3.54511,48.33455],[3.5439,48.31979],[3.56407,48.32108],[3.58754,48.29848],[3.58251,48.28284],[3.61519,48.27254],[3.6246,48.256],[3.59995,48.23563],[3.6216,48.22561],[3.57519,48.18874],[3.59397,48.1787],[3.62355,48.19201],[3.64051,48.18462],[3.66787,48.13921],[3.72052,48.15481],[3.71654,48.17418],[3.74548,48.16753],[3.75454,48.15209],[3.74065,48.13198],[3.76893,48.13285],[3.80166,48.10673],[3.79861,48.08617],[3.82635,48.06351],[3.82198,48.04392],[3.87024,48.01631],[3.87081,48.00286],[3.83981,48.00389],[3.85003,47.98366],[3.88045,47.98145],[3.88209,47.99797],[3.89573,47.99983],[3.91417,47.97559],[3.89569,47.92855],[3.98563,47.93052],[4.00554,47.94237],[4.04599,47.9269],[4.06094,47.94571],[4.1137,47.92816],[4.16734,47.96001],[4.2004,47.94183],[4.20195,47.97258],[4.22596,47.97194],[4.2239,47.9485],[4.24621,47.93041],[4.29342,47.92567],[4.3128,47.9625],[4.41641,47.9682],[4.44696,47.9562],[4.55238,47.96779],[4.55544,47.98477],[4.53577,48.00657],[4.59834,48.0305],[4.78942,48.00787],[4.80831,47.98878],[4.78778,47.96526],[4.84503,47.96043],[4.86521,47.94156],[4.83402,47.9068],[4.85678,47.89563],[4.87459,47.91952],[4.90596,47.91647],[4.92746,47.87155],[4.95409,47.86677],[4.96838,47.83226],[4.99413,47.81975],[4.9861,47.8036],[4.91796,47.7771],[4.92478,47.76062],[4.95899,47.76188],[4.9605,47.73281],[4.97154,47.73108],[4.95451,47.70289],[4.96857,47.68733],[5.02915,47.70993],[5.03123,47.69413],[5.05624,47.69481],[5.05257,47.66984],[5.12757,47.64847],[5.17834,47.68095],[5.17341,47.65353],[5.23694,47.61678],[5.2586,47.62222],[5.23952,47.59762],[5.25623,47.57655],[5.3233,47.61199],[5.35572,47.59169],[5.40562,47.64813],[5.40649,47.67362],[5.48277,47.68464],[5.53059,47.67401],[5.56739,47.70712],[5.59681,47.67165],[5.68878,47.68478],[5.6852,47.72269],[5.70942,47.74495],[5.70729,47.76772],[5.67661,47.77916],[5.69827,47.82336],[5.74023,47.81894],[5.7442,47.84885],[5.76119,47.85934],[5.82852,47.85195],[5.82186,47.86911],[5.84819,47.90343],[5.88649,47.90263],[5.88473,47.92605],[5.91804,47.94736],[5.92739,47.9744],[5.94753,47.97971],[5.9597,47.96655],[5.93263,47.93793],[5.94763,47.93618],[5.97078,47.95721],[6.00226,47.95609],[6.03686,48.00145],[6.1314,48.02409],[6.15606,48.00694],[6.16268,47.97264],[6.14958,47.9688],[6.20706,47.94573],[6.20522,47.93205],[6.27733,47.95381],[6.38835,47.96002],[6.43192,47.94381],[6.47826,47.88544],[6.54201,47.90253],[6.56871,47.9345],[6.60598,47.94447],[6.6452,47.90409],[6.78495,47.84958],[6.79195,47.83017],[6.82354,47.81305],[6.84618,47.82294],[6.86496,47.78461],[7.01578,47.74347],[7.03742,47.72156],[7.02757,47.70537],[7.04528,47.67038],[7.00666,47.62643],[7.00921,47.59939],[7.01956,47.58854],[7.04312,47.59997],[7.08539,47.59305],[7.10622,47.55134],[7.14217,47.52502],[7.13035,47.50303],[7.20231,47.4917],[7.17825,47.45814]]]}},{"type":"Feature","properties":{"gid":"FRA.7_1","name":"上法兰西大区","nameEn":"Hauts-de-France","nameLocal":"","type":"Region","typeEn":"Region","groupZh":"大区","area":31868.5,"iso":"FR-HDF","engtype":"Region","capital":"里尔","pop":5990000,"blurb":"最北工业旧地，里尔都会与一战战场。"},"geometry":{"type":"Polygon","coordinates":[[[3.38683,48.87175],[3.45223,48.8563],[3.44536,48.84323],[3.46196,48.83847],[3.52858,48.91214],[3.57243,48.91861],[3.57444,48.93903],[3.60125,48.94668],[3.59148,48.96025],[3.62121,48.96603],[3.63982,49.004],[3.67772,49.01603],[3.65013,49.04136],[3.5852,49.03887],[3.58771,49.05935],[3.63905,49.08131],[3.60002,49.12069],[3.62111,49.14977],[3.68383,49.15449],[3.7033,49.1432],[3.74868,49.15853],[3.75115,49.1777],[3.70649,49.18032],[3.69748,49.20664],[3.68194,49.19875],[3.6548,49.21295],[3.67702,49.23708],[3.65525,49.26285],[3.65899,49.28677],[3.63834,49.30136],[3.6476,49.31596],[3.77753,49.35582],[3.85131,49.34494],[3.85984,49.38152],[3.92482,49.40773],[3.96131,49.37735],[4.0355,49.35991],[4.04987,49.41242],[4.03758,49.43808],[4.06615,49.44545],[4.04211,49.47073],[4.04071,49.50853],[4.0745,49.51859],[4.07565,49.53896],[4.05044,49.55159],[4.07677,49.57072],[4.02628,49.61992],[4.04235,49.63816],[4.11569,49.63326],[4.12702,49.67792],[4.18527,49.69887],[4.24688,49.75574],[4.20633,49.77962],[4.22704,49.79319],[4.21477,49.80611],[4.25009,49.86325],[4.25573,49.90398],[4.21777,49.91626],[4.23307,49.95782],[4.19736,49.95449],[4.19545,49.96745],[4.14098,49.97881],[4.16241,49.99655],[4.13542,50.01518],[4.16078,50.04752],[4.23013,50.06984],[4.19766,50.10944],[4.19525,50.1346],[4.12691,50.1349],[4.15321,50.16037],[4.16052,50.19819],[4.15087,50.21342],[4.22083,50.2543],[4.20597,50.27251],[4.16045,50.2859],[4.15206,50.27697],[4.16366,50.25729],[4.13496,50.25909],[4.11836,50.30227],[4.07916,50.30967],[4.02522,50.35789],[3.90085,50.32746],[3.84015,50.35386],[3.74277,50.34808],[3.73172,50.3119],[3.71435,50.31678],[3.71042,50.30318],[3.67368,50.33493],[3.65783,50.37058],[3.67295,50.38906],[3.66099,50.45759],[3.60794,50.49653],[3.50234,50.48797],[3.51812,50.52149],[3.47489,50.53318],[3.45008,50.50723],[3.37726,50.49099],[3.28653,50.52758],[3.27831,50.5942],[3.2444,50.64087],[3.24211,50.66668],[3.26183,50.67596],[3.2599,50.69873],[3.19222,50.72487],[3.19903,50.73401],[3.14711,50.78991],[3.11221,50.79303],[3.09019,50.77439],[3.05874,50.78071],[2.95714,50.75281],[2.90994,50.69436],[2.84857,50.72176],[2.79122,50.72753],[2.71983,50.81205],[2.63498,50.81276],[2.61463,50.84767],[2.59911,50.84982],[2.61142,50.8636],[2.6089,50.89629],[2.59001,50.9191],[2.62971,50.94933],[2.60648,50.98891],[2.57829,51.00002],[2.54603,51.0894],[2.41639,51.05431],[2.35417,51.05236],[2.36917,51.03653],[2.32806,51.05264],[2.26805,51.03208],[2.2575,51.04264],[2.20694,51.03264],[2.16195,51.0443],[2.19417,51.03764],[2.17417,51.02319],[2.19028,51.02208],[2.18083,51.00097],[2.17028,51.02208],[2.15139,51.02153],[2.16195,51.03792],[2.12417,51.01486],[1.93861,51.00042],[1.84083,50.97347],[1.8675,50.97042],[1.84972,50.96181],[1.73195,50.94014],[1.63917,50.87708],[1.58139,50.87125],[1.60639,50.76708],[1.59417,50.72847],[1.57583,50.71736],[1.57583,50.72792],[1.56139,50.72597],[1.57306,50.7132],[1.55917,50.69847],[1.57639,50.64069],[1.57639,50.57097],[1.62472,50.51958],[1.58361,50.53653],[1.55528,50.39847],[1.61695,50.36903],[1.5525,50.36208],[1.53805,50.2793],[1.54861,50.25736],[1.59083,50.25597],[1.58083,50.25097],[1.62083,50.21431],[1.65806,50.20958],[1.61472,50.20709],[1.62083,50.19653],[1.66639,50.1893],[1.65528,50.18125],[1.5825,50.2007],[1.57083,50.21819],[1.52306,50.20875],[1.48139,50.1707],[1.45306,50.10875],[1.37972,50.06503],[1.40926,50.05708],[1.44719,50.06966],[1.45915,50.0625],[1.45832,50.03725],[1.51448,50.01265],[1.59605,49.94799],[1.67845,49.91813],[1.71209,49.8864],[1.73385,49.8135],[1.78485,49.7579],[1.74989,49.76212],[1.74546,49.73857],[1.71554,49.73288],[1.71437,49.7072],[1.68862,49.69371],[1.70776,49.68137],[1.7503,49.69582],[1.75218,49.68097],[1.69868,49.64435],[1.72169,49.62332],[1.69373,49.60107],[1.72162,49.58881],[1.69459,49.58054],[1.72983,49.56129],[1.72638,49.54237],[1.74552,49.53916],[1.71623,49.5045],[1.74487,49.49173],[1.76807,49.51203],[1.78755,49.50623],[1.78863,49.49014],[1.72821,49.44114],[1.71394,49.40923],[1.74038,49.40568],[1.72003,49.39528],[1.75934,49.36824],[1.774,49.33569],[1.77239,49.29366],[1.80266,49.27343],[1.79055,49.24657],[1.75472,49.27001],[1.71165,49.26452],[1.70098,49.23396],[1.74045,49.22344],[1.71558,49.20285],[1.75613,49.17488],[1.79778,49.18515],[1.83125,49.17698],[1.83407,49.16512],[1.87677,49.17531],[1.88257,49.16249],[1.97409,49.18332],[1.99945,49.17557],[2.08089,49.21045],[2.09587,49.19006],[2.15303,49.18393],[2.16827,49.16475],[2.17658,49.17654],[2.22028,49.1792],[2.23342,49.16594],[2.21636,49.15438],[2.24158,49.15157],[2.28641,49.15992],[2.3012,49.18389],[2.32178,49.18444],[2.3593,49.14735],[2.37316,49.15933],[2.49923,49.12227],[2.48993,49.10636],[2.53106,49.0996],[2.53389,49.11911],[2.55165,49.12064],[2.55948,49.09762],[2.59052,49.07965],[2.63327,49.10838],[2.69002,49.06756],[2.72436,49.08046],[2.73501,49.06046],[2.76083,49.063],[2.78527,49.07544],[2.76834,49.08326],[2.80925,49.09754],[2.85609,49.07003],[2.96733,49.09065],[2.98813,49.07238],[3.01283,49.0908],[3.06608,49.08522],[3.05632,49.10192],[3.07188,49.11755],[3.13862,49.10646],[3.16523,49.09966],[3.15581,49.0855],[3.19067,49.04997],[3.16301,49.01994],[3.24952,48.97423],[3.26516,48.93906],[3.30475,48.94877],[3.3302,48.90796],[3.36743,48.92881],[3.38683,48.87175]]]}},{"type":"Feature","properties":{"gid":"FRA.8_1","name":"法兰西岛大区","nameEn":"Île-de-France","nameLocal":"","type":"Region","typeEn":"Region","groupZh":"大区","area":12016.5,"iso":"NA","engtype":"Region","capital":"巴黎","pop":12300000,"blurb":"首都圈，巴黎一区独大，全国政治经济文化核心。"},"geometry":{"type":"Polygon","coordinates":[[[2.72246,48.13741],[2.7552,48.14565],[2.73641,48.16631],[2.79896,48.16803],[2.81092,48.16407],[2.80239,48.13146],[2.82088,48.12967],[2.86682,48.15604],[2.93631,48.16339],[2.93475,48.17882],[2.97167,48.20341],[3.00599,48.20942],[3.0327,48.24874],[3.04757,48.2497],[3.01569,48.30732],[3.04057,48.32893],[3.04945,48.36003],[3.10342,48.34951],[3.12247,48.36863],[3.17181,48.37767],[3.25102,48.3651],[3.28317,48.38139],[3.35635,48.37186],[3.37541,48.39869],[3.41479,48.39027],[3.42068,48.41545],[3.39291,48.42522],[3.40571,48.45329],[3.38409,48.47803],[3.43491,48.49685],[3.4054,48.52802],[3.48175,48.54145],[3.46552,48.57048],[3.51522,48.59099],[3.50851,48.60551],[3.55569,48.61695],[3.51876,48.63669],[3.53324,48.64651],[3.45109,48.63465],[3.45881,48.65128],[3.4427,48.6725],[3.47778,48.69793],[3.4674,48.73863],[3.39713,48.7614],[3.40998,48.78372],[3.44215,48.78485],[3.44084,48.80148],[3.40615,48.81024],[3.4872,48.81519],[3.48519,48.85191],[3.46196,48.83847],[3.44536,48.84323],[3.45223,48.8563],[3.38233,48.87363],[3.36743,48.92881],[3.3302,48.90796],[3.30475,48.94877],[3.26516,48.93906],[3.24952,48.97423],[3.16301,49.01994],[3.19061,49.04672],[3.15581,49.0855],[3.16523,49.09966],[3.07188,49.11755],[3.05632,49.10192],[3.06608,49.08522],[3.01283,49.0908],[2.98813,49.07238],[2.96733,49.09065],[2.85609,49.07003],[2.80925,49.09754],[2.76834,49.08326],[2.78527,49.07544],[2.76083,49.063],[2.73501,49.06046],[2.72436,49.08046],[2.69002,49.06756],[2.63327,49.10838],[2.59052,49.07965],[2.55948,49.09762],[2.55165,49.12064],[2.53389,49.11911],[2.53106,49.0996],[2.48993,49.10636],[2.49923,49.12227],[2.37316,49.15933],[2.3593,49.14735],[2.32178,49.18444],[2.3012,49.18389],[2.28641,49.15992],[2.24158,49.15157],[2.21636,49.15438],[2.23342,49.16594],[2.22028,49.1792],[2.17658,49.17654],[2.16827,49.16475],[2.15303,49.18393],[2.09587,49.19006],[2.08089,49.21045],[1.99945,49.17557],[1.97409,49.18332],[1.88257,49.16249],[1.87677,49.17531],[1.83407,49.16512],[1.83125,49.17698],[1.79778,49.18515],[1.75613,49.17488],[1.71558,49.20285],[1.74045,49.22344],[1.71081,49.23738],[1.67629,49.21219],[1.65599,49.13039],[1.62014,49.09698],[1.62332,49.08608],[1.52135,49.06835],[1.51027,49.08429],[1.5033,49.0591],[1.44728,49.05351],[1.4804,49.00556],[1.4617,48.98886],[1.47089,48.97482],[1.51839,48.97836],[1.49523,48.96574],[1.511,48.95358],[1.5081,48.92725],[1.53825,48.92169],[1.53852,48.90668],[1.56374,48.89063],[1.54623,48.87244],[1.59489,48.83914],[1.58179,48.82983],[1.59022,48.81435],[1.57702,48.78525],[1.58491,48.7633],[1.62496,48.74903],[1.5825,48.7043],[1.6113,48.68846],[1.60271,48.6631],[1.6432,48.65129],[1.66635,48.61371],[1.71514,48.61315],[1.70925,48.57803],[1.76145,48.57169],[1.78725,48.55375],[1.77684,48.51287],[1.80213,48.46809],[1.83457,48.46724],[1.86932,48.4405],[1.93063,48.45372],[1.94289,48.441],[1.93042,48.40395],[1.97724,48.39917],[1.96672,48.38042],[1.98736,48.36381],[1.97062,48.33999],[1.98234,48.32832],[1.95923,48.30869],[1.97914,48.28822],[2.04324,48.28617],[2.10378,48.30683],[2.16159,48.29844],[2.15472,48.31453],[2.18148,48.31379],[2.20709,48.34494],[2.24631,48.32997],[2.24516,48.2984],[2.26912,48.31505],[2.30021,48.31124],[2.31718,48.33157],[2.35959,48.30882],[2.40266,48.32072],[2.42076,48.29925],[2.42172,48.26388],[2.50619,48.23854],[2.52301,48.19876],[2.50633,48.15644],[2.48324,48.16452],[2.44269,48.12549],[2.52221,48.12521],[2.53751,48.14052],[2.57056,48.14082],[2.57787,48.13178],[2.63967,48.13895],[2.66475,48.12054],[2.72246,48.13741]]]}},{"type":"Feature","properties":{"gid":"FRA.9_1","name":"诺曼底大区","nameEn":"Normandie","nameLocal":"","type":"Region","typeEn":"Region","groupZh":"大区","area":30109.0,"iso":"FR-NOR","engtype":"Region","capital":"鲁昂","pop":3350000,"blurb":"西北海岸，诺曼底登陆海滩与卡门贝尔奶酪。"},"geometry":{"type":"MultiPolygon","coordinates":[[[[-0.0719,48.45609],[-0.0507,48.45059],[-0.04967,48.37513],[0.00337,48.396],[0.02308,48.38021],[0.0602,48.37994],[0.06736,48.40606],[0.09943,48.41096],[0.11159,48.43232],[0.15332,48.43794],[0.14393,48.45495],[0.17365,48.45088],[0.17233,48.46383],[0.26681,48.48458],[0.29791,48.47982],[0.35289,48.45969],[0.38172,48.42479],[0.37386,48.38697],[0.39536,48.32129],[0.44281,48.30463],[0.49158,48.30717],[0.50582,48.29366],[0.49442,48.28349],[0.53734,48.24924],[0.63191,48.23462],[0.64275,48.26154],[0.68392,48.254],[0.72364,48.19814],[0.75921,48.18009],[0.82945,48.21137],[0.78732,48.26144],[0.80707,48.28973],[0.75684,48.30046],[0.76951,48.32185],[0.78803,48.34132],[0.88371,48.35672],[0.94838,48.40165],[0.94529,48.41811],[0.97642,48.43877],[0.95558,48.4453],[0.93571,48.47551],[0.95306,48.48016],[0.94155,48.49869],[0.96774,48.52388],[0.9242,48.53804],[0.93714,48.5486],[0.92571,48.55965],[0.84931,48.58594],[0.84591,48.60902],[0.8224,48.60888],[0.83176,48.63342],[0.81482,48.67017],[0.86259,48.68808],[0.89036,48.71943],[0.9212,48.70918],[0.97829,48.73096],[1.03259,48.72847],[1.06303,48.75897],[1.11374,48.7463],[1.1214,48.78919],[1.22305,48.75798],[1.24602,48.76968],[1.25841,48.75803],[1.32739,48.76044],[1.37449,48.7824],[1.35978,48.8312],[1.40482,48.86071],[1.45763,48.87152],[1.47064,48.898],[1.44796,48.92464],[1.50152,48.94106],[1.511,48.95358],[1.49523,48.96574],[1.51839,48.97836],[1.47089,48.97482],[1.4617,48.98886],[1.4804,49.00556],[1.44728,49.05351],[1.5033,49.0591],[1.51027,49.08429],[1.52135,49.06835],[1.6088,49.07789],[1.65599,49.13039],[1.67321,49.20563],[1.70436,49.2322],[1.71165,49.26452],[1.75472,49.27001],[1.79055,49.24657],[1.80266,49.27343],[1.77239,49.29366],[1.774,49.33569],[1.75934,49.36824],[1.72003,49.39528],[1.74038,49.40568],[1.71394,49.40923],[1.72821,49.44114],[1.78863,49.49014],[1.78755,49.50623],[1.76807,49.51203],[1.74487,49.49173],[1.71623,49.5045],[1.74552,49.53916],[1.72638,49.54237],[1.72983,49.56129],[1.69459,49.58054],[1.72162,49.58881],[1.69373,49.60107],[1.72169,49.62332],[1.69868,49.64435],[1.75218,49.68097],[1.7503,49.69582],[1.70776,49.68137],[1.68862,49.69371],[1.71437,49.7072],[1.71554,49.73288],[1.74546,49.73857],[1.74989,49.76212],[1.78485,49.7579],[1.73385,49.8135],[1.71209,49.8864],[1.67845,49.91813],[1.59605,49.94799],[1.51448,50.01265],[1.45832,50.03725],[1.45915,50.0625],[1.43198,50.07155],[1.40926,50.05708],[1.36861,50.0643],[1.20486,49.97236],[1.06819,49.92569],[0.9582,49.91958],[0.79625,49.87653],[0.57819,49.85209],[0.33403,49.74625],[0.20653,49.71486],[0.16264,49.68653],[0.15708,49.66208],[0.11764,49.66486],[0.14903,49.66459],[0.1532,49.64542],[0.07181,49.5332],[0.06681,49.50792],[0.12764,49.47347],[0.17542,49.4707],[0.0993,49.47875],[0.11319,49.46986],[0.2868,49.44264],[0.29264,49.42958],[0.22347,49.42847],[0.13431,49.40514],[-0.00319,49.32458],[-0.08903,49.29514],[-0.22736,49.28375],[-0.22431,49.27069],[-0.24486,49.26431],[-0.22736,49.27708],[-0.24958,49.28153],[-0.24708,49.29097],[-0.39458,49.33347],[-0.79458,49.35375],[-0.93931,49.39542],[-1.0743,49.38986],[-1.11764,49.35931],[-1.11542,49.34458],[-1.13847,49.36736],[-1.17181,49.35736],[-1.17347,49.37653],[-1.15847,49.3843],[-1.16708,49.40792],[-1.30708,49.54653],[-1.29569,49.58347],[-1.26208,49.58486],[-1.25458,49.61236],[-1.22903,49.60597],[-1.23958,49.65458],[-1.2732,49.67931],[-1.26542,49.69736],[-1.38347,49.70625],[-1.47319,49.69736],[-1.48708,49.66819],[-1.60569,49.65653],[-1.61514,49.64458],[-1.62986,49.65986],[-1.67208,49.65792],[-1.68597,49.67403],[-1.82486,49.69069],[-1.85153,49.71792],[-1.88708,49.70597],[-1.91125,49.72458],[-1.94486,49.72347],[-1.93625,49.68875],[-1.94625,49.67403],[-1.87569,49.65847],[-1.84764,49.62625],[-1.84122,49.57264],[-1.8893,49.53347],[-1.85014,49.50764],[-1.80986,49.37236],[-1.77569,49.37736],[-1.78791,49.37347],[-1.7218,49.32542],[-1.7043,49.32819],[-1.70958,49.33986],[-1.69458,49.33014],[-1.70736,49.31847],[-1.66958,49.28347],[-1.67875,49.28097],[-1.63125,49.21347],[-1.61292,49.20819],[-1.62486,49.21375],[-1.61708,49.22681],[-1.58931,49.22292],[-1.61403,49.2168],[-1.59236,49.13625],[-1.61014,49.07681],[-1.58681,49.00819],[-1.57514,49.00042],[-1.55681,49.03403],[-1.51292,49.02792],[-1.53514,49.0368],[-1.55792,49.02625],[-1.56319,48.94347],[-1.5437,48.9321],[-1.54875,48.91653],[-1.55125,48.93597],[-1.56236,48.92847],[-1.58403,48.85014],[-1.61514,48.8343],[-1.57403,48.82069],[-1.57153,48.74292],[-1.53403,48.73071],[-1.50514,48.68458],[-1.46264,48.67236],[-1.44681,48.65375],[-1.42042,48.65264],[-1.40569,48.67236],[-1.41014,48.64958],[-1.36597,48.64653],[-1.35931,48.63542],[-1.38486,48.64875],[-1.48319,48.64347],[-1.50125,48.63097],[-1.5782,48.64097],[-1.53889,48.59746],[-1.54201,48.58087],[-1.52775,48.57908],[-1.53311,48.54944],[-1.48995,48.48938],[-1.45409,48.48772],[-1.42775,48.46235],[-1.38297,48.45687],[-1.32181,48.4998],[-1.279,48.50918],[-1.27291,48.53372],[-1.20689,48.54219],[-1.14571,48.51765],[-1.06075,48.51539],[-1.00297,48.48907],[-0.97378,48.49483],[-0.95388,48.51679],[-0.89603,48.49487],[-0.86036,48.50146],[-0.81602,48.47119],[-0.81274,48.45492],[-0.77787,48.46541],[-0.77928,48.44847],[-0.75648,48.43694],[-0.71592,48.4509],[-0.73526,48.4624],[-0.72525,48.47347],[-0.68799,48.46944],[-0.66884,48.48646],[-0.65422,48.44455],[-0.59431,48.47252],[-0.55316,48.47297],[-0.50929,48.50884],[-0.39766,48.51051],[-0.35315,48.48377],[-0.32024,48.52293],[-0.27155,48.50745],[-0.24306,48.53706],[-0.26058,48.54913],[-0.24264,48.568],[-0.1446,48.52775],[-0.17209,48.50214],[-0.15733,48.49629],[-0.14895,48.45879],[-0.10826,48.44802],[-0.0719,48.45609]]],[[[-1.83292,48.87736],[-1.84569,48.87931],[-1.82042,48.8682],[-1.83292,48.87736]]]]}},{"type":"Feature","properties":{"gid":"FRA.10_1","name":"新阿基坦大区","nameEn":"Nouvelle-Aquitaine","nameLocal":"","type":"Region","typeEn":"Region","groupZh":"大区","area":84647.7,"iso":"FR-NAQ","engtype":"Region","capital":"波尔多","pop":6000000,"blurb":"最大大区，波尔多葡萄酒与比亚里茨海岸。"},"geometry":{"type":"MultiPolygon","coordinates":[[[[-0.15782,43.58145],[-0.17656,43.59683],[-0.23891,43.58304],[-0.25401,43.59671],[-0.2472,43.61596],[-0.28151,43.62374],[-0.28211,43.64308],[-0.26336,43.63873],[-0.23973,43.67124],[-0.25671,43.6758],[-0.24122,43.69268],[-0.24738,43.70924],[-0.19414,43.73702],[-0.21886,43.75033],[-0.20778,43.75966],[-0.22696,43.80767],[-0.19471,43.80921],[-0.18984,43.8337],[-0.20891,43.85767],[-0.18572,43.86689],[-0.24026,43.89795],[-0.22795,43.91089],[-0.1254,43.9435],[-0.10256,43.92728],[-0.09247,43.94796],[-0.04419,43.96367],[-0.03617,43.98374],[0.0056,43.95559],[-0.02039,43.92929],[0.05862,43.89838],[0.07508,43.91468],[0.05542,43.95714],[0.07605,43.98314],[0.12685,44.00193],[0.15205,43.97321],[0.18981,44.01501],[0.21473,44.02279],[0.303,43.99124],[0.31803,43.99725],[0.31548,44.00997],[0.38234,44.00824],[0.44245,44.02876],[0.45976,44.05538],[0.50472,44.05067],[0.51158,44.06274],[0.53843,44.05295],[0.59268,44.07926],[0.66256,44.02459],[0.70792,44.05829],[0.74188,44.0652],[0.75438,44.1048],[0.77504,44.11689],[0.79859,44.1101],[0.78773,44.14276],[0.86909,44.12651],[0.89207,44.13733],[0.89003,44.17027],[0.85363,44.17478],[0.85367,44.18425],[0.90311,44.19006],[0.92924,44.23025],[0.91909,44.23827],[0.93279,44.25125],[0.92778,44.26741],[0.95079,44.27507],[0.91643,44.3022],[0.86945,44.30925],[0.89611,44.34623],[0.88732,44.36465],[0.89859,44.38121],[0.91985,44.38442],[0.94125,44.3444],[0.95022,44.35958],[1.04689,44.36271],[1.06408,44.37851],[1.05117,44.39227],[1.05749,44.42768],[1.02168,44.4466],[1.02301,44.47544],[1.00903,44.48005],[1.0163,44.5037],[0.98152,44.54444],[1.00657,44.54762],[1.01317,44.53614],[1.07514,44.57732],[1.10321,44.57174],[1.09615,44.59312],[1.15089,44.63285],[1.14673,44.6708],[1.22455,44.68427],[1.27004,44.72209],[1.28702,44.71446],[1.30019,44.74429],[1.31605,44.74038],[1.32154,44.7611],[1.29331,44.78985],[1.3641,44.81157],[1.36546,44.84497],[1.40251,44.84905],[1.41145,44.87271],[1.44218,44.87835],[1.41053,44.90879],[1.44156,44.91878],[1.40913,45.00673],[1.46488,45.01512],[1.52676,45.04428],[1.55204,45.02847],[1.57577,45.04018],[1.63238,45.03233],[1.68437,45.00266],[1.71103,44.96729],[1.7488,44.95683],[1.75055,44.93879],[1.77461,44.92354],[1.7857,44.9369],[1.80017,44.92029],[1.83157,44.94342],[1.88709,44.95634],[1.90778,44.97824],[1.94015,44.97184],[1.95099,44.95316],[1.98434,44.97372],[2.13329,44.98575],[2.1409,45.00541],[2.09516,45.05604],[2.1434,45.08632],[2.17278,45.08128],[2.18793,45.11671],[2.17879,45.1363],[2.23042,45.16192],[2.20246,45.18142],[2.19116,45.22306],[2.23987,45.2488],[2.2697,45.28989],[2.29033,45.28847],[2.31608,45.32203],[2.35342,45.32979],[2.3688,45.38601],[2.35513,45.41503],[2.4802,45.36969],[2.52337,45.38155],[2.52223,45.4026],[2.48754,45.41817],[2.51389,45.49284],[2.51588,45.55388],[2.49629,45.55683],[2.46347,45.59468],[2.48629,45.64082],[2.52093,45.64178],[2.51454,45.67214],[2.52687,45.69492],[2.48524,45.74687],[2.43412,45.76986],[2.43086,45.78862],[2.38802,45.82738],[2.44782,45.84582],[2.44342,45.86674],[2.49223,45.86403],[2.50198,45.88616],[2.55784,45.91296],[2.54415,45.93021],[2.56871,45.95787],[2.6094,45.97606],[2.59314,45.99606],[2.6027,46.03288],[2.57334,46.04692],[2.55061,46.08645],[2.56538,46.14304],[2.55915,46.17441],[2.5285,46.18494],[2.51631,46.23944],[2.48892,46.25001],[2.4803,46.27883],[2.44303,46.295],[2.42137,46.28533],[2.42066,46.31013],[2.38816,46.33157],[2.36621,46.31118],[2.30211,46.34237],[2.33714,46.36574],[2.33141,46.37841],[2.28694,46.3833],[2.28105,46.42041],[2.25366,46.42565],[2.11597,46.42154],[2.08862,46.41007],[1.97875,46.44152],[1.92612,46.43191],[1.8878,46.44084],[1.84257,46.42681],[1.81845,46.43142],[1.79824,46.45491],[1.74759,46.45002],[1.75974,46.42749],[1.72784,46.38896],[1.6836,46.41818],[1.64109,46.38559],[1.62734,46.38943],[1.61442,46.40337],[1.62124,46.4194],[1.60906,46.42316],[1.54619,46.39593],[1.54367,46.4165],[1.52535,46.42665],[1.49695,46.39463],[1.41519,46.34722],[1.34468,46.4016],[1.31265,46.39371],[1.32184,46.38657],[1.31051,46.37437],[1.21797,46.36826],[1.21295,46.388],[1.18441,46.37703],[1.17728,46.38395],[1.21307,46.43308],[1.1858,46.42927],[1.15092,46.4503],[1.13551,46.47089],[1.15296,46.47284],[1.13612,46.49346],[1.14914,46.50221],[1.09009,46.53758],[1.02041,46.53715],[1.01476,46.56776],[0.96244,46.57254],[0.91587,46.59663],[0.89406,46.62862],[0.91564,46.65067],[0.90226,46.67767],[0.92713,46.6936],[0.91117,46.72707],[0.81335,46.79168],[0.808,46.82914],[0.78689,46.84123],[0.79664,46.84735],[0.75342,46.86058],[0.70467,46.90289],[0.69017,46.97498],[0.63779,46.98525],[0.61849,47.00751],[0.56774,47.00629],[0.57368,46.98339],[0.5988,46.97492],[0.59821,46.95643],[0.50519,46.95991],[0.43871,46.92958],[0.36463,46.94857],[0.32535,46.93094],[0.29144,46.99026],[0.31073,46.99731],[0.30794,47.04722],[0.26768,47.04405],[0.26355,47.06851],[0.24387,47.07095],[0.2082,47.05324],[0.1757,47.06073],[0.20046,47.09168],[0.18169,47.11536],[0.16192,47.10011],[0.13495,47.10837],[0.14068,47.1246],[0.08243,47.1178],[0.07839,47.14634],[0.01901,47.17576],[-0.03374,47.12756],[-0.03532,47.08672],[-0.08554,47.10043],[-0.10212,47.06481],[-0.1289,47.05424],[-0.17855,47.06979],[-0.14125,47.10366],[-0.18524,47.10842],[-0.20627,47.09319],[-0.26288,47.10548],[-0.34014,47.08727],[-0.38706,47.09239],[-0.40863,47.06649],[-0.46057,47.06835],[-0.48038,47.05364],[-0.48375,47.06659],[-0.46335,47.08187],[-0.49178,47.08285],[-0.55972,47.0617],[-0.54701,47.02876],[-0.59549,46.99791],[-0.67104,47.00098],[-0.68019,46.98766],[-0.71454,46.98598],[-0.78758,47.00514],[-0.80502,46.98945],[-0.84772,46.98616],[-0.85424,46.97159],[-0.90222,46.97031],[-0.86693,46.95814],[-0.881,46.94647],[-0.8099,46.91971],[-0.83246,46.88474],[-0.78143,46.84308],[-0.6991,46.80885],[-0.71576,46.80171],[-0.72656,46.76876],[-0.65583,46.70034],[-0.67875,46.68668],[-0.63699,46.66333],[-0.65707,46.63395],[-0.63306,46.63633],[-0.61397,46.62012],[-0.62715,46.6056],[-0.61343,46.58761],[-0.6247,46.57745],[-0.60213,46.53328],[-0.64223,46.52476],[-0.64436,46.51089],[-0.60821,46.45421],[-0.63684,46.4323],[-0.63821,46.39676],[-0.62088,46.39046],[-0.60126,46.41263],[-0.5378,46.38647],[-0.5596,46.36094],[-0.60284,46.35958],[-0.64354,46.31945],[-0.69734,46.32519],[-0.72625,46.30321],[-0.80281,46.32529],[-0.79892,46.34177],[-0.84074,46.33969],[-0.84899,46.31833],[-0.88685,46.32671],[-0.93391,46.31263],[-0.95868,46.32335],[-0.92734,46.37093],[-0.97834,46.3512],[-1.05369,46.34958],[-1.09569,46.31097],[-1.12208,46.32264],[-1.13264,46.30097],[-1.12319,46.26347],[-1.20069,46.21236],[-1.20292,46.18792],[-1.24153,46.15931],[-1.22625,46.16514],[-1.23069,46.15014],[-1.20736,46.14569],[-1.15375,46.15514],[-1.17597,46.13764],[-1.12736,46.12625],[-1.12458,46.11208],[-1.14375,46.10625],[-1.10042,46.09375],[-1.09014,46.05347],[-1.0593,46.04347],[-1.05292,46.00514],[-1.09125,45.99264],[-1.12681,46.00431],[-1.08431,45.97931],[-1.07097,45.95542],[-1.10264,45.94597],[-1.07708,45.93625],[-1.07486,45.90931],[-1.12236,45.85847],[-1.17042,45.85541],[-1.13653,45.81847],[-1.13764,45.79375],[-1.16014,45.80208],[-1.24458,45.78292],[-1.23736,45.70097],[-1.22653,45.67125],[-1.17875,45.67597],[-1.20903,45.67458],[-1.22986,45.69069],[-1.20958,45.6968],[-1.11514,45.64569],[-1.04208,45.61681],[-1.01792,45.62042],[-1.01264,45.5993],[-0.99208,45.59597],[-0.99292,45.57653],[-0.95597,45.55403],[-0.91597,45.55042],[-0.91014,45.53431],[-0.87931,45.52514],[-0.79292,45.45319],[-0.72653,45.35542],[-0.66764,45.12514],[-0.58514,45.01736],[-0.59014,45.00764],[-0.61097,45.0168],[-0.68625,45.08319],[-0.74458,45.19819],[-0.76125,45.27764],[-0.80431,45.34736],[-0.93458,45.44153],[-1.00347,45.46347],[-0.99958,45.47292],[-1.06847,45.51903],[-1.03792,45.53486],[-1.04153,45.54986],[-1.06292,45.55375],[-1.06014,45.57236],[-1.08875,45.56542],[-1.15569,45.47319],[-1.16181,45.29903],[-1.26042,44.63236],[-1.24486,44.62181],[-1.22875,44.70042],[-1.17236,44.74542],[-1.17097,44.7668],[-1.09653,44.73736],[-1.04319,44.69569],[-1.06903,44.69486],[-1.0193,44.66764],[-1.0293,44.64292],[-1.03736,44.65486],[-1.07458,44.64208],[-1.14431,44.64486],[-1.14819,44.66208],[-1.19486,44.65792],[-1.21319,44.59681],[-1.25708,44.53569],[-1.25069,44.4868],[-1.30986,44.15458],[-1.44819,43.64014],[-1.60042,43.43097],[-1.66181,43.40347],[-1.66736,43.38764],[-1.68648,43.39638],[-1.78791,43.37208],[-1.77097,43.36681],[-1.78664,43.35042],[-1.73882,43.32904],[-1.72887,43.29613],[-1.6694,43.31419],[-1.62386,43.30397],[-1.63019,43.28492],[-1.60798,43.25228],[-1.57474,43.25047],[-1.56173,43.2884],[-1.52193,43.29337],[-1.43831,43.26667],[-1.41321,43.27341],[-1.38418,43.25322],[-1.38495,43.18829],[-1.40186,43.17849],[-1.41574,43.12853],[-1.47338,43.08663],[-1.44139,43.0462],[-1.3537,43.02802],[-1.33206,43.10785],[-1.2705,43.11832],[-1.30854,43.06922],[-1.26161,43.04359],[-1.23055,43.05477],[-1.17027,43.03609],[-1.1456,43.02449],[-1.14144,43.00763],[-1.11327,43.02122],[-1.07197,42.99789],[-1.01047,42.9911],[-0.94507,42.95345],[-0.91001,42.9638],[-0.8088,42.95145],[-0.75281,42.96696],[-0.73327,42.94616],[-0.72783,42.89247],[-0.67944,42.88293],[-0.60235,42.83009],[-0.60037,42.8025],[-0.56764,42.80441],[-0.56775,42.78087],[-0.52967,42.79155],[-0.50247,42.82751],[-0.44492,42.79603],[-0.38887,42.80054],[-0.34741,42.83545],[-0.31304,42.84752],[-0.29313,42.83883],[-0.31344,42.84938],[-0.30729,42.86898],[-0.32688,42.91687],[-0.27927,42.94234],[-0.28767,43.00555],[-0.26472,43.01001],[-0.26051,43.03827],[-0.22395,43.03369],[-0.18156,43.05255],[-0.19833,43.06345],[-0.18736,43.08562],[-0.19384,43.11502],[-0.14631,43.12819],[-0.11624,43.17929],[-0.10202,43.16705],[-0.06787,43.17712],[-0.07397,43.22238],[-0.04938,43.21736],[-0.01852,43.26939],[-0.04103,43.2837],[-0.0444,43.30294],[-0.02537,43.32962],[0.00849,43.32609],[0.02867,43.34662],[-0.00465,43.37571],[0.00966,43.4222],[-0.00248,43.44508],[-0.03203,43.43365],[-0.04298,43.41021],[-0.06727,43.41042],[-0.05332,43.4225],[-0.0696,43.4342],[-0.06575,43.46349],[-0.01891,43.47006],[-0.0491,43.49191],[-0.0437,43.52299],[-0.06973,43.54675],[-0.0915,43.54257],[-0.09678,43.58241],[-0.15782,43.58145]],[[-0.10383,43.24898],[-0.11839,43.24137],[-0.1406,43.27168],[-0.10914,43.30898],[-0.08929,43.30106],[-0.09481,43.28428],[-0.07963,43.27165],[-0.10383,43.24898]],[[-0.06966,43.3125],[-0.1099,43.31281],[-0.11455,43.33241],[-0.08727,43.33384],[-0.09023,43.35936],[-0.10728,43.37074],[-0.06448,43.35361],[-0.06966,43.3125]]],[[[-1.17153,44.70319],[-1.19042,44.69931],[-1.17208,44.69125],[-1.17153,44.70319]]],[[[-0.59903,45.01959],[-0.67958,45.09653],[-0.63403,45.03764],[-0.5918,45.01125],[-0.59903,45.01959]]],[[[-1.20597,45.84792],[-1.18764,45.88597],[-1.20153,45.89569],[-1.19403,45.90653],[-1.20792,45.90264],[-1.23153,45.92486],[-1.23653,45.98542],[-1.3157,45.99375],[-1.36792,46.03847],[-1.41403,46.04903],[-1.38792,45.99986],[-1.39708,45.97764],[-1.38542,45.94736],[-1.26875,45.88042],[-1.23819,45.80181],[-1.19569,45.82819],[-1.20597,45.84792]]],[[[-0.6793,45.14708],[-0.69264,45.18292],[-0.68042,45.12708],[-0.6793,45.14708]]],[[[-0.70708,45.21375],[-0.71708,45.19819],[-0.70097,45.17486],[-0.70708,45.21375]]],[[[-1.11069,45.96153],[-1.12236,45.96181],[-1.11736,45.95153],[-1.09625,45.95125],[-1.11069,45.96153]]],[[[-1.16347,46.02431],[-1.17958,46.02486],[-1.17819,46.00764],[-1.15347,46.0182],[-1.16347,46.02431]]],[[[-1.28264,46.17236],[-1.29375,46.18847],[-1.32125,46.18708],[-1.35375,46.20625],[-1.44097,46.21208],[-1.41458,46.23153],[-1.46986,46.23069],[-1.4557,46.22375],[-1.48653,46.20403],[-1.51458,46.22097],[-1.47458,46.2318],[-1.50069,46.25875],[-1.56319,46.24347],[-1.53597,46.20125],[-1.50264,46.19264],[-1.4618,46.20236],[-1.32403,46.14347],[-1.27819,46.14347],[-1.25292,46.16542],[-1.27181,46.15958],[-1.28264,46.17236]]]]}},{"type":"Feature","properties":{"gid":"FRA.11_1","name":"奥克西塔尼大区","nameEn":"Occitanie","nameLocal":"","type":"Region","typeEn":"Region","groupZh":"大区","area":73132.1,"iso":"FR-OCC","engtype":"Region","capital":"图卢兹","pop":6000000,"blurb":"西南航空城图卢兹与玫瑰之城，朗格多克葡萄园。"},"geometry":{"type":"MultiPolygon","coordinates":[[[[2.67545,42.34235],[2.65288,42.38444],[2.67123,42.38686],[2.67391,42.40452],[2.75187,42.42537],[2.77677,42.41171],[2.83987,42.45899],[2.85758,42.45422],[2.87076,42.46694],[2.9184,42.45623],[2.94709,42.4818],[2.96755,42.46552],[3.04091,42.47263],[3.08584,42.42584],[3.17792,42.43875],[3.15542,42.47792],[3.13191,42.4827],[3.13597,42.50042],[3.12292,42.50542],[3.14208,42.51625],[3.08597,42.52431],[3.05126,42.54536],[3.03375,42.67319],[3.05403,42.87208],[3.01764,42.83681],[3.01958,42.80459],[2.98347,42.79986],[2.96181,42.83569],[2.94958,42.83319],[2.96375,42.85597],[3.00097,42.87375],[3.0107,42.92792],[3.01653,42.89459],[3.04875,42.90181],[3.02958,42.85486],[3.05431,42.8732],[3.06097,42.91819],[3.03431,42.93375],[3.04292,42.96819],[3.03153,42.96264],[3.05431,43.0057],[3.07069,43.01181],[3.06014,43.02681],[3.08014,43.0557],[3.06097,43.05014],[3.02958,43.06903],[3.04431,43.03347],[3.01819,43.02792],[3.00347,43.05903],[2.99236,43.05042],[2.97903,43.0718],[2.95431,43.07236],[2.96236,43.09181],[2.98736,43.0882],[2.96097,43.10653],[2.99542,43.12347],[2.98847,43.14931],[3.01486,43.14097],[3.00542,43.11542],[3.02653,43.10625],[3.01153,43.06653],[3.02681,43.08736],[3.02347,43.06764],[3.03347,43.10208],[3.03625,43.08847],[3.04986,43.09403],[3.04625,43.08292],[3.08125,43.07597],[3.0843,43.06319],[3.10292,43.08486],[3.08597,43.05903],[3.13625,43.12875],[3.20292,43.18625],[3.19486,43.20708],[3.20931,43.1932],[3.24292,43.20986],[3.34153,43.2682],[3.33597,43.28181],[3.34708,43.27097],[3.42681,43.29042],[3.48208,43.27291],[3.50653,43.27264],[3.51014,43.28347],[3.50708,43.26764],[3.63681,43.3807],[3.71542,43.39847],[3.72569,43.41653],[3.79903,43.44181],[3.90569,43.51792],[4.00736,43.55264],[4.10125,43.55514],[4.14097,43.5293],[4.11319,43.50819],[4.13097,43.48569],[4.22976,43.45986],[4.23793,43.49708],[4.32089,43.52763],[4.30919,43.54628],[4.31852,43.55732],[4.33242,43.53572],[4.40815,43.56129],[4.42541,43.58477],[4.46087,43.58946],[4.47362,43.61081],[4.43853,43.61135],[4.42692,43.62584],[4.45153,43.66433],[4.47765,43.6728],[4.48642,43.69885],[4.5378,43.70704],[4.62682,43.68813],[4.61228,43.72475],[4.6518,43.78436],[4.64297,43.83212],[4.66667,43.84722],[4.64342,43.85201],[4.64191,43.86748],[4.69361,43.88522],[4.81437,43.96468],[4.81297,43.98801],[4.84534,43.99559],[4.75772,44.08793],[4.72321,44.07935],[4.70508,44.10817],[4.72112,44.18801],[4.70384,44.19766],[4.7086,44.2135],[4.67366,44.21471],[4.67736,44.23497],[4.63268,44.28499],[4.61663,44.27799],[4.5061,44.34025],[4.45534,44.34027],[4.45321,44.29787],[4.43561,44.28333],[4.39331,44.2946],[4.3956,44.34432],[4.32577,44.33833],[4.3181,44.32175],[4.28837,44.31502],[4.289,44.29214],[4.2589,44.26442],[4.18658,44.29974],[4.17799,44.31774],[4.14287,44.31335],[4.12675,44.33773],[4.04806,44.31895],[4.03571,44.32985],[4.05126,44.33672],[4.05709,44.36414],[4.04239,44.39407],[4.06844,44.40506],[4.03781,44.42092],[4.0371,44.44595],[3.98722,44.47463],[3.98686,44.50217],[3.94877,44.57289],[3.92357,44.57188],[3.90654,44.59237],[3.89478,44.64996],[3.87165,44.67934],[3.88353,44.69672],[3.86313,44.71218],[3.87564,44.73948],[3.82992,44.75464],[3.84185,44.77213],[3.80699,44.76758],[3.79735,44.78649],[3.76414,44.80038],[3.74387,44.8378],[3.66636,44.82878],[3.65742,44.83612],[3.67364,44.85413],[3.6443,44.87713],[3.59502,44.87579],[3.58245,44.82612],[3.56877,44.83418],[3.47824,44.80968],[3.41929,44.89801],[3.41283,44.94484],[3.37439,44.95909],[3.37271,44.97572],[3.35453,44.95482],[3.28564,44.92631],[3.24841,44.93951],[3.24969,44.91624],[3.22643,44.90998],[3.23499,44.88877],[3.19028,44.86252],[3.14285,44.90228],[3.10313,44.88464],[3.09916,44.83291],[3.07218,44.83627],[3.07698,44.82428],[3.04827,44.80426],[3.04824,44.76432],[3.02731,44.73022],[3.03913,44.715],[3.01611,44.71206],[2.98168,44.64468],[2.93935,44.67757],[2.92326,44.72865],[2.93335,44.7476],[2.9145,44.76173],[2.93403,44.76715],[2.93377,44.78065],[2.92019,44.79432],[2.88964,44.78833],[2.85556,44.85123],[2.85968,44.87447],[2.80478,44.87379],[2.77179,44.85831],[2.7761,44.90964],[2.73825,44.94122],[2.70637,44.90709],[2.68187,44.90735],[2.65305,44.86977],[2.62908,44.87226],[2.60416,44.84309],[2.60012,44.79367],[2.56449,44.77809],[2.55368,44.75742],[2.55623,44.72223],[2.5005,44.68881],[2.48124,44.65005],[2.35098,44.64124],[2.32413,44.66916],[2.28624,44.66644],[2.20841,44.64384],[2.22057,44.62204],[2.20748,44.61553],[2.16942,44.63799],[2.16601,44.66129],[2.17915,44.67445],[2.15467,44.69937],[2.13006,44.6993],[2.14809,44.72285],[2.14915,44.7697],[2.17163,44.79026],[2.16629,44.81207],[2.1398,44.82383],[2.08556,44.88496],[2.08714,44.90207],[2.10811,44.9106],[2.07635,44.93478],[2.0807,44.95158],[2.06291,44.97651],[1.98434,44.97372],[1.95099,44.95316],[1.94015,44.97184],[1.90778,44.97824],[1.88709,44.95634],[1.83157,44.94342],[1.80017,44.92029],[1.7857,44.9369],[1.77461,44.92354],[1.75055,44.93879],[1.7488,44.95683],[1.71103,44.96729],[1.65189,45.02529],[1.57577,45.04018],[1.55204,45.02847],[1.52676,45.04428],[1.46488,45.01512],[1.40913,45.00673],[1.44156,44.91878],[1.41053,44.90879],[1.44218,44.87835],[1.41145,44.87271],[1.40251,44.84905],[1.36546,44.84497],[1.3641,44.81157],[1.29331,44.78985],[1.32154,44.7611],[1.31605,44.74038],[1.30019,44.74429],[1.28702,44.71446],[1.27004,44.72209],[1.22455,44.68427],[1.14673,44.6708],[1.15089,44.63285],[1.09615,44.59312],[1.10321,44.57174],[1.07514,44.57732],[1.01317,44.53614],[1.00657,44.54762],[0.98152,44.54444],[1.0163,44.5037],[1.00903,44.48005],[1.02301,44.47544],[1.02168,44.4466],[1.05749,44.42768],[1.05117,44.39227],[1.06408,44.37851],[1.04689,44.36271],[0.95022,44.35958],[0.94125,44.3444],[0.91985,44.38442],[0.89859,44.38121],[0.88732,44.36465],[0.89611,44.34623],[0.86945,44.30925],[0.91643,44.3022],[0.95079,44.27507],[0.92778,44.26741],[0.93279,44.25125],[0.91909,44.23827],[0.92924,44.23025],[0.90311,44.19006],[0.85367,44.18425],[0.85363,44.17478],[0.89003,44.17027],[0.89207,44.13733],[0.86909,44.12651],[0.78773,44.14276],[0.79859,44.1101],[0.77504,44.11689],[0.75438,44.1048],[0.74188,44.0652],[0.70792,44.05829],[0.66256,44.02459],[0.59268,44.07926],[0.53843,44.05295],[0.51158,44.06274],[0.50472,44.05067],[0.45976,44.05538],[0.44245,44.02876],[0.38234,44.00824],[0.31548,44.00997],[0.31803,43.99725],[0.303,43.99124],[0.21473,44.02279],[0.18981,44.01501],[0.15205,43.97321],[0.12685,44.00193],[0.07605,43.98314],[0.05542,43.95714],[0.07508,43.91468],[0.05862,43.89838],[-0.02039,43.92929],[0.0056,43.95559],[-0.03617,43.98374],[-0.04419,43.96367],[-0.09247,43.94796],[-0.10256,43.92728],[-0.1254,43.9435],[-0.17708,43.93568],[-0.24026,43.89795],[-0.18572,43.86689],[-0.20891,43.85767],[-0.18984,43.8337],[-0.19471,43.80921],[-0.22696,43.80767],[-0.20778,43.75966],[-0.21886,43.75033],[-0.19414,43.73702],[-0.24738,43.70924],[-0.24122,43.69268],[-0.25671,43.6758],[-0.23973,43.67124],[-0.26336,43.63873],[-0.28211,43.64308],[-0.28151,43.62374],[-0.2472,43.61596],[-0.25401,43.59671],[-0.23891,43.58304],[-0.17656,43.59683],[-0.16211,43.58167],[-0.09678,43.58241],[-0.0915,43.54257],[-0.06973,43.54675],[-0.04923,43.52975],[-0.04013,43.5126],[-0.0491,43.49191],[-0.01891,43.47006],[-0.06575,43.46349],[-0.0696,43.4342],[-0.05332,43.4225],[-0.06727,43.41042],[-0.04298,43.41021],[-0.03203,43.43365],[-0.00248,43.44508],[0.00966,43.4222],[-0.00465,43.37571],[0.02867,43.34662],[0.00849,43.32609],[-0.02537,43.32962],[-0.0444,43.30294],[-0.04103,43.2837],[-0.01852,43.26939],[-0.04938,43.21736],[-0.07397,43.22238],[-0.06787,43.17712],[-0.10202,43.16705],[-0.11624,43.17929],[-0.14631,43.12819],[-0.19384,43.11502],[-0.18736,43.08562],[-0.19833,43.06345],[-0.18156,43.05255],[-0.22395,43.03369],[-0.26051,43.03827],[-0.26472,43.01001],[-0.29225,42.99215],[-0.28494,42.9302],[-0.32688,42.91687],[-0.30508,42.84129],[-0.24331,42.82308],[-0.23738,42.80772],[-0.18964,42.78714],[-0.15861,42.7957],[-0.15949,42.78068],[-0.11048,42.72536],[-0.06882,42.71606],[-0.06159,42.69472],[0.00075,42.68521],[0.01526,42.70082],[0.05826,42.69703],[0.07937,42.71465],[0.11511,42.71082],[0.17599,42.73565],[0.25958,42.71584],[0.26346,42.69381],[0.29503,42.6734],[0.36037,42.72373],[0.39227,42.71189],[0.39613,42.69388],[0.42203,42.69028],[0.51622,42.69168],[0.52592,42.70211],[0.5774,42.69371],[0.59696,42.70546],[0.66871,42.68894],[0.68019,42.72328],[0.66336,42.74976],[0.64185,42.75482],[0.66832,42.7748],[0.64489,42.78312],[0.67017,42.80196],[0.66256,42.84111],[0.70818,42.86133],[0.85831,42.82572],[0.92583,42.78967],[0.96039,42.80516],[0.9845,42.78616],[1.07801,42.78769],[1.12919,42.75266],[1.13324,42.72826],[1.17072,42.70819],[1.22929,42.72772],[1.25188,42.71485],[1.35738,42.71942],[1.35183,42.70289],[1.38792,42.68731],[1.38711,42.66882],[1.41303,42.65265],[1.44083,42.58825],[1.47948,42.61087],[1.48904,42.65172],[1.56418,42.65073],[1.61023,42.62198],[1.73765,42.6128],[1.72825,42.58957],[1.78421,42.57572],[1.73872,42.56553],[1.72138,42.5016],[1.73094,42.49245],[1.83032,42.4832],[1.89081,42.44807],[1.93384,42.45417],[1.94115,42.43048],[1.95823,42.42359],[1.96437,42.38256],[2.0152,42.3474],[2.08396,42.36216],[2.15695,42.42338],[2.20679,42.4172],[2.25708,42.43849],[2.43334,42.39196],[2.43548,42.37533],[2.48321,42.33989],[2.54203,42.33394],[2.56679,42.35711],[2.67545,42.34235]],[[1.98579,42.47509],[2.01018,42.44915],[1.95836,42.45566],[1.98041,42.49445],[1.99667,42.48666],[1.98579,42.47509]]],[[[-0.08112,43.26166],[-0.08929,43.30106],[-0.11782,43.30735],[-0.13735,43.28575],[-0.11839,43.24137],[-0.08112,43.26166]]],[[[-0.08187,43.36979],[-0.10728,43.37074],[-0.09023,43.35936],[-0.08727,43.33384],[-0.11455,43.33241],[-0.1099,43.31281],[-0.06966,43.3125],[-0.06307,43.34752],[-0.08187,43.36979]]]]}},{"type":"Feature","properties":{"gid":"FRA.12_1","name":"卢瓦尔河地区大区","nameEn":"Pays de la Loire","nameLocal":"","type":"Region","typeEn":"Region","groupZh":"大区","area":32296.5,"iso":"NA","engtype":"Region","capital":"南特","pop":3850000,"blurb":"西海岸，南特与圣纳泽尔造船，儒勒·凡尔纳之城。"},"geometry":{"type":"MultiPolygon","coordinates":[[[[-1.19792,46.29792],[-1.17847,46.31125],[-1.13403,46.30542],[-1.12097,46.32459],[-1.09597,46.31236],[-1.05369,46.34958],[-0.97834,46.3512],[-0.92734,46.37093],[-0.95868,46.32335],[-0.93391,46.31263],[-0.88685,46.32671],[-0.84899,46.31833],[-0.84074,46.33969],[-0.79892,46.34177],[-0.80281,46.32529],[-0.72625,46.30321],[-0.69734,46.32519],[-0.64354,46.31945],[-0.60284,46.35958],[-0.5596,46.36094],[-0.5378,46.38647],[-0.60126,46.41263],[-0.62088,46.39046],[-0.63821,46.39676],[-0.63684,46.4323],[-0.60821,46.45421],[-0.64436,46.51089],[-0.64223,46.52476],[-0.60213,46.53328],[-0.6247,46.57745],[-0.61343,46.58761],[-0.62715,46.6056],[-0.61397,46.62012],[-0.63306,46.63633],[-0.65707,46.63395],[-0.63699,46.66333],[-0.67875,46.68668],[-0.65583,46.70034],[-0.72656,46.76876],[-0.71576,46.80171],[-0.6991,46.80885],[-0.78143,46.84308],[-0.83246,46.88474],[-0.8099,46.91971],[-0.881,46.94647],[-0.86693,46.95814],[-0.90222,46.97031],[-0.85424,46.97159],[-0.84772,46.98616],[-0.80502,46.98945],[-0.78758,47.00514],[-0.71454,46.98598],[-0.68019,46.98766],[-0.67104,47.00098],[-0.59549,46.99791],[-0.54701,47.02876],[-0.55972,47.0617],[-0.49178,47.08285],[-0.46335,47.08187],[-0.48375,47.06659],[-0.48038,47.05364],[-0.46057,47.06835],[-0.40863,47.06649],[-0.38706,47.09239],[-0.34014,47.08727],[-0.26288,47.10548],[-0.20627,47.09319],[-0.18524,47.10842],[-0.14125,47.10366],[-0.17855,47.06979],[-0.1289,47.05424],[-0.10212,47.06481],[-0.08554,47.10043],[-0.03532,47.08672],[-0.02707,47.10267],[-0.0393,47.11133],[-0.01172,47.15624],[0.01901,47.17576],[0.03664,47.16036],[0.06352,47.17639],[0.05381,47.19886],[0.07684,47.21937],[0.0691,47.24333],[0.08238,47.28687],[0.11746,47.33234],[0.1473,47.34538],[0.14041,47.36181],[0.18214,47.38194],[0.15386,47.39873],[0.18094,47.4166],[0.18087,47.45322],[0.22011,47.50195],[0.22484,47.52728],[0.19312,47.53804],[0.23457,47.57861],[0.23,47.6084],[0.25911,47.6123],[0.37848,47.56853],[0.40258,47.57851],[0.36456,47.62207],[0.38279,47.6431],[0.4222,47.61956],[0.45141,47.62146],[0.46118,47.64381],[0.54525,47.65717],[0.61583,47.68566],[0.59959,47.687],[0.58051,47.71283],[0.62633,47.75136],[0.69735,47.76419],[0.69175,47.78353],[0.76841,47.83111],[0.75981,47.89809],[0.787,47.91175],[0.81684,47.89183],[0.81222,47.92815],[0.84838,47.94393],[0.82038,47.98803],[0.84056,48.01904],[0.83825,48.03261],[0.79755,48.03725],[0.794,48.06944],[0.84302,48.07264],[0.84501,48.09277],[0.81615,48.09464],[0.84122,48.10306],[0.85037,48.13308],[0.91434,48.13585],[0.91146,48.14697],[0.84057,48.16553],[0.79766,48.19446],[0.75921,48.18009],[0.73863,48.18919],[0.68392,48.254],[0.64275,48.26154],[0.63191,48.23462],[0.53734,48.24924],[0.49442,48.28349],[0.50582,48.29366],[0.49158,48.30717],[0.44281,48.30463],[0.39536,48.32129],[0.37386,48.38697],[0.38172,48.42479],[0.35289,48.45969],[0.29791,48.47982],[0.26681,48.48458],[0.17233,48.46383],[0.17365,48.45088],[0.14393,48.45495],[0.15332,48.43794],[0.11159,48.43232],[0.09943,48.41096],[0.06736,48.40606],[0.0602,48.37994],[0.02308,48.38021],[0.00337,48.396],[-0.04967,48.37513],[-0.0507,48.45059],[-0.14895,48.45879],[-0.15733,48.49629],[-0.17209,48.50214],[-0.1446,48.52775],[-0.24264,48.568],[-0.26058,48.54913],[-0.24306,48.53706],[-0.27155,48.50745],[-0.32024,48.52293],[-0.35315,48.48377],[-0.39766,48.51051],[-0.50929,48.50884],[-0.55316,48.47297],[-0.59431,48.47252],[-0.65422,48.44455],[-0.66884,48.48646],[-0.68799,48.46944],[-0.72525,48.47347],[-0.73526,48.4624],[-0.71592,48.4509],[-0.75648,48.43694],[-0.77928,48.44847],[-0.77787,48.46541],[-0.81274,48.45492],[-0.84583,48.49783],[-0.89603,48.49487],[-0.95388,48.51679],[-0.97378,48.49483],[-1.00297,48.48907],[-1.06075,48.51539],[-1.07739,48.4911],[-1.06533,48.45125],[-1.08259,48.43525],[-1.05279,48.38093],[-1.06484,48.36724],[-1.04583,48.32965],[-1.09085,48.28693],[-1.09867,48.25131],[-1.04913,48.0896],[-1.0215,48.06841],[-1.03355,48.03261],[-1.0182,48.00152],[-1.05032,47.98463],[-1.1223,47.98651],[-1.15619,47.96445],[-1.17617,47.89772],[-1.19713,47.88559],[-1.18916,47.86771],[-1.22213,47.85036],[-1.21608,47.83615],[-1.24205,47.80814],[-1.24588,47.77672],[-1.36408,47.8007],[-1.39153,47.82832],[-1.47964,47.83481],[-1.46845,47.8059],[-1.61963,47.76357],[-1.63813,47.72221],[-1.66103,47.71014],[-1.77161,47.69868],[-1.86279,47.70733],[-1.95633,47.67119],[-1.9734,47.69415],[-2.01228,47.66645],[-2.08205,47.64942],[-2.09704,47.63136],[-2.08648,47.60326],[-2.10252,47.5953],[-2.09885,47.53345],[-2.1534,47.52203],[-2.16613,47.49083],[-2.1897,47.49588],[-2.18818,47.51212],[-2.24428,47.49361],[-2.25948,47.51185],[-2.29706,47.51585],[-2.31613,47.46252],[-2.39533,47.45657],[-2.42303,47.47712],[-2.45849,47.44812],[-2.44597,47.43681],[-2.45875,47.42319],[-2.43319,47.41347],[-2.46792,47.42153],[-2.5582,47.37792],[-2.50736,47.34236],[-2.51375,47.30236],[-2.48542,47.3143],[-2.49764,47.33903],[-2.48625,47.31875],[-2.47597,47.32903],[-2.43764,47.3057],[-2.44208,47.29458],[-2.39875,47.29375],[-2.44375,47.27597],[-2.50125,47.28431],[-2.52403,47.3032],[-2.54653,47.28875],[-2.43208,47.25736],[-2.41681,47.25847],[-2.41958,47.27653],[-2.38014,47.27986],[-2.29875,47.23236],[-2.20125,47.26625],[-2.18125,47.29792],[-2.17069,47.28819],[-2.11958,47.30459],[-2.04097,47.30236],[-2.05625,47.2832],[-2.16986,47.26986],[-2.17125,47.24014],[-2.1832,47.2332],[-2.15903,47.20875],[-2.16708,47.16653],[-2.17903,47.15597],[-2.21458,47.16069],[-2.24986,47.13375],[-2.05569,47.09486],[-1.98208,47.03069],[-2.03208,47.01097],[-2.05875,46.95042],[-2.12708,46.89375],[-2.1543,46.89014],[-2.14264,46.81875],[-2.01569,46.74569],[-1.96819,46.69264],[-1.94375,46.69542],[-1.85569,46.6082],[-1.80597,46.48903],[-1.77875,46.49319],[-1.68014,46.43764],[-1.64292,46.43764],[-1.65431,46.42125],[-1.62542,46.41236],[-1.51319,46.40347],[-1.46764,46.34236],[-1.36736,46.3457],[-1.27847,46.28542],[-1.31181,46.33181],[-1.20653,46.2668],[-1.21236,46.28181],[-1.19792,46.29792]]],[[[-2.37403,46.73486],[-2.40236,46.72569],[-2.38431,46.69903],[-2.33403,46.68486],[-2.27903,46.6893],[-2.31986,46.71986],[-2.37403,46.73486]]],[[[-2.18379,46.95986],[-2.23847,46.98069],[-2.23514,46.99597],[-2.21819,46.99097],[-2.22486,47.01653],[-2.25208,47.02875],[-2.30819,47.0257],[-2.29069,47.01125],[-2.30181,46.98903],[-2.26069,46.95764],[-2.20347,46.95542],[-2.14792,46.89375],[-2.14792,46.9393],[-2.18379,46.95986]]]]}},{"type":"Feature","properties":{"gid":"FRA.13_1","name":"普罗旺斯-阿尔卑斯-蓝色海岸大区","nameEn":"Provence-Alpes-Côte d'Azur","nameLocal":"","type":"Region","typeEn":"Region","groupZh":"大区","area":31916.7,"iso":"NA","engtype":"Region","capital":"马赛","pop":5100000,"blurb":"地中海门户，马赛、戛纳与薰衣草田。"},"geometry":{"type":"MultiPolygon","coordinates":[[[[6.24292,43.02236],[6.21097,43.00208],[6.15986,43.00097],[6.20653,42.98208],[6.25125,42.99931],[6.24292,43.02236]]],[[[6.22903,43.1134],[6.27653,43.12097],[6.28986,43.10625],[6.31653,43.1068],[6.32153,43.09153],[6.36458,43.08597],[6.36653,43.13486],[6.40264,43.14958],[6.49375,43.14986],[6.53542,43.16319],[6.53764,43.18042],[6.55958,43.18903],[6.60069,43.18292],[6.62042,43.15764],[6.63319,43.17292],[6.64792,43.16625],[6.64292,43.18736],[6.68125,43.19931],[6.66431,43.21153],[6.66236,43.23875],[6.69764,43.26569],[6.67792,43.27903],[6.66431,43.26458],[6.63764,43.27403],[6.59208,43.26208],[6.5832,43.27764],[6.63403,43.30736],[6.67153,43.31236],[6.66514,43.32403],[6.67986,43.34069],[6.71653,43.34681],[6.73181,43.41097],[6.76097,43.4243],[6.78819,43.40792],[6.85625,43.41125],[6.85958,43.43375],[6.87847,43.42458],[6.92431,43.4507],[6.93181,43.48375],[6.95708,43.49736],[6.93764,43.51431],[6.96458,43.54292],[7.02292,43.54958],[7.03847,43.53458],[7.09625,43.57097],[7.12153,43.55903],[7.11903,43.54264],[7.13792,43.54542],[7.12625,43.60431],[7.15708,43.65319],[7.21292,43.64736],[7.24042,43.68764],[7.28514,43.69458],[7.30597,43.68486],[7.31375,43.70625],[7.33208,43.67431],[7.34986,43.68708],[7.33011,43.70212],[7.35768,43.72125],[7.40681,43.71847],[7.45431,43.75903],[7.48792,43.74903],[7.48931,43.76551],[7.52983,43.78402],[7.49664,43.85086],[7.4989,43.87237],[7.56135,43.89957],[7.57154,43.94534],[7.65274,43.97601],[7.66885,43.99762],[7.66533,44.02938],[7.70163,44.04303],[7.71293,44.06249],[7.7143,44.08776],[7.66783,44.13021],[7.6842,44.17726],[7.6341,44.17625],[7.6147,44.15456],[7.43279,44.12935],[7.42679,44.11521],[7.36041,44.11706],[7.34523,44.14596],[7.2641,44.14767],[7.19574,44.19765],[7.00701,44.23783],[7.00335,44.27946],[6.96837,44.29905],[6.93237,44.35435],[6.89997,44.36604],[6.90747,44.41975],[6.95336,44.42925],[6.88906,44.48564],[6.86727,44.53113],[6.94147,44.57603],[6.97526,44.62673],[6.95346,44.65363],[6.97226,44.67193],[6.9996,44.68677],[7.07694,44.68473],[7.02425,44.74723],[7.02554,44.77362],[7.00914,44.79302],[7.02201,44.82305],[7.0036,44.83984],[7.01095,44.84652],[6.94866,44.86362],[6.912,44.84551],[6.86947,44.85392],[6.76228,44.91361],[6.74978,45.01611],[6.6865,45.02092],[6.67069,45.06071],[6.61353,45.12096],[6.57653,45.1231],[6.53519,45.09897],[6.51042,45.109],[6.48172,45.09045],[6.48708,45.05641],[6.45312,45.05237],[6.36488,45.07017],[6.3746,45.08229],[6.3651,45.10199],[6.33423,45.12294],[6.29334,45.10863],[6.26057,45.12685],[6.22926,45.10681],[6.24329,45.06995],[6.22008,45.06537],[6.20314,45.01245],[6.25617,44.99622],[6.3182,45.00386],[6.32387,44.95309],[6.35817,44.94157],[6.35536,44.85482],[6.33632,44.84837],[6.29456,44.87399],[6.24887,44.85256],[6.13045,44.86251],[6.0565,44.81581],[6.01621,44.83529],[5.94952,44.80453],[5.98027,44.78119],[5.95112,44.75962],[5.88546,44.74729],[5.82709,44.75969],[5.82936,44.74244],[5.80147,44.70678],[5.82996,44.69124],[5.79062,44.6533],[5.75377,44.66053],[5.7255,44.64009],[5.64172,44.65108],[5.64609,44.60992],[5.59725,44.54327],[5.6645,44.5019],[5.63319,44.5021],[5.60364,44.4655],[5.45784,44.49815],[5.46384,44.45205],[5.49785,44.43642],[5.47272,44.42093],[5.43858,44.43356],[5.4184,44.42477],[5.4417,44.39168],[5.43495,44.36912],[5.46278,44.36724],[5.49294,44.33714],[5.521,44.34923],[5.54913,44.33059],[5.63122,44.33122],[5.60832,44.30612],[5.6338,44.30088],[5.64678,44.26709],[5.67561,44.27589],[5.68665,44.26607],[5.67264,44.24567],[5.68523,44.19368],[5.65159,44.18958],[5.6439,44.17052],[5.68273,44.16349],[5.67861,44.1461],[5.63114,44.15058],[5.63879,44.16628],[5.60205,44.1915],[5.57582,44.1862],[5.56437,44.1709],[5.58119,44.15515],[5.55133,44.14965],[5.54215,44.13326],[5.49879,44.11572],[5.45472,44.11923],[5.43576,44.15225],[5.38324,44.15528],[5.38453,44.20119],[5.35579,44.2136],[5.3033,44.20539],[5.24854,44.23112],[5.23815,44.21323],[5.20878,44.21442],[5.15001,44.23524],[5.16053,44.26562],[5.14746,44.26917],[5.17011,44.29874],[5.16643,44.31486],[5.10955,44.28055],[5.07651,44.28408],[5.06056,44.30814],[4.93291,44.26215],[4.88025,44.26177],[4.82534,44.22845],[4.81345,44.23243],[4.80456,44.3039],[4.763,44.3251],[4.65062,44.32981],[4.65148,44.25915],[4.67736,44.23497],[4.67366,44.21471],[4.7086,44.2135],[4.70384,44.19766],[4.72112,44.18801],[4.70508,44.10817],[4.72321,44.07935],[4.75772,44.08793],[4.78681,44.06435],[4.82029,44.01701],[4.84225,44.0111],[4.84094,43.98592],[4.81297,43.98801],[4.81437,43.96468],[4.77729,43.9382],[4.64191,43.86748],[4.64342,43.85201],[4.66667,43.84722],[4.64297,43.83212],[4.6518,43.78436],[4.61228,43.72475],[4.62682,43.68813],[4.5378,43.70704],[4.48642,43.69885],[4.47765,43.6728],[4.45153,43.66433],[4.42692,43.62584],[4.43853,43.61135],[4.47362,43.61081],[4.46087,43.58946],[4.42541,43.58477],[4.40815,43.56129],[4.33242,43.53572],[4.31852,43.55732],[4.30919,43.54628],[4.32089,43.52763],[4.24423,43.50146],[4.23162,43.48093],[4.23403,43.45903],[4.55208,43.44625],[4.57903,43.43375],[4.59347,43.40792],[4.55681,43.37653],[4.65958,43.34514],[4.75319,43.35069],[4.83708,43.32847],[4.84208,43.34181],[4.85625,43.33486],[4.87597,43.35069],[4.86125,43.35569],[4.88458,43.35458],[4.91208,43.37653],[4.88292,43.35569],[4.8332,43.37514],[4.87236,43.38986],[4.83903,43.39347],[4.83681,43.40514],[4.8593,43.40236],[4.82431,43.42463],[4.87681,43.41014],[4.84931,43.45125],[4.85903,43.45403],[4.88181,43.41958],[4.90542,43.42986],[4.88542,43.41431],[4.89236,43.40458],[4.92375,43.43264],[4.96792,43.42653],[4.97403,43.40097],[4.99708,43.40319],[4.98514,43.3932],[5.02514,43.35431],[5.01819,43.34264],[5.05208,43.32431],[5.22986,43.32847],[5.31375,43.3607],[5.36097,43.32347],[5.36291,43.29759],[5.34514,43.28181],[5.38125,43.2593],[5.33653,43.21375],[5.45264,43.20125],[5.4557,43.21125],[5.49875,43.19597],[5.53736,43.21236],[5.57069,43.17347],[5.60431,43.16014],[5.62319,43.18681],[5.68681,43.17931],[5.69514,43.16819],[5.68181,43.15514],[5.69486,43.14347],[5.75181,43.13042],[5.77097,43.13847],[5.78042,43.12903],[5.76569,43.11542],[5.81069,43.11236],[5.79431,43.07014],[5.82958,43.04875],[5.85903,43.04542],[5.88986,43.07792],[5.94708,43.06709],[5.94097,43.0843],[5.89542,43.08181],[5.9107,43.10042],[5.88514,43.11597],[5.92486,43.12292],[5.93486,43.11708],[5.92514,43.10181],[6.00653,43.10375],[6.02431,43.09431],[6.02153,43.07819],[6.11708,43.08292],[6.1307,43.04542],[6.09347,43.04014],[6.09514,43.02792],[6.15958,43.02736],[6.17403,43.03236],[6.15014,43.04542],[6.16181,43.09042],[6.19764,43.11431],[6.22903,43.1134]]],[[[6.41181,43.01736],[6.36958,42.9982],[6.40347,42.9932],[6.42097,43.01347],[6.41181,43.01736]]],[[[6.50875,43.05292],[6.4732,43.04903],[6.43264,43.00847],[6.47097,43.01597],[6.50875,43.05292]]],[[[7.04958,43.52319],[7.03097,43.52125],[7.0707,43.51708],[7.04958,43.52319]]],[[[5.78431,43.0807],[5.77931,43.06931],[5.79236,43.07653],[5.78431,43.0807]]],[[[5.38458,43.17986],[5.37153,43.17903],[5.39875,43.1732],[5.38458,43.17986]]],[[[5.3168,43.28708],[5.29181,43.28097],[5.30292,43.27597],[5.28708,43.26097],[5.3168,43.28708]]],[[[5.32097,43.34681],[5.35875,43.29986],[5.34236,43.33486],[5.32097,43.34681]]],[[[5.05327,44.36489],[5.07088,44.38322],[5.01862,44.39259],[5.01876,44.41598],[4.97055,44.42985],[4.91852,44.40778],[4.90708,44.37463],[4.86953,44.34508],[4.89533,44.33806],[4.88222,44.32529],[4.88946,44.30402],[4.98702,44.29272],[5.02506,44.361],[5.05327,44.36489]]]]}}]}