{"type":"FeatureCollection","features":[{"type":"Feature","properties":{"gid":"EGY.1_1","name":"代盖赫利耶省","nameEn":"Ad Daqahliyah","nameLocal":"الدقهلية","type":"省","typeEn":"Governorate","groupZh":"下埃及 · 三角洲与运河","groupEn":"Lower Egypt","capital":"曼苏拉","pop":6720000,"area":3723,"blurb":"尼罗河达米埃塔支流入海口，曼苏拉在十字军东征中两次击败路易九世。"},"geometry":{"type":"Polygon","coordinates":[[[31.3719,30.7598],[31.3639,30.7808],[31.3799,30.8118],[31.4127,30.8026],[31.4624,30.8253],[31.4851,30.8111],[31.5256,30.8233],[31.5734,30.8141],[31.5936,30.8212],[31.5953,30.84],[31.6327,30.8493],[31.6424,30.8767],[31.6176,30.9013],[31.6264,30.9213],[31.6678,30.9208],[31.6892,30.9405],[31.6787,30.9615],[31.7793,31.0653],[31.8555,31.071],[31.9428,31.0886],[31.9725,31.1104],[32.0912,31.1271],[32.0406,31.1555],[32.0736,31.1956],[32.0434,31.2196],[31.998,31.2275],[32.007,31.3028],[31.9711,31.3546],[31.8215,31.3565],[31.7896,31.3226],[31.795,31.3056],[31.7672,31.3073],[31.7725,31.2729],[31.7865,31.2604],[31.7835,31.2471],[31.7588,31.2366],[31.7672,31.2246],[31.7038,31.2102],[31.6761,31.2168],[31.6025,31.1597],[31.5908,31.1635],[31.5908,31.1876],[31.6372,31.2161],[31.6193,31.2441],[31.6463,31.2396],[31.6821,31.258],[31.6801,31.2695],[31.6516,31.2639],[31.6055,31.3042],[31.6014,31.2963],[31.5515,31.3209],[31.546,31.3404],[31.5664,31.3531],[31.4788,31.3651],[31.5642,31.4426],[31.3704,31.5103],[31.3393,31.4948],[31.3177,31.4637],[31.3201,31.4378],[31.2519,31.4752],[31.282,31.2722],[31.2621,31.2068],[31.2874,31.1681],[31.2702,31.1716],[31.2699,31.1539],[31.2215,31.1456],[31.2384,31.1351],[31.2415,31.1139],[31.2394,31.0964],[31.2193,31.0822],[31.2186,31.0555],[31.2571,31.0432],[31.2679,31.0564],[31.2976,31.0599],[31.3059,31.0544],[31.2972,31.0387],[31.3168,31.0156],[31.2969,30.9813],[31.2396,30.9517],[31.2631,30.9281],[31.2346,30.8989],[31.249,30.8868],[31.2348,30.8775],[31.2548,30.8475],[31.2185,30.832],[31.2383,30.7777],[31.2269,30.7568],[31.2541,30.7371],[31.2519,30.7159],[31.2713,30.6927],[31.2777,30.6479],[31.2642,30.6152],[31.2684,30.6017],[31.2823,30.6071],[31.2838,30.5909],[31.3206,30.5943],[31.3451,30.6215],[31.3875,30.623],[31.3723,30.6637],[31.3903,30.6721],[31.3735,30.7102],[31.3829,30.7147],[31.3739,30.7458],[31.3646,30.747],[31.3719,30.7598]]]}},{"type":"Feature","properties":{"gid":"EGY.2_1","name":"红海省","nameEn":"Al Bahr al Ahmar","nameLocal":"البحر الأحمر","type":"省","typeEn":"Governorate","groupZh":"沙漠与边疆省","groupEn":"Desert & Frontier","capital":"古尔代盖","pop":390000,"area":104070,"blurb":"埃及红海度假带：霍尔格达、萨法加与西奈隔海相望，人口却不到全国 0.4%。"},"geometry":{"type":"MultiPolygon","coordinates":[[[[35.4746,24.1407],[35.4304,24.186],[35.4318,24.2085],[35.3635,24.3129],[35.3251,24.3368],[35.3193,24.361],[35.2968,24.3587],[35.2329,24.4018],[35.1943,24.4743],[35.1368,24.5149],[35.1474,24.5524],[35.1668,24.566],[35.1449,24.5796],[35.1307,24.6118],[35.1124,24.6087],[35.1193,24.619],[35.0993,24.6413],[35.1093,24.6646],[35.0815,24.6818],[35.0893,24.7132],[35.071,24.7538],[34.996,24.8257],[34.9874,24.8963],[34.9382,24.9515],[34.9446,25.0001],[34.8801,25.0921],[34.8493,25.1688],[34.8068,25.2038],[34.7915,25.2579],[34.7485,25.3063],[34.7332,25.3693],[34.694,25.4165],[34.6765,25.4868],[34.6379,25.5321],[34.6365,25.5782],[34.5885,25.6274],[34.5832,25.6621],[34.5621,25.6782],[34.5651,25.7015],[34.5407,25.7188],[34.5401,25.749],[34.4868,25.7835],[34.4696,25.8285],[34.4332,25.8382],[34.4154,25.8657],[34.4232,25.8724],[34.396,25.941],[34.3835,25.9396],[34.3771,25.964],[34.3454,25.984],[34.3043,26.0835],[34.2826,26.0987],[34.2871,26.1162],[34.2435,26.1626],[34.1874,26.2826],[34.184,26.3215],[34.1093,26.4076],[34.072,26.5135],[34.0363,26.5546],[34.0204,26.6107],[33.9351,26.669],[33.9368,26.7218],[33.9551,26.751],[33.9351,26.7896],[33.949,26.8079],[33.9424,26.8276],[33.966,26.8626],[33.9918,26.8438],[34.004,26.8574],[33.9885,26.8774],[33.9963,26.901],[33.9699,26.8899],[33.9196,26.9638],[33.9201,26.9813],[33.8985,26.9929],[33.9118,27.004],[33.8843,27.0385],[33.904,27.044],[33.8988,27.0624],[33.8288,27.1101],[33.8268,27.1799],[33.8521,27.1999],[33.8404,27.2243],[33.8499,27.2432],[33.7529,27.3018],[33.7229,27.3079],[33.6957,27.3332],[33.6954,27.3513],[33.6749,27.3729],[33.689,27.3896],[33.6776,27.4182],[33.6368,27.4524],[33.6213,27.4951],[33.6035,27.499],[33.5904,27.5204],[33.559,27.5243],[33.5574,27.5851],[33.5221,27.6304],[33.4938,27.6429],[33.5315,27.6838],[33.5612,27.6588],[33.5532,27.6737],[33.569,27.6712],[33.5871,27.6418],[33.5954,27.651],[33.576,27.6818],[33.5493,27.6843],[33.5376,27.706],[33.5593,27.7568],[33.5193,27.7499],[33.4893,27.7988],[33.4699,27.8079],[33.4721,27.8207],[33.4854,27.8379],[33.5118,27.8315],[33.5404,27.8121],[33.5612,27.8137],[33.5721,27.7876],[33.5924,27.7893],[33.581,27.8121],[33.5851,27.8474],[33.4832,27.9888],[33.4165,28.0324],[33.3776,28.0304],[33.366,28.0485],[33.3413,28.0524],[33.3354,28.0849],[33.2813,28.1382],[33.2449,28.1429],[33.2412,28.1724],[33.1851,28.2196],[33.1504,28.2801],[33.1246,28.2926],[33.1101,28.3557],[33.0588,28.3918],[32.9982,28.4901],[32.974,28.4949],[32.9679,28.5182],[32.9535,28.5204],[32.9304,28.5521],[32.8665,28.574],[32.8582,28.6407],[32.8096,28.7721],[32.791,28.7929],[32.7496,28.8054],[32.7254,28.8443],[32.6899,28.869],[32.6635,28.9376],[32.6218,28.9832],[32.6315,29.0288],[32.6229,29.0504],[32.6674,29.0985],[32.6454,29.1677],[32.5083,29.1216],[32.4142,29.067],[32.3769,29.0655],[32.1593,28.9988],[31.9639,28.9764],[31.8346,28.9937],[31.8746,28.907],[31.7959,28.7714],[31.7661,28.6916],[31.784,28.6313],[31.7562,28.5638],[31.8857,28.2993],[32.1901,28.3447],[32.4719,28.1658],[32.6621,27.5683],[32.6503,27.4342],[32.6099,27.34],[32.6226,27.2093],[32.692,27.0391],[32.7367,26.9848],[32.7685,26.8555],[32.7412,26.6855],[32.8878,26.6995],[32.9312,26.6932],[33.1534,26.5248],[33.2279,26.5078],[33.3173,26.5317],[33.3797,26.5063],[33.5458,26.2119],[33.5941,26.081],[33.567,25.9841],[33.3899,25.867],[33.2932,25.7392],[33.2417,25.6351],[33.2745,25.533],[33.4713,25.3066],[33.5056,22.002],[33.4941,21.7734],[33.5641,21.7254],[34.0052,21.7723],[34.1607,22.2071],[34.692,22.2979],[34.9514,22.8576],[35.2122,22.7873],[35.6213,23.1451],[35.5884,23.2026],[35.5701,23.2132],[35.5704,23.2593],[35.551,23.3143],[35.5532,23.3696],[35.5318,23.4274],[35.4938,23.4662],[35.4815,23.5018],[35.5024,23.536],[35.5088,23.5849],[35.4868,23.6451],[35.494,23.6507],[35.509,23.6324],[35.5129,23.6832],[35.5018,23.7424],[35.4849,23.7568],[35.5043,23.7643],[35.5079,23.7512],[35.5146,23.771],[35.5093,23.7851],[35.491,23.7665],[35.474,23.7826],[35.4779,23.846],[35.4904,23.8624],[35.4732,23.9321],[35.4815,23.9274],[35.5021,23.9488],[35.4971,23.9735],[35.511,23.9788],[35.5599,23.9599],[35.524,23.941],[35.5635,23.9565],[35.5879,23.9321],[35.6415,23.9307],[35.6888,23.9096],[35.7465,23.9387],[35.766,23.9313],[35.789,23.8943],[35.7929,23.9082],[35.7474,23.9749],[35.6932,24.0007],[35.6357,24.0015],[35.5982,24.0174],[35.5993,24.0526],[35.5746,24.0963],[35.504,24.1393],[35.4876,24.1368],[35.5126,24.114],[35.4971,24.1071],[35.4938,24.1276],[35.4746,24.1407]]],[[[36.1873,23.6271],[36.1854,23.5965],[36.2151,23.6074],[36.1873,23.6271]]],[[[35.1603,24.6785],[35.1493,24.6657],[35.1757,24.6463],[35.1603,24.6785]]],[[[33.9726,26.7774],[33.9599,26.7649],[33.9976,26.7104],[33.9943,26.7668],[33.9726,26.7774]]],[[[33.9718,27.2115],[33.9693,27.1896],[33.9843,27.1885],[33.9718,27.2115]]],[[[33.9313,27.5366],[33.9151,27.5243],[33.9299,27.5043],[33.9779,27.4943],[34.0224,27.4476],[34.0365,27.4488],[34.0187,27.5032],[33.9621,27.5351],[33.9313,27.5366]]],[[[33.876,27.2213],[33.8693,27.2062],[33.8818,27.214],[33.876,27.2213]]],[[[33.909,27.2665],[33.9068,27.2465],[33.8932,27.2443],[33.9238,27.2099],[33.9424,27.2054],[33.929,27.2512],[33.909,27.2665]]],[[[33.7674,27.6262],[33.7404,27.5857],[33.7779,27.571],[33.764,27.5618],[33.7807,27.5438],[33.7765,27.5618],[33.8029,27.5799],[33.7782,27.5929],[33.7674,27.6262]]],[[[33.799,27.6646],[33.7835,27.6504],[33.809,27.6188],[33.8174,27.6396],[33.799,27.6646]]],[[[33.7406,27.6768],[33.7407,27.705],[33.7311,27.7091],[33.7226,27.683],[33.6971,27.6815],[33.7019,27.652],[33.7406,27.6768]]],[[[33.6811,27.7162],[33.6709,27.7174],[33.6734,27.7039],[33.6945,27.6862],[33.6811,27.7162]]],[[[33.5971,27.786],[33.5838,27.7729],[33.6074,27.7554],[33.5971,27.786]]]]}},{"type":"Feature","properties":{"gid":"EGY.3_1","name":"布海拉省","nameEn":"Al Buhayrah","nameLocal":"البحيرة","type":"省","typeEn":"Governorate","groupZh":"下埃及 · 三角洲与运河","groupEn":"Lower Egypt","capital":"达曼胡尔","pop":6610000,"area":11452,"blurb":"「海省」之名来自三角洲潟湖，农业大省，古亚历山大城的水源腹地。"},"geometry":{"type":"Polygon","coordinates":[[[30.5289,30.4786],[30.648,30.4889],[30.6664,30.4685],[30.6268,30.4126],[30.6952,30.3823],[30.7278,30.4333],[30.797,30.4303],[30.8087,30.4396],[30.7965,30.4536],[30.8008,30.4713],[30.836,30.4855],[30.8299,30.5006],[30.8487,30.5444],[30.8221,30.5421],[30.8144,30.5531],[30.8375,30.5849],[30.8166,30.5859],[30.794,30.6147],[30.7872,30.6456],[30.803,30.6844],[30.7623,30.7192],[30.7895,30.7339],[30.7964,30.7515],[30.7828,30.763],[30.762,30.7574],[30.7547,30.773],[30.8124,30.8223],[30.7635,30.8227],[30.7924,30.865],[30.7569,30.8798],[30.7837,30.93],[30.7475,30.9664],[30.7607,30.9926],[30.7174,31.0185],[30.7249,31.0648],[30.6388,31.1245],[30.6082,31.1739],[30.5658,31.2014],[30.5422,31.1896],[30.5241,31.1971],[30.526,31.2282],[30.5069,31.2283],[30.499,31.2441],[30.5181,31.2686],[30.5217,31.3265],[30.4842,31.3488],[30.463,31.3357],[30.4478,31.3771],[30.4232,31.3796],[30.425,31.4366],[30.3876,31.4415],[30.3618,31.4649],[30.3179,31.3618],[30.2668,31.3096],[30.1785,31.2685],[30.0803,31.2804],[30.0369,31.1854],[29.9892,31.1843],[29.9863,31.1394],[29.9024,31.0002],[29.9167,30.9801],[29.9119,30.9553],[29.8515,30.9312],[29.9162,30.8288],[29.9592,30.7889],[29.9244,30.7591],[29.9605,30.7309],[29.8668,30.646],[29.9395,30.5893],[29.7189,30.4983],[29.6328,30.2628],[30.3378,29.8773],[30.7015,30.2277],[30.4859,30.3388],[30.5289,30.4786]]]}},{"type":"Feature","properties":{"gid":"EGY.4_1","name":"法尤姆省","nameEn":"Al Fayyum","nameLocal":"الفيوم","type":"省","typeEn":"Governorate","groupZh":"上埃及 · 尼罗河谷","groupEn":"Upper Egypt","capital":"法尤姆","pop":3880000,"area":5833,"blurb":"绿洲省：古埃及称「舍易斯」，加龙湖与卡伦湖是尼罗河谷以西最大的绿洲盆府。"},"geometry":{"type":"Polygon","coordinates":[[[30.9484,29.2057],[30.9719,29.1971],[30.9825,29.2174],[31.0042,29.2158],[30.9945,29.2414],[31.1262,29.4218],[31.1002,29.457],[31.0349,29.7219],[30.7597,29.7301],[30.2408,29.4156],[29.8565,29.0913],[30.1099,29.0395],[30.2948,29.0272],[30.2983,28.9676],[30.378,28.9635],[30.8167,29.0828],[30.8696,29.1313],[30.9053,29.2053],[30.9484,29.2057]]]}},{"type":"Feature","properties":{"gid":"EGY.5_1","name":"西部省","nameEn":"Al Gharbiyah","nameLocal":"الغربية","type":"省","typeEn":"Governorate","groupZh":"下埃及 · 三角洲与运河","groupEn":"Lower Egypt","capital":"坦塔","pop":5290000,"area":1993,"blurb":"埃及人口密度最高的省份之一，坦塔大学城是北非重要宗教文化中心。"},"geometry":{"type":"Polygon","coordinates":[[[31.2397,31.0559],[31.2186,31.0555],[31.2193,31.0822],[31.2394,31.0964],[31.2415,31.1139],[31.2384,31.1351],[31.2152,31.1554],[31.1729,31.1598],[31.1449,31.1395],[31.0784,31.1477],[31.0624,31.1632],[31.0537,31.0724],[31.0253,31.035],[31.0008,31.0445],[30.9722,31.0378],[30.9487,31.0512],[30.911,31.0296],[30.9061,31.0115],[30.8693,31.0303],[30.8563,31.0285],[30.8546,31.0109],[30.8,31.0141],[30.7863,31.0439],[30.7623,31.0422],[30.7395,31.0093],[30.7607,30.9926],[30.7475,30.9664],[30.7837,30.93],[30.7569,30.8798],[30.7924,30.865],[30.7635,30.8227],[30.8124,30.8223],[30.7547,30.773],[30.762,30.7574],[30.7828,30.763],[30.7964,30.7515],[30.7895,30.7339],[30.7623,30.7192],[30.7908,30.6952],[30.8178,30.7355],[30.8263,30.7184],[30.8478,30.718],[30.856,30.7348],[30.8702,30.7164],[30.8958,30.7239],[30.8867,30.7369],[30.9497,30.7466],[30.9667,30.7295],[30.9626,30.7182],[30.9795,30.724],[30.986,30.7034],[31.0009,30.7137],[31.0238,30.7037],[31.071,30.7152],[31.0709,30.6962],[31.0941,30.6825],[31.0884,30.6664],[31.1539,30.6694],[31.1984,30.6442],[31.1805,30.6472],[31.1812,30.6312],[31.2077,30.6289],[31.2567,30.5798],[31.2764,30.6698],[31.2519,30.7159],[31.2541,30.7371],[31.2269,30.7568],[31.2383,30.7777],[31.2185,30.832],[31.2548,30.8475],[31.2348,30.8775],[31.249,30.8868],[31.2346,30.8989],[31.2631,30.9281],[31.2396,30.9517],[31.2969,30.9813],[31.3168,31.0156],[31.2972,31.0387],[31.3059,31.0544],[31.2976,31.0599],[31.2679,31.0564],[31.2571,31.0432],[31.2397,31.0559]]]}},{"type":"Feature","properties":{"gid":"EGY.6_1","name":"亚历山大省","nameEn":"Al Iskandariyah","nameLocal":"الإسكندرية","type":"省","typeEn":"Governorate","groupZh":"下埃及 · 三角洲与运河","groupEn":"Lower Egypt","capital":"亚历山大","pop":5480000,"area":2559,"blurb":"地中海明珠：托勒密王朝都城、亚历山大灯塔与图书馆的故乡，埃及第二大城市。"},"geometry":{"type":"Polygon","coordinates":[[[29.6328,30.2628],[29.7189,30.4983],[29.9395,30.5893],[29.8668,30.646],[29.9605,30.7309],[29.9244,30.7591],[29.9592,30.7889],[29.9162,30.8288],[29.8515,30.9312],[29.9119,30.9553],[29.9167,30.9801],[29.9024,31.0002],[29.9863,31.1394],[29.9892,31.1843],[30.0369,31.1854],[30.0893,31.2813],[30.0715,31.309],[30.0799,31.3312],[30.047,31.3174],[30.0365,31.294],[30.0118,31.2904],[29.9188,31.2132],[29.9021,31.214],[29.8999,31.2015],[29.8754,31.2113],[29.8524,31.1876],[29.8726,31.1982],[29.8754,31.1821],[29.8265,31.1393],[29.794,31.1354],[29.7896,31.1504],[29.7621,31.1168],[29.5482,30.9718],[29.3793,30.8921],[29.396,30.8599],[29.5101,30.7485],[29.6252,30.76],[29.6328,30.2628]]]}},{"type":"Feature","properties":{"gid":"EGY.7_1","name":"伊斯梅利亚省","nameEn":"Al Isma`iliyah","nameLocal":"الإسماعيلية","type":"省","typeEn":"Governorate","groupZh":"下埃及 · 三角洲与运河","groupEn":"Lower Egypt","capital":"伊斯梅利亚","pop":1420000,"area":5684,"blurb":"苏伊士运河中段省会，运河管理总部的所在地，运河之战的现场。"},"geometry":{"type":"Polygon","coordinates":[[[31.7985,30.4822],[31.8398,30.2715],[32.2087,30.2482],[32.3174,30.2565],[32.472,30.229],[32.5673,30.2855],[32.7951,30.2456],[32.8118,30.1947],[32.9235,30.1973],[32.9327,30.2362],[32.7808,30.5866],[32.7255,30.7539],[32.5991,30.9341],[32.526,31.0022],[32.3174,30.9116],[32.3167,30.901],[32.1782,30.8974],[32.1591,30.6779],[32.1748,30.6258],[32.109,30.5958],[32.1278,30.5626],[32.0703,30.5547],[31.9765,30.5755],[31.866,30.5553],[31.7716,30.5733],[31.7527,30.558],[31.7565,30.5259],[31.809,30.5238],[31.8206,30.5128],[31.822,30.4948],[31.7985,30.4822]]]}},{"type":"Feature","properties":{"gid":"EGY.8_1","name":"吉萨省","nameEn":"Al Jizah","nameLocal":"NA","type":"省","typeEn":"Governorate","groupZh":"大开罗","groupEn":"Greater Cairo","capital":"吉萨","pop":9270000,"area":36162,"blurb":"金字塔省：胡夫、哈夫拉、孟考拉三大金字塔与狮身人面像均在此，人口全国第二。"},"geometry":{"type":"Polygon","coordinates":[[[30.6409,30.1711],[30.3378,29.8773],[29.6131,29.5091],[28.7615,28.7515],[27.8309,28.5787],[27.3609,27.6758],[28.4666,27.6746],[28.7884,27.9192],[29.2559,28.1026],[29.5929,28.3213],[29.7387,28.6039],[29.8565,29.0913],[30.2408,29.4156],[30.7597,29.7301],[31.0349,29.7219],[31.1002,29.457],[31.1262,29.4218],[31.1785,29.4321],[31.2017,29.4019],[31.2282,29.3997],[31.234,29.378],[31.2139,29.3449],[31.2213,29.2593],[31.2073,29.1965],[31.4674,29.0907],[31.8346,28.9937],[31.8933,29.7337],[31.6837,29.7594],[31.308,29.7541],[31.2898,29.771],[31.2958,29.8418],[31.2779,29.9329],[31.2408,29.9619],[31.227,29.9965],[31.2168,30.0679],[31.2419,30.1056],[31.2283,30.1284],[31.17,30.1413],[31.0653,30.2204],[31.0157,30.1974],[30.9993,30.2045],[30.9725,30.2284],[30.9569,30.2824],[30.9152,30.2863],[30.9175,30.3346],[30.8766,30.3403],[30.8439,30.3245],[30.8206,30.3461],[30.8095,30.3424],[30.8139,30.3314],[30.6409,30.1711]]]}},{"type":"Feature","properties":{"gid":"EGY.9_1","name":"米努夫省","nameEn":"Al Minufiyah","nameLocal":"المنوفية","type":"省","typeEn":"Governorate","groupZh":"下埃及 · 三角洲与运河","groupEn":"Lower Egypt","capital":"希宾库姆","pop":4530000,"area":2174,"blurb":"尼罗河杜姆亚特与罗塞塔两支之间的农业心脏，出过萨达特与穆巴拉克两位总统。"},"geometry":{"type":"Polygon","coordinates":[[[31.042,30.2096],[31.0653,30.2204],[31.0882,30.2103],[31.1111,30.2279],[31.1053,30.2424],[31.1191,30.2642],[31.0911,30.2807],[31.1098,30.3211],[31.0569,30.3716],[31.0918,30.3625],[31.1136,30.3949],[31.0958,30.4198],[31.1331,30.4008],[31.1301,30.4607],[31.1447,30.4667],[31.1484,30.4869],[31.1746,30.4984],[31.1753,30.5147],[31.1877,30.5121],[31.1809,30.5283],[31.209,30.5327],[31.225,30.5191],[31.2265,30.5486],[31.2581,30.5425],[31.2434,30.564],[31.2567,30.5798],[31.2077,30.6289],[31.1812,30.6312],[31.1805,30.6472],[31.1984,30.6442],[31.1539,30.6694],[31.0884,30.6664],[31.0941,30.6825],[31.0709,30.6962],[31.071,30.7152],[31.0238,30.7037],[31.0009,30.7137],[30.986,30.7034],[30.9795,30.724],[30.9626,30.7182],[30.9667,30.7295],[30.9497,30.7466],[30.8867,30.7369],[30.8958,30.7239],[30.8702,30.7164],[30.856,30.7348],[30.8478,30.718],[30.8263,30.7184],[30.8178,30.7355],[30.7908,30.6952],[30.803,30.6844],[30.7872,30.6456],[30.8166,30.5859],[30.8375,30.5849],[30.8144,30.5531],[30.8221,30.5421],[30.8487,30.5444],[30.8299,30.5006],[30.836,30.4855],[30.8008,30.4713],[30.7965,30.4536],[30.8087,30.4396],[30.797,30.4303],[30.7278,30.4333],[30.6952,30.3823],[30.6268,30.4126],[30.6664,30.4685],[30.648,30.4889],[30.5289,30.4786],[30.4859,30.3388],[30.7015,30.2277],[30.8139,30.3314],[30.8095,30.3424],[30.8206,30.3461],[30.8439,30.3245],[30.8766,30.3403],[30.9175,30.3346],[30.9152,30.2863],[30.9569,30.2824],[30.9725,30.2284],[31.0157,30.1974],[31.042,30.2096]]]}},{"type":"Feature","properties":{"gid":"EGY.10_1","name":"明亚省","nameEn":"Al Minya","nameLocal":"NA","type":"省","typeEn":"Governorate","groupZh":"上埃及 · 尼罗河谷","groupEn":"Upper Egypt","capital":"明亚","pop":6010000,"area":31423,"blurb":"「上埃及的珍珠」：阿玛尔纳与贝尼哈桑岩窟墓，中王国时期的首府故地。"},"geometry":{"type":"Polygon","coordinates":[[[30.8532,27.6025],[31.335,27.652],[31.5525,27.6501],[31.7102,27.6816],[32.0127,27.7976],[32.2076,27.8442],[32.3363,27.854],[32.3918,27.8799],[32.5689,27.8528],[32.4719,28.1658],[32.1901,28.3447],[31.8857,28.2993],[31.7122,28.2476],[31.5554,28.2665],[31.3572,28.3296],[31.2266,28.4001],[31.1652,28.4913],[31.1082,28.6085],[31.0325,28.6987],[30.8874,28.7084],[30.8844,28.7198],[30.8617,28.7172],[30.8425,28.731],[30.834,28.7487],[30.8124,28.7458],[30.8119,28.7619],[30.7937,28.7452],[30.7789,28.7624],[30.7374,28.7678],[29.7733,28.779],[29.7387,28.6039],[29.5929,28.3213],[29.2559,28.1026],[28.7884,27.9192],[28.4666,27.6746],[30.53,27.6014],[30.7122,27.6103],[30.7106,27.601],[30.7309,27.6022],[30.7326,27.6297],[30.7907,27.5933],[30.8298,27.5907],[30.8401,27.6124],[30.8532,27.6025]]]}},{"type":"Feature","properties":{"gid":"EGY.11_1","name":"开罗省","nameEn":"Al Qahirah","nameLocal":"NA","type":"省","typeEn":"Governorate","groupZh":"大开罗","groupEn":"Greater Cairo","capital":"开罗","pop":10230000,"area":2913,"blurb":"千塔之城、非洲与阿拉伯世界最大的都会区核心，埃及人口最多的省。"},"geometry":{"type":"Polygon","coordinates":[[[31.2961,29.8041],[31.2898,29.771],[31.308,29.7541],[31.6837,29.7594],[31.8933,29.7337],[31.907,29.8706],[31.8996,30.0472],[31.862,30.1877],[31.4148,30.1964],[31.4012,30.1752],[31.3775,30.1794],[31.3663,30.1547],[31.3596,30.1664],[31.3217,30.1718],[31.3298,30.1568],[31.3166,30.1422],[31.2906,30.1311],[31.2843,30.1135],[31.2419,30.1056],[31.2168,30.0679],[31.2408,29.9619],[31.2779,29.9329],[31.2961,29.8041]]]}},{"type":"Feature","properties":{"gid":"EGY.12_1","name":"盖勒尤卜省","nameEn":"Al Qalyubiyah","nameLocal":"القليوبية","type":"省","typeEn":"Governorate","groupZh":"大开罗","groupEn":"Greater Cairo","capital":"本哈","pop":5950000,"area":1144,"blurb":"大开罗东北翼，面积不到 1200 km² 却挤了近 600 万人，密度全国第一档。"},"geometry":{"type":"Polygon","coordinates":[[[31.2619,30.1098],[31.2843,30.1135],[31.2906,30.1311],[31.3166,30.1422],[31.3298,30.1568],[31.3217,30.1718],[31.3596,30.1664],[31.3663,30.1547],[31.3775,30.1794],[31.4012,30.1752],[31.4148,30.1964],[31.5917,30.1975],[31.5561,30.2578],[31.5326,30.2703],[31.384,30.2918],[31.3734,30.3246],[31.3413,30.3414],[31.3428,30.3566],[31.354,30.3574],[31.3467,30.3815],[31.3103,30.4103],[31.297,30.4283],[31.3053,30.436],[31.2675,30.4555],[31.2692,30.4936],[31.2903,30.5206],[31.2884,30.5406],[31.3021,30.5456],[31.2957,30.5702],[31.3287,30.5717],[31.347,30.598],[31.3299,30.6109],[31.3206,30.5943],[31.2966,30.5876],[31.2642,30.6152],[31.2644,30.5891],[31.2434,30.564],[31.2581,30.5425],[31.2265,30.5486],[31.225,30.5191],[31.209,30.5327],[31.1809,30.5283],[31.1877,30.5121],[31.1753,30.5147],[31.1746,30.4984],[31.1484,30.4869],[31.1447,30.4667],[31.1301,30.4607],[31.1331,30.4008],[31.0958,30.4198],[31.1136,30.3949],[31.0918,30.3625],[31.0569,30.3716],[31.1098,30.3211],[31.0911,30.2807],[31.1191,30.2642],[31.1053,30.2424],[31.1111,30.2279],[31.0882,30.2103],[31.17,30.1413],[31.2283,30.1284],[31.2419,30.1056],[31.2619,30.1098]]]}},{"type":"Feature","properties":{"gid":"EGY.13_1","name":"卢克索省","nameEn":"Al Uqsur","nameLocal":"NA","type":"省","typeEn":"Governorate","groupZh":"上埃及 · 尼罗河谷","groupEn":"Upper Egypt","capital":"卢克索","pop":1320000,"area":606,"blurb":"古都底比斯：卡纳克神庙、卢克索神庙与帝王谷，世界上最大的露天博物馆。"},"geometry":{"type":"Polygon","coordinates":[[[32.8318,25.6932],[32.7382,25.7364],[32.7272,25.8026],[32.6998,25.8176],[32.7022,25.8033],[32.6736,25.7935],[32.6367,25.7493],[32.5464,25.6906],[32.5983,25.6409],[32.5551,25.6089],[32.4791,25.5925],[32.4743,25.5471],[32.7363,25.5422],[32.803,25.579],[32.8318,25.6932]]]}},{"type":"Feature","properties":{"gid":"EGY.14_1","name":"新河谷省","nameEn":"Al Wadi al Jadid","nameLocal":"الوادي الجديد‎","type":"省","typeEn":"Governorate","groupZh":"沙漠与边疆省","groupEn":"Desert & Frontier","capital":"哈尔加","pop":260000,"area":424586,"blurb":"埃及面积最大的省（约 44 万 km²），却只有 20 多万人——西部沙漠的全部荒凉。"},"geometry":{"type":"Polygon","coordinates":[[[31.0032,22.0078],[31.758,23.4726],[32.6551,25.1687],[32.5158,25.2466],[32.4524,25.3923],[32.4251,25.6464],[32.5335,25.6918],[32.6435,25.7901],[32.6684,25.84],[32.6831,25.9179],[32.7272,25.974],[32.7332,26.0758],[32.6748,26.1033],[32.4426,26.0407],[32.3215,25.9867],[32.2175,25.9739],[32.0395,26.061],[31.7619,26.2976],[31.4481,26.6327],[31.2916,26.8335],[30.8645,26.7912],[30.53,27.6014],[28.4666,27.6746],[27.3609,27.6758],[25.0001,27.6501],[25.0,21.9992],[31.0032,22.0078]]]}},{"type":"Feature","properties":{"gid":"EGY.15_1","name":"苏伊士省","nameEn":"As Suways","nameLocal":"السويس","type":"省","typeEn":"Governorate","groupZh":"下埃及 · 三角洲与运河","groupEn":"Lower Egypt","capital":"苏伊士","pop":780000,"area":9405,"blurb":"运河南端门户：苏伊士城扼红海入口，1956 年苏伊士危机的引爆点。"},"geometry":{"type":"Polygon","coordinates":[[[32.1593,28.9988],[32.3769,29.0655],[32.4142,29.067],[32.5083,29.1216],[32.6479,29.1701],[32.6279,29.2029],[32.6315,29.2379],[32.6068,29.2776],[32.5929,29.3451],[32.566,29.3846],[32.3729,29.5354],[32.3426,29.5896],[32.3721,29.6435],[32.3507,29.6546],[32.3707,29.6501],[32.3607,29.6782],[32.3915,29.7262],[32.5074,29.8563],[32.4785,29.8635],[32.4807,29.8749],[32.4593,29.8924],[32.4821,29.9412],[32.5254,29.9543],[32.5399,29.9404],[32.534,29.954],[32.5579,29.9604],[32.5668,29.9493],[32.5549,29.9407],[32.5646,29.9387],[32.559,29.9174],[32.5696,29.9074],[32.5832,29.9149],[32.6338,29.8682],[32.6225,29.833],[32.7913,29.9313],[32.8549,29.943],[32.8262,30.1506],[32.7951,30.2456],[32.5673,30.2855],[32.472,30.229],[32.3174,30.2565],[32.2087,30.2482],[31.8398,30.2715],[31.8996,30.0472],[31.907,29.8706],[31.8346,28.9937],[31.9639,28.9764],[32.1593,28.9988]]]}},{"type":"Feature","properties":{"gid":"EGY.16_1","name":"东部省","nameEn":"Ash Sharqiyah","nameLocal":"الشرقية‎","type":"省","typeEn":"Governorate","groupZh":"下埃及 · 三角洲与运河","groupEn":"Lower Egypt","capital":"扎加济格","pop":7570000,"area":5352,"blurb":"三角洲东部农业大省，塔纳与萨努河之间的粮仓，古埃及布巴斯提斯猫神故地。"},"geometry":{"type":"Polygon","coordinates":[[[31.5917,30.1975],[31.6773,30.1838],[31.862,30.1877],[31.7989,30.4743],[31.822,30.4948],[31.8206,30.5128],[31.809,30.5238],[31.7565,30.5259],[31.7527,30.558],[31.7716,30.5733],[31.866,30.5553],[31.9765,30.5755],[32.0703,30.5547],[32.1278,30.5626],[32.109,30.5958],[32.1748,30.6258],[32.1591,30.6779],[32.1782,30.8974],[32.1814,30.9223],[32.2086,30.9371],[32.1768,31.069],[32.127,31.0977],[32.0511,31.1138],[31.9725,31.1104],[31.9428,31.0886],[31.7793,31.0653],[31.6787,30.9615],[31.6892,30.9405],[31.6678,30.9208],[31.6264,30.9213],[31.6176,30.9013],[31.6424,30.8767],[31.6327,30.8493],[31.5953,30.84],[31.5936,30.8212],[31.5256,30.8233],[31.4851,30.8111],[31.4624,30.8253],[31.4127,30.8026],[31.3799,30.8118],[31.3639,30.7808],[31.3646,30.747],[31.3829,30.7147],[31.3735,30.7102],[31.3903,30.6721],[31.3723,30.6637],[31.3875,30.623],[31.3451,30.6215],[31.347,30.598],[31.3287,30.5717],[31.2957,30.5702],[31.3021,30.5456],[31.2884,30.5406],[31.2903,30.5206],[31.2692,30.4936],[31.2675,30.4555],[31.3053,30.436],[31.297,30.4283],[31.3103,30.4103],[31.3467,30.3815],[31.354,30.3574],[31.3428,30.3566],[31.3413,30.3414],[31.3734,30.3246],[31.384,30.2918],[31.5326,30.2703],[31.5561,30.2578],[31.5917,30.1975]]]}},{"type":"Feature","properties":{"gid":"EGY.17_1","name":"阿斯旺省","nameEn":"Aswan","nameLocal":"أسوان","type":"省","typeEn":"Governorate","groupZh":"上埃及 · 尼罗河谷","groupEn":"Upper Egypt","capital":"阿斯旺","pop":1540000,"area":61338,"blurb":"阿斯旺大坝与纳赛尔水库，埃及最南端的努比亚故地与花岗岩采石场。"},"geometry":{"type":"Polygon","coordinates":[[[33.4941,21.7734],[33.5056,22.002],[33.4713,25.3066],[32.678,25.2958],[32.6427,25.2337],[32.6644,25.2185],[32.6471,25.1732],[32.6551,25.1687],[31.758,23.4726],[31.0032,22.0078],[31.3185,22.0064],[31.3569,22.115],[31.4103,22.1814],[31.4745,22.2251],[31.5129,22.1808],[31.4355,22.0812],[31.4121,22.0081],[33.1665,22.0062],[33.4941,21.7734]]]}},{"type":"Feature","properties":{"gid":"EGY.18_1","name":"艾斯尤特省","nameEn":"Asyut","nameLocal":"NA","type":"省","typeEn":"Governorate","groupZh":"上埃及 · 尼罗河谷","groupEn":"Upper Egypt","capital":"艾斯尤特","pop":4770000,"area":16496,"blurb":"上埃及最大省分之一，古科普特基督教重镇，尼罗河在此转向西行。"},"geometry":{"type":"Polygon","coordinates":[[[30.7122,27.6103],[30.53,27.6014],[30.8645,26.7912],[31.2916,26.8335],[31.3782,26.8863],[31.3978,26.92],[31.4436,26.9447],[31.4806,26.9131],[31.5177,26.8358],[31.5555,26.8627],[31.6032,26.8369],[31.6612,26.8996],[31.8918,27.016],[32.1487,26.9469],[32.2474,27.0061],[32.4297,27.1459],[32.6099,27.34],[32.6503,27.4342],[32.6621,27.5683],[32.5689,27.8528],[32.3918,27.8799],[32.3363,27.854],[32.2076,27.8442],[32.0127,27.7976],[31.7102,27.6816],[31.5525,27.6501],[31.335,27.652],[30.8532,27.6025],[30.8401,27.6124],[30.8298,27.5907],[30.7907,27.5933],[30.7326,27.6297],[30.7309,27.6022],[30.7106,27.601],[30.7122,27.6103]]]}},{"type":"Feature","properties":{"gid":"EGY.19_1","name":"贝尼苏韦夫省","nameEn":"Bani Suwayf","nameLocal":"بنى سويف","type":"省","typeEn":"Governorate","groupZh":"上埃及 · 尼罗河谷","groupEn":"Upper Egypt","capital":"贝尼苏韦夫","pop":3490000,"area":10685,"blurb":"尼罗河谷与西部沙漠之间的过渡带，梅杜姆金字塔（斯尼夫鲁折角试验场）在此。"},"geometry":{"type":"Polygon","coordinates":[[[31.785,28.7422],[31.8746,28.907],[31.8346,28.9937],[31.4674,29.0907],[31.2073,29.1965],[31.2213,29.2593],[31.2139,29.3449],[31.234,29.378],[31.2282,29.3997],[31.2017,29.4019],[31.1785,29.4321],[31.1262,29.4218],[30.9945,29.2414],[31.0042,29.2158],[30.9825,29.2174],[30.9719,29.1971],[30.9053,29.2053],[30.8696,29.1313],[30.8167,29.0828],[30.5062,28.9921],[30.378,28.9635],[30.2983,28.9676],[30.2948,29.0272],[30.1099,29.0395],[29.8565,29.0913],[29.7733,28.779],[30.7374,28.7678],[30.7789,28.7624],[30.7937,28.7452],[30.8119,28.7619],[30.8124,28.7458],[30.834,28.7487],[30.8425,28.731],[30.8617,28.7172],[30.8844,28.7198],[30.8874,28.7084],[31.0325,28.6987],[31.1082,28.6085],[31.1652,28.4913],[31.2266,28.4001],[31.3572,28.3296],[31.5554,28.2665],[31.7122,28.2476],[31.8857,28.2993],[31.7562,28.5638],[31.784,28.6313],[31.7661,28.6916],[31.785,28.7422]]]}},{"type":"Feature","properties":{"gid":"EGY.20_1","name":"塞得港省","nameEn":"Bur Sa`id","nameLocal":"بورسعيد","type":"省","typeEn":"Governorate","groupZh":"下埃及 · 三角洲与运河","groupEn":"Lower Egypt","capital":"塞得港","pop":790000,"area":1458,"blurb":"运河北端入地中海的门户港，1956 年英法入侵的第一登陆点。"},"geometry":{"type":"Polygon","coordinates":[[[32.1848,31.0376],[32.2086,30.9371],[32.1814,30.9223],[32.1782,30.8974],[32.3167,30.901],[32.3174,30.9116],[32.5371,31.0071],[32.55,31.0804],[32.4349,31.1901],[32.3607,31.229],[32.351,31.1999],[32.3599,31.2499],[32.3493,31.2318],[32.3171,31.2663],[32.3424,31.2999],[32.3213,31.2737],[32.2832,31.2735],[32.1885,31.296],[32.0629,31.3668],[32.0574,31.3557],[31.9711,31.3546],[32.007,31.3028],[31.998,31.2275],[32.0434,31.2196],[32.0736,31.1956],[32.0406,31.1555],[32.0912,31.1271],[32.0511,31.1138],[32.127,31.0977],[32.1768,31.069],[32.1848,31.0376]]]}},{"type":"Feature","properties":{"gid":"EGY.21_1","name":"杜姆亚特省","nameEn":"Dumyat","nameLocal":"NA","type":"省","typeEn":"Governorate","groupZh":"下埃及 · 三角洲与运河","groupEn":"Lower Egypt","capital":"杜姆亚特","pop":1600000,"area":942,"blurb":"埃及面积最小的省之一，家具之都，达米埃塔支流的入海口糖业港。"},"geometry":{"type":"Polygon","coordinates":[[[31.6203,31.2311],[31.6372,31.2161],[31.5908,31.1876],[31.5908,31.1635],[31.6159,31.1638],[31.6761,31.2168],[31.7038,31.2102],[31.7672,31.2246],[31.7588,31.2366],[31.7835,31.2471],[31.7865,31.2604],[31.7725,31.2729],[31.7672,31.3073],[31.795,31.3056],[31.7896,31.3226],[31.8215,31.3565],[32.0574,31.3557],[32.0621,31.3668],[32.006,31.4085],[31.9549,31.4974],[31.9768,31.4746],[31.9751,31.4857],[31.9788,31.461],[31.9782,31.484],[31.9874,31.4749],[31.989,31.4521],[31.9868,31.4821],[31.9229,31.5251],[31.844,31.5274],[31.7624,31.4888],[31.7712,31.4518],[31.7496,31.4643],[31.7557,31.4929],[31.7207,31.4729],[31.5657,31.444],[31.4788,31.3651],[31.5664,31.3531],[31.546,31.3404],[31.5515,31.3209],[31.6014,31.2963],[31.6055,31.3042],[31.6516,31.2639],[31.6801,31.2695],[31.6821,31.258],[31.6463,31.2396],[31.6193,31.2441],[31.6203,31.2311]]]}},{"type":"Feature","properties":{"gid":"EGY.22_1","name":"南西奈省","nameEn":"Janub Sina'","nameLocal":"جنوب سيناء","type":"省","typeEn":"Governorate","groupZh":"沙漠与边疆省","groupEn":"Desert & Frontier","capital":"图尔","pop":110000,"area":29402,"blurb":"沙姆沙伊赫与圣凯瑟琳修道院（西奈山）所在地，红海潜水圣地。"},"geometry":{"type":"Polygon","coordinates":[[[33.2165,28.7913],[33.2329,28.7674],[33.1979,28.6704],[33.2224,28.6282],[33.2057,28.621],[33.2196,28.6176],[33.2415,28.5546],[33.2574,28.549],[33.2424,28.5554],[33.2363,28.5796],[33.2571,28.5821],[33.2715,28.5521],[33.2585,28.5421],[33.3251,28.4743],[33.3662,28.454],[33.4049,28.389],[33.5674,28.2938],[33.5929,28.2446],[33.6237,28.2268],[33.6271,28.1812],[33.649,28.1612],[33.6665,28.1635],[33.6704,28.1332],[33.7099,28.089],[33.7137,28.0665],[33.7607,28.0493],[33.7624,28.019],[33.7907,28.0096],[33.8754,27.9326],[33.9157,27.9365],[33.9504,27.8904],[33.9871,27.8846],[34.0543,27.8107],[34.0926,27.7887],[34.1171,27.7968],[34.1935,27.7829],[34.2499,27.7232],[34.2474,27.7362],[34.261,27.7313],[34.2557,27.766],[34.221,27.7646],[34.2057,27.7901],[34.2582,27.7907],[34.2729,27.8532],[34.2885,27.8485],[34.2921,27.8629],[34.3162,27.8471],[34.3279,27.9112],[34.366,27.9154],[34.3851,27.9515],[34.4168,27.964],[34.4326,27.9868],[34.4429,28.0287],[34.4276,28.084],[34.4504,28.1738],[34.4118,28.2301],[34.4099,28.3201],[34.4415,28.359],[34.4562,28.4349],[34.4851,28.4768],[34.5079,28.4704],[34.5135,28.4793],[34.5187,28.5526],[34.5451,28.5796],[34.5526,28.6107],[34.5757,28.6237],[34.5749,28.6521],[34.6271,28.7301],[34.621,28.8388],[34.6482,28.8601],[34.6393,28.9496],[34.6535,28.9699],[34.6865,28.9818],[34.6846,29.0135],[34.6632,29.0415],[34.6921,29.1632],[34.7182,29.1724],[34.7399,29.2107],[34.7418,29.3113],[34.7793,29.3407],[34.7863,29.3701],[34.8096,29.384],[34.8088,29.4007],[34.8526,29.4443],[34.8587,29.4715],[34.9107,29.4971],[34.8777,29.5354],[34.6987,29.5139],[34.5078,29.5537],[34.2061,29.6469],[33.8469,29.8079],[33.6448,29.8512],[33.3832,29.8978],[32.8549,29.943],[32.7913,29.9313],[32.6085,29.821],[32.6346,29.8063],[32.6963,29.7304],[32.681,29.6582],[32.6921,29.6179],[32.6793,29.5971],[32.7101,29.5865],[32.726,29.5496],[32.7179,29.5068],[32.7349,29.4826],[32.724,29.4635],[32.7371,29.4771],[32.7349,29.4543],[32.7443,29.4646],[32.7504,29.4449],[32.8187,29.401],[32.8257,29.3829],[32.8157,29.356],[32.8299,29.3449],[32.8301,29.3149],[32.8701,29.2885],[32.8843,29.2332],[32.9246,29.2049],[32.9535,29.2032],[32.976,29.1668],[32.9971,29.1629],[33.0768,29.086],[33.0754,29.0668],[33.0979,29.0462],[33.1218,29.0443],[33.1813,29.0012],[33.1662,28.9371],[33.1776,28.9404],[33.189,28.9196],[33.1735,28.8946],[33.1732,28.8529],[33.1821,28.8218],[33.2165,28.7913]]]}},{"type":"Feature","properties":{"gid":"EGY.23_1","name":"谢赫村省","nameEn":"Kafr ash Shaykh","nameLocal":"كفر الشيخ","type":"省","typeEn":"Governorate","groupZh":"下埃及 · 三角洲与运河","groupEn":"Lower Egypt","capital":"谢赫村","pop":3640000,"area":3790,"blurb":"三角洲潟湖布如鲁斯湖所在，渔业与稻米并重，人口稠密。"},"geometry":{"type":"Polygon","coordinates":[[[30.5241,31.1971],[30.5422,31.1896],[30.5658,31.2014],[30.6082,31.1739],[30.6388,31.1245],[30.7249,31.0648],[30.7174,31.0185],[30.7395,31.0093],[30.7623,31.0422],[30.7863,31.0439],[30.8,31.0141],[30.8546,31.0109],[30.8563,31.0285],[30.8693,31.0303],[30.9061,31.0115],[30.911,31.0296],[30.9487,31.0512],[30.9722,31.0378],[31.0008,31.0445],[31.0253,31.035],[31.0537,31.0724],[31.0624,31.1632],[31.0784,31.1477],[31.1449,31.1395],[31.1729,31.1598],[31.2215,31.1456],[31.2699,31.1539],[31.2702,31.1716],[31.2874,31.1681],[31.2621,31.2068],[31.282,31.2722],[31.2519,31.4752],[31.3201,31.4378],[31.3177,31.4637],[31.3393,31.4948],[31.3704,31.5103],[31.3988,31.5071],[31.2693,31.5627],[31.0846,31.6029],[30.9771,31.5876],[30.5193,31.4576],[30.4021,31.4763],[30.4149,31.4621],[30.3963,31.4737],[30.4029,31.4624],[30.3782,31.4612],[30.3751,31.4774],[30.394,31.4801],[30.3749,31.4799],[30.3621,31.4649],[30.3876,31.4415],[30.425,31.4366],[30.4232,31.3796],[30.4478,31.3771],[30.463,31.3357],[30.4842,31.3488],[30.5217,31.3265],[30.5181,31.2686],[30.499,31.2441],[30.5069,31.2283],[30.526,31.2282],[30.5241,31.1971]]]}},{"type":"Feature","properties":{"gid":"EGY.24_1","name":"马特鲁省","nameEn":"Matrouh","nameLocal":"مطروح","type":"省","typeEn":"Governorate","groupZh":"沙漠与边疆省","groupEn":"Desert & Frontier","capital":"马特鲁港","pop":550000,"area":156935,"blurb":"西北边疆省：直抵利比亚国界，阿拉曼战场与「克莉奥佩特拉浴场」海滩。"},"geometry":{"type":"Polygon","coordinates":[[[25.0,27.6656],[25.0001,27.6501],[27.3609,27.6758],[27.8309,28.5787],[28.7615,28.7515],[29.6131,29.5091],[30.3378,29.8773],[29.6328,30.2628],[29.6252,30.76],[29.5101,30.7485],[29.396,30.8599],[29.3793,30.8921],[29.1446,30.8221],[28.9988,30.8254],[28.9715,30.8376],[29.0215,30.8296],[28.9112,30.8726],[28.8585,30.9065],[28.8332,30.9271],[28.8307,30.9532],[28.7699,30.9654],[28.7638,30.9843],[28.7201,30.9851],[28.7101,31.0026],[28.6087,31.0154],[28.594,31.0365],[28.5576,31.0526],[28.486,31.0576],[28.4374,31.0871],[28.3215,31.066],[28.2054,31.0721],[28.159,31.0924],[28.0443,31.0857],[27.9263,31.0974],[27.896,31.1176],[27.8918,31.1704],[27.8707,31.1907],[27.8599,31.246],[27.8343,31.2215],[27.6899,31.1729],[27.6465,31.1774],[27.6374,31.1961],[27.5713,31.1904],[27.5568,31.2068],[27.4437,31.2162],[27.3851,31.2621],[27.3471,31.3405],[27.3532,31.364],[27.3402,31.3728],[27.2407,31.3672],[27.2678,31.3578],[27.182,31.359],[27.1824,31.3714],[27.2259,31.3692],[27.0832,31.3804],[27.0642,31.4037],[27.0104,31.4121],[26.9834,31.4422],[26.8449,31.4407],[26.7488,31.4835],[26.587,31.4888],[26.5575,31.5057],[26.4957,31.4951],[25.9115,31.6285],[25.8118,31.6132],[25.5021,31.5199],[25.3951,31.5029],[25.2935,31.5049],[25.171,31.5368],[25.1599,31.5588],[25.1804,31.5713],[25.1518,31.6162],[25.149,31.6674],[25.1315,31.6666],[25.0841,31.6101],[25.0625,31.5418],[24.8611,31.4059],[24.8672,31.343],[24.8869,31.3039],[24.8831,31.134],[24.9806,30.9131],[25.0183,30.778],[24.9265,30.4811],[24.8344,30.3689],[24.7831,30.3313],[24.6981,30.1488],[24.7533,30.0957],[24.8132,29.9189],[24.8194,29.789],[24.8958,29.6314],[24.8604,29.5342],[24.9994,29.2502],[25.0,27.6656]]]}},{"type":"Feature","properties":{"gid":"EGY.25_1","name":"基纳省","nameEn":"Qina","nameLocal":"قنا","type":"省","typeEn":"Governorate","groupZh":"上埃及 · 尼罗河谷","groupEn":"Upper Egypt","capital":"基纳","pop":3490000,"area":13247,"blurb":"上埃及传统保守的心脏地带，丹德拉哈托尔神庙在此，与红海隔山相望。"},"geometry":{"type":"Polygon","coordinates":[[[32.471,25.3496],[32.5158,25.2466],[32.6471,25.1732],[32.6644,25.2185],[32.6427,25.2337],[32.678,25.2958],[33.4713,25.3066],[33.2745,25.533],[33.2417,25.6351],[33.2932,25.7392],[33.3899,25.867],[33.567,25.9841],[33.5941,26.081],[33.5458,26.2119],[33.3797,26.5063],[33.3173,26.5317],[33.2279,26.5078],[33.1534,26.5248],[32.9312,26.6932],[32.8878,26.6995],[32.7412,26.6855],[32.2784,26.1397],[32.2572,26.152],[32.2179,26.1119],[32.1508,26.1443],[32.1468,26.1755],[32.1228,26.208],[32.0894,26.2053],[32.046,26.1757],[32.0168,26.1857],[31.9548,26.1333],[32.0395,26.061],[32.2175,25.9739],[32.3215,25.9867],[32.4426,26.0407],[32.6748,26.1033],[32.7332,26.0758],[32.7272,25.974],[32.6831,25.9179],[32.6684,25.84],[32.6435,25.7901],[32.5335,25.6918],[32.4251,25.6464],[32.4524,25.3923],[32.471,25.3496]],[[32.7279,25.7605],[32.7382,25.7364],[32.8318,25.6932],[32.803,25.579],[32.7363,25.5422],[32.4743,25.5471],[32.4791,25.5925],[32.5551,25.6089],[32.5983,25.6409],[32.5464,25.6906],[32.6367,25.7493],[32.6736,25.7935],[32.7022,25.8033],[32.6998,25.8176],[32.7272,25.8026],[32.7279,25.7605]]]}},{"type":"Feature","properties":{"gid":"EGY.26_1","name":"北西奈省","nameEn":"Shamal Sina'","nameLocal":"شمال سيناء","type":"省","typeEn":"Governorate","groupZh":"沙漠与边疆省","groupEn":"Desert & Frontier","capital":"阿里什","pop":450000,"area":26486,"blurb":"西奈半岛北半部，直抵加沙与以色列边界，地势从沙丘抬升到山地。"},"geometry":{"type":"MultiPolygon","coordinates":[[[[32.9327,30.2362],[32.9235,30.1973],[32.8118,30.1947],[32.8549,29.943],[33.3832,29.8978],[33.6448,29.8512],[33.8469,29.8079],[34.2061,29.6469],[34.5078,29.5537],[34.6987,29.5139],[34.8777,29.5354],[34.8635,29.5903],[34.8776,29.6449],[34.8552,29.691],[34.8559,29.7392],[34.6167,30.3605],[34.547,30.4001],[34.5444,30.4308],[34.5651,30.4813],[34.5217,30.5254],[34.5246,30.58],[34.4956,30.6841],[34.4076,30.8439],[34.229,31.3343],[34.1404,31.2724],[33.999,31.2018],[33.8688,31.159],[33.6818,31.1179],[33.5396,31.1154],[33.474,31.1379],[33.4863,31.1254],[33.4665,31.1429],[33.4688,31.1304],[33.444,31.1424],[33.4232,31.1607],[33.4446,31.1568],[33.4065,31.1771],[33.2735,31.2151],[33.2726,31.2015],[33.3276,31.199],[33.4038,31.1665],[33.3838,31.1646],[33.3699,31.1149],[33.3101,31.1099],[33.2599,31.0843],[33.3226,31.1013],[33.3001,31.0974],[33.3015,31.0871],[33.2871,31.0929],[33.254,31.0776],[33.249,31.0893],[33.2374,31.0743],[33.1993,31.0699],[33.1829,31.0515],[33.1512,31.0432],[33.1385,31.0443],[33.149,31.0582],[33.1424,31.0754],[33.1607,31.0821],[33.1188,31.0915],[33.1179,31.1054],[33.1349,31.1054],[33.1096,31.1154],[33.1037,31.1351],[33.1165,31.1421],[33.1601,31.1107],[33.0938,31.1785],[33.1171,31.1854],[33.111,31.1907],[33.0254,31.1515],[32.9868,31.1046],[32.9543,31.1013],[32.9732,31.0888],[33.0246,31.0871],[33.0265,31.1121],[33.0626,31.1207],[33.0457,31.0985],[33.0546,31.0899],[33.0118,31.0799],[33.0099,31.0671],[33.0265,31.0635],[33.0076,31.049],[32.9665,31.0574],[32.9787,31.0613],[32.9704,31.0793],[32.9907,31.0701],[32.9829,31.0865],[32.9279,31.1032],[32.9185,31.0929],[32.9379,31.0979],[32.9326,31.0835],[32.8704,31.0904],[32.7835,31.0418],[32.7482,31.046],[32.7096,31.029],[32.6987,31.0324],[32.7151,31.0362],[32.7151,31.0499],[32.6657,31.0465],[32.7935,31.0785],[32.9274,31.1351],[32.9226,31.1476],[32.8115,31.0904],[32.7193,31.0643],[32.6143,31.0568],[32.55,31.0804],[32.5371,31.0071],[32.526,31.0022],[32.5991,30.9341],[32.7255,30.7539],[32.7808,30.5866],[32.9327,30.2362]]],[[[33.1446,31.2307],[33.0765,31.2215],[32.9285,31.1401],[33.0585,31.2038],[33.1037,31.209],[33.0826,31.2168],[33.0924,31.2251],[33.1868,31.2263],[33.2618,31.2093],[33.2715,31.2174],[33.1446,31.2307]]]]}},{"type":"Feature","properties":{"gid":"EGY.27_1","name":"索哈杰省","nameEn":"Suhaj","nameLocal":"NA","type":"省","typeEn":"Governorate","groupZh":"上埃及 · 尼罗河谷","groupEn":"Upper Egypt","capital":"索哈杰","pop":5680000,"area":10123,"blurb":"上埃及人口大省，阿拜多斯（奥西里斯崇拜中心）与红修道院所在地。"},"geometry":{"type":"Polygon","coordinates":[[[31.4481,26.6327],[31.7619,26.2976],[31.9548,26.1333],[32.0168,26.1857],[32.046,26.1757],[32.0894,26.2053],[32.1228,26.208],[32.1468,26.1755],[32.1508,26.1443],[32.2179,26.1119],[32.2572,26.152],[32.2784,26.1397],[32.7412,26.6855],[32.7685,26.8555],[32.7367,26.9848],[32.692,27.0391],[32.6226,27.2093],[32.6099,27.34],[32.4297,27.1459],[32.2474,27.0061],[32.1487,26.9469],[31.8918,27.016],[31.6612,26.8996],[31.6032,26.8369],[31.5555,26.8627],[31.5177,26.8358],[31.4806,26.9131],[31.4436,26.9447],[31.3978,26.92],[31.3782,26.8863],[31.2916,26.8335],[31.4481,26.6327]]]}}]}