{"type":"FeatureCollection","features":[{"type":"Feature","properties":{"gid":"SGP.1_1","name":"中央区","nameEn":"Central","nameLocal":"","type":"Region","typeEn":"Region","groupZh":"大区","area":133.5,"iso":"NA","engtype":"Region","capital":"新加坡","pop":1020000,"blurb":"岛国核心，中央商务区与乌节路、行政文化中心。"},"geometry":{"type":"MultiPolygon","coordinates":[[[[103.84778,1.22223],[103.84522,1.2235],[103.84371,1.22277],[103.84319,1.22162],[103.84639,1.21861],[103.84907,1.21501],[103.85045,1.21415],[103.85139,1.21583],[103.85056,1.21917],[103.85167,1.22028],[103.85056,1.22139],[103.85,1.22139],[103.84889,1.22306],[103.84778,1.22223]]],[[[103.86037,1.22434],[103.85973,1.22444],[103.85889,1.22611],[103.85778,1.22583],[103.85694,1.225],[103.85833,1.22333],[103.86222,1.22177],[103.86267,1.22251],[103.86198,1.22396],[103.86139,1.22444],[103.86037,1.22434]]],[[[103.85162,1.23033],[103.84954,1.22998],[103.84873,1.23079],[103.8486,1.2316],[103.84679,1.23237],[103.8457,1.23213],[103.84771,1.23001],[103.84845,1.23072],[103.84919,1.22941],[103.84834,1.2279],[103.84679,1.22681],[103.84747,1.22649],[103.84866,1.2273],[103.84944,1.22861],[103.85159,1.22667],[103.85083,1.22611],[103.85083,1.22556],[103.85194,1.22417],[103.85167,1.22389],[103.85278,1.22167],[103.8559,1.21827],[103.85677,1.21787],[103.85764,1.21869],[103.85824,1.22172],[103.85621,1.22379],[103.85564,1.22593],[103.85445,1.22527],[103.85335,1.2266],[103.85381,1.22906],[103.85476,1.22927],[103.85525,1.22867],[103.85618,1.22868],[103.85768,1.22984],[103.85838,1.23139],[103.85803,1.23227],[103.85141,1.23125],[103.85162,1.23033]]],[[[103.83654,1.23177],[103.83939,1.2285],[103.83974,1.22872],[103.83984,1.22961],[103.83736,1.23247],[103.8365,1.23268],[103.83654,1.23177]]],[[[103.83387,1.21278],[103.83469,1.21262],[103.83608,1.21411],[103.83639,1.21459],[103.83583,1.21563],[103.83441,1.2155],[103.83339,1.21327],[103.83387,1.21278]]],[[[103.83195,1.21556],[103.8325,1.215],[103.83334,1.215],[103.83361,1.21694],[103.83222,1.21694],[103.83195,1.21556]]],[[[103.81084,1.25917],[103.80972,1.25972],[103.80805,1.25972],[103.80695,1.25889],[103.80945,1.25667],[103.81167,1.25583],[103.81306,1.25389],[103.81445,1.25361],[103.81667,1.25194],[103.81861,1.24972],[103.82083,1.24917],[103.82195,1.24778],[103.8225,1.24778],[103.82361,1.24667],[103.82361,1.24589],[103.82472,1.24444],[103.825,1.24333],[103.82646,1.24215],[103.82777,1.24222],[103.82833,1.24139],[103.82806,1.24111],[103.82945,1.23972],[103.83056,1.23945],[103.83278,1.23722],[103.83361,1.23722],[103.83667,1.24028],[103.8375,1.24028],[103.83762,1.23889],[103.84084,1.24135],[103.84102,1.2422],[103.84139,1.24194],[103.84292,1.24306],[103.84695,1.24861],[103.84836,1.25194],[103.84636,1.25316],[103.84511,1.25298],[103.84425,1.25234],[103.84193,1.25219],[103.84197,1.25373],[103.84043,1.25366],[103.83807,1.25438],[103.83672,1.25323],[103.83354,1.2534],[103.83278,1.25389],[103.83111,1.25389],[103.83056,1.25444],[103.82945,1.25389],[103.8275,1.25417],[103.82555,1.255],[103.82389,1.25695],[103.81834,1.25889],[103.81445,1.25833],[103.81084,1.25917]]],[[[103.84055,1.26056],[103.83667,1.26445],[103.83111,1.26445],[103.82555,1.26139],[103.825,1.26],[103.82694,1.25667],[103.82833,1.25611],[103.83056,1.25639],[103.83639,1.25444],[103.83833,1.25611],[103.84028,1.25667],[103.84167,1.25639],[103.8425,1.25722],[103.8425,1.25861],[103.84055,1.26056]]],[[[103.81139,1.26259],[103.81306,1.2625],[103.81361,1.26333],[103.81223,1.26417],[103.81223,1.26472],[103.81167,1.26472],[103.81056,1.26306],[103.81139,1.26259]]],[[[103.89717,1.33683],[103.89618,1.3378],[103.89282,1.33504],[103.88887,1.33356],[103.8866,1.33893],[103.88506,1.34086],[103.88321,1.34123],[103.87725,1.34425],[103.8742,1.34348],[103.87178,1.34354],[103.86964,1.3427],[103.86514,1.34433],[103.86043,1.34344],[103.85717,1.35266],[103.85687,1.35551],[103.85489,1.35665],[103.85339,1.3593],[103.85194,1.36065],[103.84762,1.36359],[103.84101,1.36461],[103.83334,1.36734],[103.83005,1.36788],[103.82833,1.36799],[103.8271,1.36269],[103.82506,1.36349],[103.82434,1.36178],[103.82069,1.3612],[103.81854,1.35487],[103.81903,1.35419],[103.82355,1.35232],[103.82674,1.35419],[103.82982,1.35312],[103.83207,1.35082],[103.83235,1.3498],[103.83384,1.34957],[103.83561,1.34739],[103.83456,1.34768],[103.83579,1.34629],[103.83678,1.34636],[103.83707,1.3435],[103.83592,1.34271],[103.83652,1.342],[103.83393,1.34061],[103.83221,1.34045],[103.82639,1.34125],[103.82319,1.34068],[103.82006,1.33918],[103.81862,1.33579],[103.81673,1.33636],[103.81464,1.33832],[103.81355,1.33821],[103.81236,1.33895],[103.81165,1.33957],[103.81168,1.34046],[103.80986,1.34091],[103.80991,1.34175],[103.80858,1.34181],[103.80737,1.34103],[103.80421,1.34135],[103.79807,1.34779],[103.79507,1.34934],[103.79201,1.34937],[103.79014,1.34873],[103.7894,1.34801],[103.78937,1.34907],[103.78777,1.34894],[103.78771,1.34937],[103.78623,1.34858],[103.7883,1.3457],[103.78738,1.34471],[103.78192,1.3425],[103.77947,1.34249],[103.77783,1.34186],[103.77584,1.3441],[103.77211,1.34634],[103.77039,1.34902],[103.76701,1.34724],[103.76318,1.34671],[103.7642,1.34502],[103.76537,1.34462],[103.76576,1.34369],[103.76714,1.34279],[103.7669,1.34222],[103.76512,1.34211],[103.76469,1.33958],[103.76415,1.33923],[103.7645,1.33661],[103.76533,1.33545],[103.7656,1.33578],[103.76564,1.33245],[103.76461,1.33282],[103.76482,1.3324],[103.76571,1.33168],[103.76813,1.33121],[103.76912,1.32999],[103.77564,1.32643],[103.77483,1.32539],[103.77267,1.32428],[103.77085,1.32127],[103.77226,1.31215],[103.77083,1.30242],[103.76987,1.30042],[103.76962,1.29542],[103.7691,1.29387],[103.76737,1.29165],[103.76673,1.29222],[103.76233,1.30135],[103.76102,1.30103],[103.75836,1.29914],[103.76222,1.29583],[103.76222,1.29528],[103.76028,1.29389],[103.76056,1.29083],[103.76334,1.28806],[103.765,1.2875],[103.76972,1.28445],[103.77028,1.28389],[103.77055,1.28222],[103.76975,1.28059],[103.7673,1.28128],[103.76695,1.28177],[103.76646,1.28149],[103.7666,1.281],[103.76547,1.28102],[103.76453,1.28135],[103.76391,1.28226],[103.76391,1.28282],[103.76432,1.28288],[103.7637,1.28365],[103.76231,1.28358],[103.76218,1.28288],[103.76031,1.28247],[103.75837,1.28365],[103.75796,1.28476],[103.75685,1.28442],[103.75816,1.28287],[103.75383,1.2845],[103.75221,1.28002],[103.77216,1.2678],[103.77834,1.27889],[103.7805,1.27761],[103.78148,1.27617],[103.78972,1.27222],[103.79305,1.26972],[103.79444,1.26945],[103.79723,1.2675],[103.79862,1.26806],[103.80251,1.26434],[103.80433,1.2634],[103.80611,1.26333],[103.8075,1.26528],[103.80861,1.26528],[103.80945,1.26472],[103.81183,1.26649],[103.81883,1.26224],[103.82,1.26195],[103.82166,1.2625],[103.82584,1.26278],[103.82694,1.26389],[103.83195,1.26667],[103.83389,1.26694],[103.83556,1.26639],[103.83826,1.26718],[103.84444,1.26222],[103.84556,1.26028],[103.84639,1.26083],[103.84611,1.26139],[103.84666,1.26195],[103.84666,1.26278],[103.84805,1.26333],[103.84959,1.26099],[103.85137,1.26011],[103.85268,1.26177],[103.8525,1.26992],[103.85204,1.2719],[103.85306,1.27333],[103.85636,1.27063],[103.85871,1.26988],[103.86005,1.26878],[103.86611,1.27278],[103.86806,1.27472],[103.87,1.27583],[103.87139,1.2775],[103.87111,1.27972],[103.8675,1.28333],[103.86334,1.285],[103.86206,1.28605],[103.86227,1.28639],[103.86164,1.28702],[103.86222,1.28917],[103.86305,1.28889],[103.86444,1.28972],[103.86444,1.29333],[103.86361,1.29472],[103.86334,1.29639],[103.86417,1.29722],[103.86444,1.29889],[103.86611,1.30056],[103.86778,1.30111],[103.86833,1.30306],[103.86916,1.30389],[103.86972,1.30417],[103.87167,1.30278],[103.87222,1.29944],[103.86952,1.29779],[103.86661,1.29762],[103.86619,1.29697],[103.86639,1.29389],[103.86972,1.28695],[103.87167,1.28445],[103.875,1.28139],[103.88161,1.28514],[103.88847,1.29011],[103.89071,1.29094],[103.89325,1.29324],[103.89641,1.29394],[103.90249,1.29662],[103.90462,1.29677],[103.90722,1.29828],[103.91108,1.2989],[103.9172,1.30161],[103.91943,1.30217],[103.91826,1.30747],[103.90998,1.30555],[103.90843,1.3085],[103.90508,1.31761],[103.90585,1.32676],[103.90547,1.32849],[103.89717,1.33683]]]]}},{"type":"Feature","properties":{"gid":"SGP.2_1","name":"东区","nameEn":"East","nameLocal":"","type":"Region","typeEn":"Region","groupZh":"大区","area":102.3,"iso":"NA","engtype":"Region","capital":"新加坡","pop":650000,"blurb":"东海岸，樟宜机场与滨海堤坝、勿洛住宅带。"},"geometry":{"type":"MultiPolygon","coordinates":[[[[104.02417,1.36555],[104.02361,1.36583],[104.02222,1.36417],[104.02028,1.36278],[104.01778,1.35611],[104.01667,1.355],[104.01527,1.35639],[104.01473,1.35639],[104.01527,1.35778],[104.01417,1.35889],[104.0125,1.35694],[104.01139,1.35694],[104.01056,1.35778],[104.01083,1.35889],[104.01222,1.36028],[104.01222,1.36139],[104.01389,1.36361],[104.01361,1.36528],[104.01222,1.365],[104.01222,1.36361],[104.00945,1.36056],[104.00861,1.3575],[104.01056,1.35556],[104.00945,1.35278],[104.00777,1.35056],[104.0075,1.34806],[104.00584,1.34583],[104.00584,1.34389],[104.00445,1.34222],[104.00389,1.34028],[104.00278,1.33917],[104.00417,1.33778],[104.00278,1.33583],[104.00278,1.33417],[104.00222,1.33361],[104.0025,1.33194],[104.00361,1.33056],[104.00445,1.33111],[104.00528,1.33444],[104.00639,1.33444],[104.00687,1.33643],[104.00806,1.3375],[104.00806,1.34028],[104.00861,1.34],[104.01056,1.34222],[104.01056,1.34306],[104.01361,1.35],[104.01334,1.35167],[104.01473,1.35361],[104.01583,1.3525],[104.01527,1.34972],[104.01334,1.34556],[104.01389,1.34472],[104.015,1.34583],[104.01611,1.34528],[104.01667,1.34639],[104.01833,1.34778],[104.01889,1.34722],[104.02139,1.34722],[104.02194,1.34667],[104.02278,1.34667],[104.02417,1.34528],[104.02528,1.345],[104.02602,1.34568],[104.02589,1.34812],[104.02844,1.34977],[104.02879,1.35047],[104.02907,1.3557],[104.02639,1.3575],[104.02667,1.35861],[104.02944,1.35778],[104.03,1.35722],[104.03111,1.35861],[104.03167,1.35861],[104.03278,1.35639],[104.0325,1.355],[104.03333,1.35361],[104.03416,1.35444],[104.03472,1.35444],[104.03584,1.35333],[104.03639,1.35333],[104.03694,1.35556],[104.03861,1.35694],[104.03719,1.35856],[104.03639,1.35861],[104.03278,1.36139],[104.03083,1.36194],[104.02695,1.36472],[104.02417,1.36555]]],[[[103.91943,1.30242],[103.92468,1.30358],[103.92718,1.30365],[103.93056,1.305],[103.93389,1.305],[103.93778,1.30694],[103.94074,1.30707],[103.94279,1.30857],[103.94741,1.31045],[103.95165,1.31062],[103.95402,1.31135],[103.95585,1.31102],[103.95744,1.31221],[103.96137,1.31385],[103.96352,1.31344],[103.96693,1.31495],[103.97343,1.31638],[103.97517,1.31628],[103.97749,1.31518],[103.98055,1.31661],[103.98333,1.31667],[103.98496,1.31449],[103.98473,1.31361],[103.98583,1.3125],[103.98722,1.31222],[103.98805,1.31139],[103.99,1.31361],[103.99084,1.31389],[103.99223,1.31361],[103.995,1.31195],[103.99583,1.31222],[103.99889,1.31055],[103.99973,1.31111],[104.00056,1.31],[104.00361,1.31055],[104.00445,1.31139],[104.00667,1.31222],[104.00945,1.31472],[104.01167,1.31556],[104.01945,1.31528],[104.02084,1.31472],[104.02167,1.315],[104.02222,1.31445],[104.02194,1.31278],[104.0225,1.31139],[104.02333,1.31055],[104.02639,1.30917],[104.02722,1.31],[104.0275,1.31111],[104.02695,1.31167],[104.02472,1.31195],[104.02389,1.31278],[104.02361,1.31556],[104.02278,1.31695],[104.02278,1.31861],[104.02445,1.31945],[104.02583,1.31861],[104.02695,1.31972],[104.02834,1.31861],[104.02834,1.31806],[104.02695,1.31667],[104.03111,1.31306],[104.03167,1.31222],[104.03167,1.31028],[104.03222,1.30972],[104.03361,1.31],[104.03361,1.31195],[104.03306,1.3125],[104.03333,1.31306],[104.03278,1.31556],[104.03472,1.3175],[104.035,1.31917],[104.03278,1.32111],[104.03333,1.32195],[104.03333,1.32333],[104.03222,1.32528],[104.01835,1.32465],[104.01556,1.32389],[104.01389,1.32417],[104.01278,1.32306],[104.01167,1.32278],[104.00889,1.32306],[104.00723,1.32222],[104.00417,1.3225],[104.0025,1.32139],[104.00027,1.32222],[103.99944,1.32111],[103.99806,1.32111],[103.99667,1.32139],[103.99445,1.32333],[103.99611,1.32583],[103.995,1.32694],[103.99327,1.32722],[103.99271,1.32813],[103.99078,1.32897],[103.99868,1.35015],[103.99973,1.35245],[104.00097,1.35298],[104.00263,1.35823],[104.0041,1.36072],[104.00472,1.36333],[104.00639,1.36528],[104.00723,1.36972],[104.00639,1.37111],[104.00833,1.37306],[104.00777,1.37389],[104.00667,1.37417],[104.00562,1.37523],[104.00448,1.37722],[104.00035,1.38728],[104.00027,1.39055],[103.99973,1.39111],[103.99889,1.39111],[103.9975,1.39],[103.99583,1.39],[103.98778,1.39278],[103.98666,1.39222],[103.97916,1.39305],[103.9777,1.39233],[103.97582,1.39276],[103.97244,1.38825],[103.96983,1.38565],[103.9678,1.38496],[103.96684,1.38524],[103.96639,1.38639],[103.96555,1.38556],[103.965,1.38417],[103.96555,1.38333],[103.96533,1.38283],[103.967,1.38242],[103.96741,1.38158],[103.96389,1.38194],[103.96024,1.38139],[103.95788,1.38142],[103.95398,1.38248],[103.95079,1.38255],[103.9459,1.38475],[103.94098,1.3881],[103.94017,1.38925],[103.93767,1.3904],[103.93629,1.39291],[103.93492,1.39792],[103.93395,1.39881],[103.93111,1.39972],[103.92944,1.39972],[103.92778,1.39861],[103.92514,1.39785],[103.91695,1.39096],[103.91433,1.38593],[103.9175,1.38237],[103.91554,1.37994],[103.91132,1.37723],[103.91004,1.37586],[103.90622,1.36499],[103.90198,1.35716],[103.90008,1.35696],[103.89966,1.35617],[103.89849,1.3562],[103.89725,1.3536],[103.89573,1.35401],[103.89349,1.34876],[103.89381,1.34783],[103.89619,1.34677],[103.89836,1.34744],[103.89916,1.34428],[103.89905,1.34276],[103.89618,1.3378],[103.90547,1.32849],[103.90585,1.32676],[103.90508,1.31761],[103.90843,1.3085],[103.90998,1.30555],[103.91826,1.30747],[103.91943,1.30242]]]]}},{"type":"Feature","properties":{"gid":"SGP.3_1","name":"北区","nameEn":"North","nameLocal":"","type":"Region","typeEn":"Region","groupZh":"大区","area":131.0,"iso":"NA","engtype":"Region","capital":"新加坡","pop":600000,"blurb":"北部与马来西亚隔柔佛海峡，兀兰与双溪布洛湿地。"},"geometry":{"type":"MultiPolygon","coordinates":[[[[103.82823,1.36646],[103.8283,1.36747],[103.82733,1.36927],[103.82795,1.37044],[103.82787,1.37212],[103.8274,1.37296],[103.8263,1.37351],[103.82636,1.37641],[103.82783,1.37742],[103.82729,1.37909],[103.82571,1.37976],[103.82394,1.37865],[103.82276,1.37972],[103.82165,1.37959],[103.82047,1.38054],[103.81777,1.38031],[103.81934,1.38339],[103.81944,1.38537],[103.81875,1.38677],[103.81741,1.38642],[103.81673,1.38692],[103.81706,1.38772],[103.81838,1.38862],[103.81796,1.38993],[103.81883,1.39434],[103.8234,1.39314],[103.82737,1.39295],[103.84268,1.39644],[103.85008,1.39647],[103.85192,1.39685],[103.85553,1.39972],[103.85566,1.40114],[103.85477,1.40339],[103.85506,1.40487],[103.86025,1.40903],[103.86164,1.41132],[103.86184,1.41326],[103.86115,1.41816],[103.85939,1.4163],[103.8577,1.41341],[103.85285,1.40988],[103.85149,1.40779],[103.84544,1.40363],[103.84437,1.40103],[103.84385,1.40081],[103.8419,1.40161],[103.84023,1.39862],[103.83917,1.39787],[103.83654,1.39779],[103.83486,1.39871],[103.83457,1.39938],[103.83498,1.40096],[103.83418,1.40319],[103.83547,1.40591],[103.83498,1.40652],[103.83142,1.40583],[103.82891,1.40313],[103.82808,1.40401],[103.82971,1.40831],[103.83282,1.41016],[103.83415,1.41046],[103.83568,1.40978],[103.83781,1.40963],[103.84357,1.40752],[103.84778,1.40972],[103.84944,1.41139],[103.85,1.41306],[103.85194,1.41583],[103.85293,1.41871],[103.8561,1.42225],[103.85806,1.42706],[103.85972,1.42867],[103.86247,1.43301],[103.86277,1.43411],[103.86219,1.43581],[103.85741,1.44146],[103.85626,1.44148],[103.85403,1.43953],[103.85277,1.43921],[103.85333,1.44028],[103.85568,1.4424],[103.85628,1.44362],[103.85579,1.44639],[103.85442,1.44857],[103.85295,1.44889],[103.84769,1.44804],[103.84615,1.44874],[103.84611,1.44972],[103.84666,1.45],[103.84885,1.44982],[103.85105,1.4509],[103.85164,1.45343],[103.85054,1.45556],[103.84584,1.45805],[103.84383,1.45982],[103.84132,1.46086],[103.8383,1.46345],[103.83528,1.46417],[103.83389,1.46611],[103.83056,1.4675],[103.83028,1.46806],[103.83111,1.46944],[103.82889,1.47139],[103.82833,1.47139],[103.8275,1.47055],[103.82489,1.46597],[103.82394,1.46588],[103.82266,1.46668],[103.82206,1.46657],[103.82016,1.46541],[103.81889,1.46361],[103.81855,1.46447],[103.81908,1.46585],[103.8225,1.46819],[103.82027,1.47009],[103.81824,1.47104],[103.81097,1.47004],[103.80861,1.47083],[103.80611,1.47055],[103.80444,1.47028],[103.80361,1.46944],[103.80222,1.46917],[103.79945,1.46694],[103.79611,1.46667],[103.79417,1.46417],[103.79222,1.46333],[103.79039,1.46114],[103.78281,1.45562],[103.77848,1.45375],[103.7754,1.451],[103.77248,1.44972],[103.77084,1.45],[103.76952,1.44917],[103.76861,1.44778],[103.7675,1.4475],[103.76667,1.445],[103.76473,1.44306],[103.76174,1.43873],[103.75844,1.43836],[103.7545,1.43879],[103.75083,1.43778],[103.75028,1.43722],[103.74458,1.44039],[103.74284,1.43969],[103.74231,1.43832],[103.74547,1.43302],[103.74656,1.42886],[103.7433,1.42372],[103.74086,1.42175],[103.73999,1.42039],[103.74211,1.41385],[103.74155,1.41019],[103.74188,1.40826],[103.74289,1.40687],[103.74413,1.40608],[103.75102,1.40494],[103.75249,1.40383],[103.75285,1.40282],[103.75199,1.39837],[103.75332,1.389],[103.7581,1.38903],[103.76221,1.39037],[103.76495,1.39077],[103.77445,1.39029],[103.77598,1.37983],[103.78064,1.36107],[103.78158,1.3591],[103.78366,1.35648],[103.78939,1.35229],[103.79166,1.34927],[103.79403,1.34953],[103.79644,1.34888],[103.79849,1.34738],[103.80421,1.34135],[103.80737,1.34103],[103.80858,1.34181],[103.80991,1.34175],[103.80986,1.34091],[103.81168,1.34046],[103.81165,1.33957],[103.81236,1.33895],[103.81355,1.33821],[103.81464,1.33832],[103.81673,1.33636],[103.81807,1.33588],[103.81862,1.33579],[103.82036,1.33946],[103.82319,1.34068],[103.82639,1.34125],[103.83221,1.34045],[103.83434,1.34077],[103.83652,1.342],[103.83592,1.34271],[103.83707,1.3435],[103.83678,1.34636],[103.83579,1.34629],[103.83456,1.34768],[103.83561,1.34739],[103.83384,1.34957],[103.83235,1.3498],[103.83207,1.35082],[103.82982,1.35312],[103.82674,1.35419],[103.82355,1.35232],[103.81903,1.35419],[103.81854,1.35487],[103.82069,1.3612],[103.82434,1.36178],[103.82506,1.36349],[103.8271,1.36269],[103.82729,1.36467],[103.82767,1.3647],[103.82823,1.36646]]],[[[103.73921,1.42598],[103.73879,1.42591],[103.73831,1.42702],[103.7379,1.42695],[103.73838,1.42473],[103.73748,1.42326],[103.73976,1.42521],[103.73962,1.42591],[103.73921,1.42598]]],[[[103.70984,1.41258],[103.71083,1.41306],[103.71223,1.41282],[103.71389,1.41361],[103.715,1.41472],[103.71652,1.41429],[103.71771,1.41293],[103.71919,1.41225],[103.72151,1.41199],[103.72321,1.41229],[103.72587,1.41418],[103.72965,1.41507],[103.73553,1.4208],[103.73574,1.42425],[103.73724,1.42831],[103.7382,1.42964],[103.73631,1.43092],[103.73634,1.43155],[103.73762,1.43294],[103.73776,1.43501],[103.73722,1.43667],[103.73847,1.43944],[103.73656,1.44341],[103.7325,1.44695],[103.73055,1.44972],[103.72778,1.45111],[103.72528,1.45139],[103.72305,1.45083],[103.72,1.45108],[103.71402,1.44996],[103.70986,1.44805],[103.70854,1.44682],[103.70724,1.44649],[103.7025,1.44152],[103.6984,1.43827],[103.69601,1.43537],[103.69163,1.43359],[103.69302,1.43367],[103.69339,1.43263],[103.69433,1.43243],[103.69504,1.43152],[103.69579,1.42774],[103.69713,1.42611],[103.69708,1.42424],[103.70011,1.42319],[103.69866,1.41869],[103.70157,1.41805],[103.70098,1.4168],[103.70503,1.4125],[103.70984,1.41258]]],[[[103.86444,1.43778],[103.865,1.4375],[103.86611,1.43806],[103.86611,1.44028],[103.86528,1.44139],[103.86556,1.44167],[103.8625,1.44472],[103.8625,1.44611],[103.85944,1.44917],[103.85944,1.44972],[103.85833,1.45028],[103.85694,1.45028],[103.85889,1.44833],[103.85917,1.44698],[103.86,1.44611],[103.85978,1.44356],[103.86222,1.44111],[103.86222,1.44028],[103.86361,1.43917],[103.86444,1.43778]]]]}},{"type":"Feature","properties":{"gid":"SGP.4_1","name":"东北区","nameEn":"North-East","nameLocal":"","type":"Region","typeEn":"Region","groupZh":"大区","area":103.1,"iso":"NA","engtype":"Region","capital":"新加坡","pop":930000,"blurb":"东北部，盛港与榜鹅新镇，规划新城。"},"geometry":{"type":"MultiPolygon","coordinates":[[[[103.89585,1.33744],[103.89867,1.34172],[103.89912,1.34311],[103.89903,1.34505],[103.89836,1.34744],[103.89619,1.34677],[103.89381,1.34783],[103.89349,1.34876],[103.89573,1.35401],[103.89725,1.3536],[103.89849,1.3562],[103.89966,1.35617],[103.90008,1.35696],[103.90198,1.35716],[103.90622,1.36499],[103.91004,1.37586],[103.91132,1.37723],[103.91554,1.37994],[103.9175,1.38237],[103.91433,1.38593],[103.91695,1.39096],[103.9166,1.39142],[103.91972,1.395],[103.91944,1.39583],[103.92028,1.39722],[103.92028,1.39917],[103.92139,1.40083],[103.92028,1.40306],[103.91519,1.40862],[103.91429,1.40885],[103.91306,1.41073],[103.91287,1.41186],[103.91347,1.41401],[103.91294,1.4175],[103.91353,1.42025],[103.91293,1.4215],[103.9118,1.42189],[103.90972,1.42111],[103.90833,1.42139],[103.90444,1.41917],[103.9025,1.41917],[103.89848,1.41736],[103.89694,1.41472],[103.89694,1.41306],[103.89555,1.41056],[103.89555,1.40944],[103.89445,1.40778],[103.89555,1.40639],[103.89528,1.40611],[103.89479,1.40657],[103.89385,1.40658],[103.89138,1.40474],[103.88805,1.40333],[103.88695,1.40195],[103.88611,1.40306],[103.88695,1.40416],[103.88834,1.40528],[103.88948,1.40531],[103.89413,1.41011],[103.89489,1.41181],[103.8941,1.41366],[103.88861,1.41472],[103.88498,1.41659],[103.88292,1.41699],[103.88104,1.41599],[103.88123,1.41388],[103.88073,1.41244],[103.88016,1.41593],[103.87875,1.41723],[103.87579,1.4187],[103.87413,1.4214],[103.87187,1.42389],[103.8688,1.4251],[103.86582,1.42467],[103.86425,1.42406],[103.86301,1.42298],[103.86115,1.41816],[103.86186,1.41286],[103.86128,1.41046],[103.86025,1.40903],[103.85506,1.40487],[103.85477,1.40339],[103.85566,1.40114],[103.85558,1.39986],[103.85494,1.39891],[103.85239,1.39709],[103.85008,1.39647],[103.84268,1.39644],[103.82737,1.39295],[103.8234,1.39314],[103.81883,1.39434],[103.81796,1.38993],[103.81838,1.38862],[103.81706,1.38772],[103.81673,1.38692],[103.81741,1.38642],[103.81875,1.38677],[103.81944,1.38537],[103.81934,1.38339],[103.81782,1.38024],[103.82047,1.38054],[103.82165,1.37959],[103.82276,1.37972],[103.82394,1.37865],[103.82571,1.37976],[103.82729,1.37909],[103.82783,1.37742],[103.82636,1.37641],[103.8263,1.37351],[103.82783,1.37225],[103.82798,1.3706],[103.82733,1.36927],[103.8283,1.36747],[103.82833,1.36799],[103.83193,1.36767],[103.84101,1.36461],[103.84655,1.36393],[103.84924,1.36275],[103.85194,1.36065],[103.85339,1.3593],[103.85489,1.35665],[103.85687,1.35551],[103.85717,1.35266],[103.86043,1.34344],[103.86514,1.34433],[103.86964,1.3427],[103.87178,1.34354],[103.8742,1.34348],[103.87725,1.34425],[103.88321,1.34123],[103.88506,1.34086],[103.8866,1.33893],[103.88887,1.33356],[103.89282,1.33504],[103.89585,1.33744]]],[[[103.92162,1.41357],[103.92024,1.41344],[103.91738,1.41602],[103.91567,1.41586],[103.91608,1.41436],[103.9183,1.41308],[103.92004,1.41132],[103.92146,1.40887],[103.92352,1.40746],[103.92388,1.4067],[103.92355,1.40539],[103.92395,1.40495],[103.92436,1.40474],[103.92625,1.4055],[103.92829,1.40414],[103.92987,1.4024],[103.9305,1.40348],[103.92985,1.40503],[103.92497,1.40924],[103.92368,1.41186],[103.92162,1.41357]]],[[[103.88998,1.42472],[103.88847,1.42486],[103.88389,1.41805],[103.88889,1.41556],[103.89278,1.41528],[103.89472,1.41444],[103.89703,1.41634],[103.89722,1.4175],[103.89806,1.41861],[103.8961,1.42111],[103.88998,1.42472]]],[[[103.88164,1.41767],[103.88298,1.41867],[103.8858,1.42217],[103.88803,1.42584],[103.88631,1.42737],[103.87896,1.43161],[103.87618,1.43195],[103.87427,1.43162],[103.87056,1.42904],[103.86925,1.42674],[103.86999,1.42548],[103.87344,1.42354],[103.87611,1.42058],[103.87897,1.41826],[103.88164,1.41767]]],[[[103.95306,1.39972],[103.95333,1.39917],[103.95417,1.39917],[103.95417,1.4],[103.95277,1.40028],[103.94861,1.405],[103.94861,1.40583],[103.94778,1.40722],[103.94722,1.40778],[103.94527,1.40778],[103.94722,1.405],[103.94833,1.40444],[103.95111,1.40111],[103.95306,1.39972]]],[[[104.05915,1.43152],[104.05844,1.43211],[104.05502,1.43178],[104.05405,1.43029],[104.05224,1.42965],[104.04735,1.43022],[104.04246,1.43017],[104.04222,1.42964],[104.04166,1.42966],[104.04197,1.42851],[104.04166,1.42851],[104.04166,1.42769],[104.04057,1.42767],[104.04054,1.42711],[104.03998,1.42709],[104.04001,1.42628],[104.03913,1.42625],[104.03774,1.42517],[104.03692,1.42544],[104.03667,1.42489],[104.03275,1.42518],[104.0322,1.42489],[104.03025,1.42543],[104.03029,1.426],[104.02918,1.42573],[104.02859,1.42489],[104.02893,1.42365],[104.02861,1.42212],[104.02915,1.42145],[104.02918,1.42015],[104.02972,1.41988],[104.02944,1.41905],[104.03,1.41876],[104.03027,1.41687],[104.03108,1.41628],[104.03116,1.41569],[104.02784,1.41564],[104.02789,1.41281],[104.03109,1.41338],[104.03085,1.41239],[104.03027,1.41238],[104.03,1.41046],[104.02915,1.40987],[104.02886,1.40883],[104.02839,1.40876],[104.02833,1.40712],[104.02887,1.40712],[104.02887,1.40658],[104.03028,1.40544],[104.03057,1.40462],[104.03224,1.40436],[104.0325,1.40376],[104.03306,1.40379],[104.03304,1.40318],[104.03415,1.40325],[104.03416,1.40269],[104.035,1.40293],[104.03583,1.40152],[104.03664,1.40131],[104.03722,1.39849],[104.03807,1.39767],[104.03803,1.39602],[104.03916,1.39572],[104.03915,1.39517],[104.03998,1.39523],[104.04028,1.39604],[104.04137,1.39545],[104.0403,1.39513],[104.04057,1.39321],[104.04222,1.39212],[104.04273,1.39102],[104.04333,1.39104],[104.04329,1.39017],[104.0439,1.38988],[104.04377,1.38909],[104.04443,1.3888],[104.04446,1.38825],[104.04556,1.38821],[104.04553,1.38683],[104.04693,1.38626],[104.04693,1.38491],[104.04834,1.38407],[104.04861,1.38294],[104.05028,1.38154],[104.05026,1.38073],[104.05332,1.38104],[104.0536,1.38186],[104.05443,1.38157],[104.05555,1.38184],[104.05526,1.38215],[104.05555,1.38349],[104.05638,1.38375],[104.05666,1.38485],[104.05748,1.38519],[104.05745,1.38575],[104.06079,1.38683],[104.06079,1.38739],[104.06138,1.38768],[104.06193,1.3874],[104.06274,1.38821],[104.06583,1.38878],[104.06667,1.38963],[104.06719,1.38932],[104.06834,1.39017],[104.06912,1.38992],[104.06915,1.39042],[104.06966,1.39045],[104.07024,1.39129],[104.07388,1.39129],[104.07416,1.3907],[104.07527,1.39072],[104.07609,1.38989],[104.07692,1.38989],[104.07664,1.39074],[104.07944,1.39126],[104.08054,1.39244],[104.08051,1.39377],[104.08107,1.39428],[104.08083,1.39573],[104.08164,1.39629],[104.08136,1.39768],[104.08219,1.39794],[104.08191,1.39935],[104.08248,1.39961],[104.08221,1.40125],[104.08305,1.40155],[104.08273,1.40211],[104.0833,1.40352],[104.08301,1.40515],[104.0836,1.40516],[104.0833,1.40654],[104.08385,1.40711],[104.08334,1.4074],[104.08303,1.40711],[104.08305,1.40765],[104.08388,1.40793],[104.08389,1.4085],[104.08471,1.40851],[104.08526,1.40988],[104.0858,1.41014],[104.08551,1.41127],[104.08471,1.41124],[104.08442,1.41292],[104.08356,1.41349],[104.08326,1.41475],[104.08507,1.41521],[104.08362,1.41934],[104.07959,1.4239],[104.07177,1.42999],[104.06109,1.43075],[104.06109,1.43127],[104.05915,1.43152]]],[[[103.93814,1.42652],[103.93694,1.42736],[103.93723,1.4282],[103.93639,1.4282],[103.93639,1.42764],[103.93333,1.42792],[103.9325,1.42764],[103.9325,1.42653],[103.92973,1.42625],[103.92973,1.42542],[103.92889,1.42458],[103.92611,1.42403],[103.92584,1.42264],[103.92748,1.42099],[103.92806,1.41903],[103.92929,1.41863],[103.93028,1.41736],[103.9325,1.41736],[103.93389,1.4182],[103.93417,1.41764],[103.93338,1.41711],[103.93361,1.41653],[103.93528,1.41514],[103.93778,1.41514],[103.93778,1.41597],[103.94111,1.41792],[103.94139,1.41736],[103.93945,1.4157],[103.93917,1.41458],[103.94056,1.41292],[103.94334,1.41153],[103.94611,1.41125],[103.94695,1.41014],[103.94833,1.40986],[103.94889,1.40931],[103.94861,1.40847],[103.94945,1.40708],[103.95028,1.40708],[103.95084,1.41042],[103.95223,1.41042],[103.95223,1.4082],[103.95278,1.40708],[103.95223,1.40681],[103.95778,1.40097],[103.95778,1.39986],[103.96139,1.39986],[103.96195,1.40042],[103.96167,1.40069],[103.96806,1.40125],[103.96889,1.40264],[103.97112,1.40208],[103.97112,1.40264],[103.97389,1.40403],[103.97389,1.40625],[103.97806,1.40792],[103.98,1.40792],[103.98056,1.40708],[103.98278,1.40736],[103.98306,1.40681],[103.98417,1.40681],[103.98556,1.40764],[103.99194,1.4082],[103.99194,1.40931],[103.99056,1.41014],[103.99084,1.4107],[103.99028,1.41125],[103.99139,1.4132],[103.99111,1.41431],[103.99194,1.41542],[103.99084,1.41736],[103.98972,1.4182],[103.9875,1.41875],[103.9875,1.4182],[103.98583,1.4182],[103.98583,1.41875],[103.98438,1.41875],[103.98359,1.41821],[103.97791,1.4178],[103.97611,1.41875],[103.97361,1.4182],[103.97361,1.41875],[103.97166,1.41958],[103.96944,1.41958],[103.96778,1.41931],[103.96778,1.41875],[103.96667,1.41931],[103.96254,1.41824],[103.9589,1.41857],[103.95889,1.41764],[103.95556,1.4182],[103.95479,1.4175],[103.95423,1.41917],[103.95278,1.41931],[103.95429,1.42033],[103.94638,1.4238],[103.93861,1.426],[103.93814,1.42652]]],[[[104.02194,1.42111],[104.02055,1.42195],[104.01945,1.42361],[104.01861,1.42306],[104.01889,1.42167],[104.01667,1.41805],[104.01667,1.41583],[104.01806,1.41417],[104.02111,1.41222],[104.025,1.41222],[104.02695,1.41417],[104.02583,1.41889],[104.02278,1.42111],[104.02194,1.42111]]]]}},{"type":"Feature","properties":{"gid":"SGP.5_1","name":"西区","nameEn":"West","nameLocal":"","type":"Region","typeEn":"Region","groupZh":"大区","area":230.1,"iso":"NA","engtype":"Region","capital":"新加坡","pop":920000,"blurb":"西部工业与裕廊岛、大士，国立大学与科技园。"},"geometry":{"type":"MultiPolygon","coordinates":[[[[103.73461,1.175],[103.73361,1.17583],[103.73222,1.17611],[103.72945,1.175],[103.72806,1.17306],[103.72889,1.17222],[103.73111,1.17194],[103.73139,1.16917],[103.73361,1.16694],[103.73889,1.16639],[103.73994,1.16754],[103.74007,1.17003],[103.74207,1.17312],[103.74194,1.17417],[103.74111,1.17389],[103.74056,1.17444],[103.73834,1.17472],[103.7375,1.17528],[103.73556,1.17444],[103.73461,1.175]]],[[[103.76444,1.21083],[103.76222,1.21111],[103.76167,1.21167],[103.76139,1.21333],[103.75972,1.21528],[103.75972,1.21639],[103.75916,1.21716],[103.75833,1.21639],[103.75806,1.21472],[103.75889,1.21361],[103.75889,1.2125],[103.7575,1.20889],[103.7575,1.20472],[103.75833,1.20306],[103.75806,1.20222],[103.76,1.19833],[103.75916,1.19583],[103.76389,1.19139],[103.76444,1.19222],[103.76083,1.19583],[103.76083,1.19694],[103.76111,1.19778],[103.76389,1.20083],[103.76611,1.20167],[103.77194,1.19778],[103.77361,1.19722],[103.77445,1.19639],[103.77417,1.19417],[103.77389,1.19333],[103.77167,1.19111],[103.76945,1.19],[103.76639,1.19083],[103.76527,1.19028],[103.76611,1.18917],[103.76778,1.18833],[103.76972,1.18861],[103.77222,1.18972],[103.77556,1.19333],[103.7758,1.19672],[103.77657,1.19741],[103.78,1.19861],[103.78139,1.2],[103.7816,1.20822],[103.78028,1.21142],[103.77917,1.21195],[103.77805,1.21111],[103.77722,1.21167],[103.77472,1.21056],[103.77333,1.21056],[103.77,1.20861],[103.76722,1.20917],[103.76444,1.21083]]],[[[103.79611,1.20889],[103.79611,1.20945],[103.79444,1.21111],[103.79305,1.21139],[103.7925,1.21083],[103.79122,1.20785],[103.79222,1.20417],[103.79417,1.20389],[103.795,1.20305],[103.79667,1.2025],[103.79739,1.2015],[103.80122,1.20066],[103.80222,1.20195],[103.80222,1.20306],[103.79945,1.20639],[103.79806,1.20639],[103.79611,1.20889]]],[[[103.74834,1.22333],[103.74889,1.22278],[103.74973,1.22278],[103.75,1.22389],[103.74944,1.22417],[103.75,1.22444],[103.74973,1.22472],[103.75028,1.22583],[103.7475,1.22583],[103.74806,1.22444],[103.7475,1.22389],[103.74834,1.22333]]],[[[103.72872,1.19101],[103.72806,1.19139],[103.72334,1.19139],[103.7225,1.18833],[103.72139,1.18722],[103.71778,1.18722],[103.71708,1.18778],[103.71639,1.18722],[103.71806,1.18445],[103.71806,1.18222],[103.71913,1.18031],[103.71972,1.18],[103.72111,1.18139],[103.72472,1.18306],[103.7275,1.18333],[103.72833,1.18417],[103.72833,1.18556],[103.72889,1.18667],[103.73111,1.18695],[103.73167,1.1875],[103.73194,1.18833],[103.72945,1.19083],[103.72872,1.19101]]],[[[103.72444,1.21056],[103.72334,1.21222],[103.72334,1.21306],[103.7225,1.21389],[103.71806,1.21195],[103.71639,1.21222],[103.71389,1.21139],[103.71105,1.2082],[103.70777,1.20621],[103.70698,1.20455],[103.70843,1.20363],[103.71648,1.20224],[103.72411,1.20298],[103.72688,1.20204],[103.73,1.20282],[103.73101,1.20356],[103.73265,1.20283],[103.73355,1.20321],[103.73361,1.20472],[103.73222,1.20583],[103.73196,1.20659],[103.73029,1.20764],[103.72807,1.20806],[103.72883,1.20924],[103.73022,1.20945],[103.73,1.21083],[103.72945,1.21139],[103.72833,1.21139],[103.72611,1.21],[103.72444,1.21056]]],[[[103.70972,1.2925],[103.70889,1.29361],[103.70695,1.29389],[103.70556,1.29195],[103.70389,1.29083],[103.70389,1.28972],[103.70528,1.28806],[103.70611,1.28611],[103.70695,1.28056],[103.70917,1.27889],[103.71056,1.27889],[103.7118,1.2782],[103.7104,1.27583],[103.70805,1.27528],[103.70695,1.27556],[103.70472,1.27806],[103.70417,1.28056],[103.70223,1.28278],[103.70223,1.28361],[103.70084,1.285],[103.69889,1.28583],[103.69639,1.28278],[103.69556,1.28278],[103.69444,1.28194],[103.69583,1.27917],[103.69527,1.2775],[103.69444,1.27667],[103.69473,1.27444],[103.69417,1.27389],[103.69417,1.27194],[103.6925,1.27194],[103.69167,1.27306],[103.69278,1.27444],[103.69305,1.27667],[103.69222,1.27778],[103.69111,1.27778],[103.68861,1.27528],[103.68806,1.27361],[103.68667,1.27333],[103.68584,1.2725],[103.68312,1.2756],[103.6887,1.28236],[103.68988,1.28294],[103.69081,1.28456],[103.69064,1.28727],[103.69361,1.29028],[103.69361,1.29195],[103.69444,1.29306],[103.69334,1.29389],[103.6925,1.29306],[103.69222,1.29139],[103.69167,1.29083],[103.68972,1.29056],[103.68778,1.29139],[103.68556,1.29],[103.68417,1.28836],[103.68337,1.28898],[103.65609,1.26984],[103.66668,1.2507],[103.66424,1.24866],[103.6736,1.24255],[103.67605,1.24459],[103.67931,1.24215],[103.67686,1.23278],[103.67849,1.22911],[103.6907,1.24052],[103.68582,1.25355],[103.68012,1.24459],[103.67727,1.24703],[103.68337,1.25803],[103.68012,1.2621],[103.68552,1.26699],[103.68639,1.26528],[103.6875,1.26445],[103.68861,1.26472],[103.68972,1.26333],[103.69139,1.26528],[103.69222,1.26528],[103.69278,1.26472],[103.69334,1.26361],[103.69334,1.25945],[103.69278,1.2575],[103.695,1.25417],[103.69527,1.25194],[103.69889,1.25083],[103.70028,1.25194],[103.70167,1.25139],[103.70277,1.25139],[103.70333,1.25194],[103.70361,1.25167],[103.70695,1.25472],[103.70917,1.25583],[103.71111,1.25556],[103.71361,1.25389],[103.71445,1.25444],[103.71417,1.25611],[103.71278,1.25806],[103.71306,1.25945],[103.70778,1.26111],[103.70611,1.26472],[103.705,1.26583],[103.70667,1.26861],[103.70834,1.26945],[103.70917,1.26917],[103.71234,1.26493],[103.71524,1.26401],[103.72067,1.26063],[103.72183,1.26049],[103.72488,1.26281],[103.72631,1.26525],[103.72662,1.26784],[103.72583,1.26889],[103.72505,1.26889],[103.72613,1.27105],[103.7284,1.27108],[103.73194,1.27],[103.73306,1.26889],[103.73389,1.26945],[103.73556,1.26806],[103.73972,1.2725],[103.73972,1.27444],[103.7375,1.27611],[103.73519,1.27872],[103.73415,1.27838],[103.73306,1.27861],[103.73028,1.28139],[103.72916,1.28167],[103.72806,1.28278],[103.72778,1.28389],[103.72704,1.2842],[103.72389,1.28855],[103.72334,1.29028],[103.7225,1.29028],[103.72213,1.28963],[103.71952,1.29121],[103.71445,1.29028],[103.71195,1.29278],[103.71139,1.2925],[103.71111,1.29139],[103.70972,1.2925]]],[[[103.79014,1.34873],[103.79166,1.34927],[103.7905,1.35111],[103.78366,1.35648],[103.78158,1.3591],[103.78064,1.36107],[103.77598,1.37983],[103.77445,1.39029],[103.76495,1.39077],[103.76221,1.39037],[103.7581,1.38903],[103.75332,1.389],[103.75199,1.39837],[103.75285,1.40282],[103.75265,1.40352],[103.75126,1.40487],[103.74556,1.40558],[103.74256,1.40721],[103.74155,1.40961],[103.74209,1.41399],[103.73999,1.42039],[103.73927,1.41795],[103.73279,1.41358],[103.73151,1.41146],[103.72973,1.40969],[103.73003,1.40678],[103.73138,1.40516],[103.73551,1.39771],[103.73583,1.39553],[103.73557,1.39274],[103.735,1.39167],[103.73389,1.39222],[103.73417,1.3925],[103.73361,1.39306],[103.73389,1.39389],[103.73347,1.39557],[103.73106,1.40086],[103.72987,1.40278],[103.72843,1.40334],[103.72752,1.40289],[103.72678,1.40122],[103.7269,1.39795],[103.72618,1.39563],[103.72472,1.39391],[103.72074,1.3915],[103.72012,1.3915],[103.71977,1.39275],[103.72206,1.39366],[103.72376,1.39518],[103.72441,1.39648],[103.72457,1.39731],[103.7237,1.39896],[103.72635,1.40668],[103.72622,1.40823],[103.72545,1.40941],[103.7246,1.40981],[103.72361,1.40941],[103.72269,1.41049],[103.71699,1.40919],[103.71616,1.41004],[103.71556,1.41217],[103.71445,1.41278],[103.71278,1.41194],[103.71166,1.40986],[103.71098,1.40986],[103.70972,1.41167],[103.70646,1.41167],[103.70563,1.41153],[103.70461,1.41062],[103.70417,1.41076],[103.70389,1.41111],[103.70438,1.41236],[103.70503,1.4125],[103.70098,1.4168],[103.70157,1.41805],[103.69866,1.41869],[103.70011,1.42319],[103.69701,1.42432],[103.69713,1.42611],[103.69579,1.42774],[103.69504,1.43152],[103.69433,1.43243],[103.69339,1.43263],[103.69302,1.43367],[103.68872,1.43316],[103.68581,1.43144],[103.68278,1.43111],[103.68083,1.42917],[103.67778,1.42889],[103.674,1.4244],[103.67174,1.41726],[103.67136,1.41449],[103.67063,1.41349],[103.66993,1.41101],[103.66782,1.4091],[103.66694,1.40944],[103.66547,1.40916],[103.66443,1.40718],[103.66256,1.40514],[103.66288,1.40226],[103.6625,1.40056],[103.66055,1.39806],[103.66222,1.39639],[103.66222,1.3925],[103.66082,1.38883],[103.65694,1.38278],[103.65722,1.38167],[103.65936,1.38329],[103.66085,1.38206],[103.66252,1.38172],[103.66581,1.38273],[103.67223,1.38306],[103.67306,1.38222],[103.67333,1.38056],[103.67389,1.38],[103.67713,1.3793],[103.67706,1.37837],[103.67434,1.3789],[103.67344,1.37864],[103.67306,1.37722],[103.67139,1.37528],[103.67167,1.37389],[103.67333,1.37222],[103.67416,1.37056],[103.67445,1.36945],[103.67389,1.3675],[103.6725,1.36639],[103.67083,1.36722],[103.67,1.37139],[103.66889,1.37278],[103.66722,1.37306],[103.66639,1.3725],[103.6576,1.37196],[103.65524,1.37266],[103.65409,1.36996],[103.65235,1.3677],[103.65444,1.36194],[103.65417,1.36167],[103.6525,1.36278],[103.65139,1.36274],[103.64605,1.36096],[103.64533,1.36112],[103.64446,1.35811],[103.64172,1.35685],[103.64121,1.35622],[103.645,1.35044],[103.65246,1.344],[103.6531,1.33967],[103.65392,1.33833],[103.65585,1.33882],[103.65633,1.33843],[103.6563,1.33724],[103.65513,1.33618],[103.65331,1.33561],[103.65142,1.33614],[103.64989,1.33879],[103.65075,1.34141],[103.65028,1.3425],[103.64653,1.34317],[103.6451,1.3439],[103.64319,1.34649],[103.63944,1.34861],[103.63834,1.34972],[103.63858,1.35087],[103.6375,1.35222],[103.63556,1.35139],[103.63361,1.35139],[103.63306,1.35083],[103.63413,1.34837],[103.63445,1.34611],[103.63277,1.34333],[103.63277,1.3425],[103.63416,1.34111],[103.63408,1.33939],[103.63229,1.33531],[103.63073,1.32906],[103.62794,1.32398],[103.62827,1.32241],[103.62801,1.32165],[103.62102,1.30524],[103.62047,1.30145],[103.61889,1.29833],[103.61694,1.29646],[103.61667,1.29556],[103.61694,1.29195],[103.62203,1.28727],[103.61496,1.2678],[103.61862,1.2621],[103.61902,1.26226],[103.61851,1.25961],[103.61112,1.25104],[103.6129,1.23834],[103.61585,1.23627],[103.61762,1.22918],[103.61083,1.22712],[103.60906,1.21914],[103.62206,1.22357],[103.61821,1.23657],[103.62206,1.23775],[103.61556,1.25311],[103.62117,1.25754],[103.62146,1.26197],[103.63858,1.27025],[103.64243,1.28599],[103.64697,1.2859],[103.64773,1.28693],[103.64846,1.28955],[103.64732,1.29097],[103.64127,1.29308],[103.63927,1.29485],[103.63547,1.29627],[103.63381,1.29803],[103.63509,1.29967],[103.63506,1.30117],[103.63564,1.30285],[103.63639,1.30361],[103.63639,1.305],[103.63722,1.30639],[103.63815,1.30686],[103.63892,1.30447],[103.64294,1.30551],[103.64329,1.30836],[103.64474,1.31018],[103.64472,1.31278],[103.64694,1.31278],[103.64833,1.31083],[103.6475,1.30945],[103.64528,1.30917],[103.64417,1.30778],[103.64417,1.30694],[103.65417,1.29722],[103.65556,1.29528],[103.65611,1.295],[103.65806,1.29611],[103.65861,1.29556],[103.6575,1.29361],[103.65806,1.29306],[103.65916,1.29361],[103.66055,1.29139],[103.66222,1.29139],[103.66306,1.29195],[103.66472,1.28945],[103.66722,1.28778],[103.67056,1.29111],[103.67111,1.29222],[103.67472,1.29222],[103.67555,1.29306],[103.67528,1.29528],[103.67278,1.29722],[103.67211,1.29913],[103.67025,1.30048],[103.66975,1.30154],[103.67028,1.30444],[103.67111,1.30583],[103.67194,1.30582],[103.67258,1.30516],[103.67253,1.30301],[103.67481,1.29991],[103.67746,1.29729],[103.67876,1.29669],[103.68111,1.29722],[103.68222,1.29833],[103.68181,1.30442],[103.68298,1.30358],[103.68368,1.29996],[103.68333,1.29917],[103.68528,1.29889],[103.68772,1.29941],[103.69094,1.29902],[103.69222,1.29972],[103.69417,1.29972],[103.69361,1.3025],[103.69473,1.30389],[103.69527,1.30333],[103.695,1.29944],[103.69583,1.29861],[103.69722,1.29861],[103.69917,1.29972],[103.69945,1.30111],[103.7,1.30167],[103.69972,1.30333],[103.70055,1.30389],[103.70333,1.30111],[103.70497,1.30139],[103.70722,1.30083],[103.70944,1.30222],[103.70917,1.305],[103.70944,1.30583],[103.71083,1.30667],[103.71167,1.30583],[103.71195,1.30167],[103.71361,1.30028],[103.71584,1.30028],[103.71861,1.29861],[103.72,1.29972],[103.72083,1.30139],[103.71694,1.30528],[103.71778,1.30611],[103.71833,1.30611],[103.72056,1.30361],[103.7264,1.30087],[103.72687,1.30123],[103.7269,1.30246],[103.72583,1.30444],[103.72417,1.30528],[103.72389,1.30694],[103.725,1.30861],[103.72591,1.31265],[103.7275,1.315],[103.72806,1.31667],[103.72972,1.31833],[103.73139,1.32222],[103.7325,1.3225],[103.73299,1.32201],[103.73222,1.31889],[103.72833,1.31361],[103.72715,1.31077],[103.72722,1.30722],[103.7275,1.30639],[103.72916,1.30472],[103.72945,1.30252],[103.73055,1.30049],[103.73159,1.30004],[103.73568,1.29994],[103.74139,1.29889],[103.74278,1.29806],[103.74389,1.29806],[103.74445,1.2975],[103.74639,1.29722],[103.75222,1.295],[103.75611,1.29556],[103.75723,1.29667],[103.75694,1.2975],[103.75806,1.29917],[103.76102,1.30103],[103.76233,1.30135],[103.76617,1.29303],[103.76737,1.29165],[103.76947,1.29472],[103.76987,1.30042],[103.77083,1.30242],[103.77216,1.31136],[103.77085,1.32127],[103.77267,1.32428],[103.77483,1.32539],[103.77564,1.32643],[103.76912,1.32999],[103.76813,1.33121],[103.76571,1.33168],[103.76482,1.3324],[103.76461,1.33282],[103.76564,1.33245],[103.7656,1.33578],[103.76533,1.33545],[103.7645,1.33661],[103.76415,1.33923],[103.76469,1.33958],[103.76512,1.34211],[103.7669,1.34222],[103.76714,1.34279],[103.76576,1.34369],[103.76537,1.34462],[103.7642,1.34502],[103.76318,1.34671],[103.76701,1.34724],[103.77039,1.34902],[103.77211,1.34634],[103.77584,1.3441],[103.77783,1.34186],[103.77947,1.34249],[103.78192,1.3425],[103.78738,1.34471],[103.7883,1.3457],[103.78623,1.34858],[103.78771,1.34937],[103.78777,1.34894],[103.78937,1.34907],[103.7894,1.34801],[103.79014,1.34873]]],[[[103.7525,1.22417],[103.75222,1.22361],[103.75305,1.22361],[103.75305,1.22611],[103.75139,1.22639],[103.7525,1.22417]]],[[[103.76417,1.24056],[103.76305,1.24111],[103.76111,1.24111],[103.75889,1.23889],[103.75916,1.2375],[103.76028,1.23583],[103.76028,1.235],[103.75945,1.23389],[103.75833,1.23472],[103.75777,1.23611],[103.75667,1.23722],[103.755,1.23694],[103.75417,1.23611],[103.75389,1.23222],[103.75611,1.22917],[103.75945,1.22639],[103.76153,1.22535],[103.76361,1.225],[103.76856,1.22588],[103.76994,1.22671],[103.77029,1.22887],[103.77209,1.22748],[103.77278,1.22556],[103.77389,1.22444],[103.77583,1.22444],[103.77861,1.22333],[103.77944,1.22444],[103.77889,1.22722],[103.76945,1.23722],[103.76778,1.23778],[103.76417,1.24056]]],[[[103.75083,1.23567],[103.75083,1.23833],[103.75139,1.23917],[103.75028,1.24083],[103.74973,1.24083],[103.74806,1.23945],[103.74639,1.24],[103.74445,1.23917],[103.74306,1.24],[103.74167,1.23889],[103.74167,1.23833],[103.74333,1.23722],[103.74306,1.23667],[103.74111,1.23556],[103.73944,1.23361],[103.74139,1.23167],[103.74278,1.23111],[103.74722,1.23139],[103.7475,1.23195],[103.74834,1.23195],[103.75,1.23333],[103.75083,1.23333],[103.75139,1.23472],[103.75083,1.23567]]],[[[103.72713,1.40481],[103.72817,1.40439],[103.72845,1.40544],[103.7281,1.40599],[103.72768,1.40613],[103.72713,1.40481]]],[[[103.65042,1.3702],[103.65183,1.36963],[103.65415,1.3716],[103.65447,1.37364],[103.65398,1.37476],[103.6533,1.37512],[103.65122,1.37436],[103.64972,1.3729],[103.64927,1.37131],[103.65042,1.3702]]],[[[103.65515,1.37887],[103.65459,1.37769],[103.65591,1.37831],[103.65653,1.37943],[103.65646,1.38075],[103.65591,1.38068],[103.65515,1.37887]]],[[[103.71028,1.4125],[103.71071,1.41293],[103.70954,1.4125],[103.71028,1.4125]]],[[[103.6844,1.43394],[103.68509,1.43373],[103.68585,1.43498],[103.6853,1.43519],[103.68419,1.43463],[103.6844,1.43394]]]]}}]}