{"type":"FeatureCollection","features":[{"type":"Feature","properties":{"gid":"ARE.1_1","name":"阿布扎比","nameEn":"Abu Dhabi","nameLocal":"إمارة أبوظبي","type":"Emirate","typeEn":"Emirate","groupZh":"酋长国","area":59650.0,"iso":"NA","engtype":"Emirate","capital":"阿布扎比","pop":2908000,"blurb":"首都兼最大酋长国，联邦政府中枢与石油财富所在，卢浮宫阿布扎比与总统府坐落于此。"},"geometry":{"type":"MultiPolygon","coordinates":[[[[54.18046,22.75176],[55.13734,22.63162],[55.2029,22.70406],[55.20918,22.70879],[55.21349,22.70215],[55.22072,22.76491],[55.22809,22.79153],[55.22367,22.81726],[55.22657,22.82512],[55.21822,22.85099],[55.22325,22.85928],[55.22564,22.8849],[55.21904,22.89851],[55.21364,22.93556],[55.22002,22.97834],[55.21658,23.02624],[55.23012,23.04791],[55.22563,23.07241],[55.23144,23.08532],[55.23247,23.11041],[55.29908,23.2069],[55.40167,23.39231],[55.4164,23.38198],[55.43068,23.39941],[55.44951,23.46004],[55.49828,23.53338],[55.52341,23.55485],[55.53743,23.58314],[55.56537,23.61483],[55.5726,23.62973],[55.56969,23.71847],[55.56235,23.73186],[55.53184,23.75949],[55.5359,23.77124],[55.53315,23.85212],[55.51962,23.88568],[55.50023,23.90584],[55.49854,23.92378],[55.48512,23.94432],[55.49478,23.95322],[55.57461,23.98745],[55.63335,24.02014],[55.7324,24.05786],[55.75835,24.05131],[55.78016,24.05529],[55.80186,24.02501],[55.83374,24.01375],[55.90259,24.04654],[55.95987,24.06053],[56.01813,24.06603],[56.01493,24.0899],[56.00027,24.1177],[55.97524,24.14618],[55.96128,24.17031],[55.97227,24.18509],[55.96329,24.21738],[55.95119,24.21407],[55.95525,24.22323],[55.87542,24.21591],[55.83341,24.20135],[55.80943,24.21098],[55.77683,24.23486],[55.753,24.23488],[55.75947,24.26107],[55.76793,24.26218],[55.7916,24.27935],[55.80798,24.31042],[55.82629,24.3222],[55.83444,24.33342],[55.8347,24.41001],[55.82788,24.41],[55.82093,24.44027],[55.78575,24.48619],[55.76534,24.52963],[55.76807,24.57239],[55.81683,24.61526],[55.79426,24.63687],[55.83712,24.67091],[55.82775,24.72534],[55.83212,24.78017],[55.82062,24.7946],[55.73771,24.75852],[55.73926,24.75345],[55.71613,24.74723],[55.696,24.7345],[55.5958,24.71198],[55.55294,24.66607],[55.52336,24.65056],[55.33456,24.62308],[55.20253,24.6576],[55.15665,24.70673],[55.02887,24.86092],[55.00888,24.87377],[54.89651,24.91099],[54.8788,24.90613],[54.87137,24.89726],[54.86661,24.89735],[54.87108,24.90168],[54.86028,24.89547],[54.85633,24.90003],[54.85931,24.89476],[54.8522,24.89517],[54.85655,24.89224],[54.85132,24.88907],[54.85327,24.88258],[54.8673,24.86853],[54.88898,24.8648],[54.89784,24.86016],[54.89436,24.8584],[54.89815,24.85531],[54.88807,24.84689],[54.89341,24.85537],[54.89153,24.86117],[54.86692,24.86764],[54.84248,24.89066],[54.84089,24.88229],[54.81194,24.85709],[54.80608,24.85784],[54.80702,24.86458],[54.80568,24.85547],[54.79407,24.8571],[54.79364,24.852],[54.77312,24.84449],[54.76802,24.84584],[54.7649,24.85455],[54.76193,24.8393],[54.77181,24.80691],[54.76473,24.79964],[54.75046,24.80004],[54.75042,24.79108],[54.76127,24.7847],[54.75775,24.77737],[54.74965,24.78966],[54.74841,24.80061],[54.73154,24.8016],[54.71337,24.81467],[54.70798,24.81416],[54.69737,24.79006],[54.65505,24.79375],[54.64582,24.80435],[54.66362,24.81773],[54.65971,24.82217],[54.63705,24.80508],[54.6474,24.79288],[54.69436,24.78553],[54.6795,24.77041],[54.68054,24.76667],[54.67775,24.7688],[54.6661,24.75796],[54.67558,24.75477],[54.67893,24.75897],[54.67712,24.75317],[54.66503,24.75674],[54.63758,24.73888],[54.64559,24.73447],[54.64065,24.73587],[54.64216,24.73255],[54.63426,24.72689],[54.63593,24.71928],[54.63765,24.72315],[54.64816,24.71751],[54.65534,24.70747],[54.66149,24.70748],[54.6651,24.71436],[54.66572,24.70293],[54.65214,24.70524],[54.65198,24.69986],[54.65274,24.70447],[54.65944,24.70462],[54.65467,24.69476],[54.66375,24.69226],[54.66553,24.68748],[54.65926,24.67819],[54.6832,24.66787],[54.68483,24.66272],[54.68111,24.65743],[54.66498,24.65294],[54.63718,24.6232],[54.63635,24.61348],[54.64654,24.59869],[54.64557,24.58606],[54.63273,24.5551],[54.61541,24.5461],[54.62893,24.53643],[54.61415,24.54573],[54.60085,24.54379],[54.60495,24.51797],[54.63223,24.51275],[54.63611,24.5002],[54.63346,24.48596],[54.61045,24.47547],[54.61012,24.44935],[54.52134,24.42399],[54.48635,24.42376],[54.49021,24.40644],[54.4797,24.39472],[54.49909,24.38925],[54.49284,24.38525],[54.50462,24.38531],[54.49981,24.39027],[54.51451,24.3923],[54.52173,24.38522],[54.46664,24.38155],[54.46676,24.36465],[54.4625,24.36435],[54.45688,24.34467],[54.46085,24.332],[54.45452,24.33425],[54.45037,24.32381],[54.45262,24.31665],[54.52534,24.31637],[54.52536,24.31253],[54.48952,24.31381],[54.48777,24.30399],[54.47758,24.30377],[54.47751,24.30889],[54.46938,24.30882],[54.47241,24.31312],[54.46428,24.31299],[54.46478,24.30361],[54.44767,24.30274],[54.41596,24.27207],[54.37902,24.25073],[54.36198,24.26172],[54.35753,24.25989],[54.35913,24.25179],[54.35206,24.25263],[54.33621,24.26564],[54.32559,24.26729],[54.31641,24.25516],[54.31619,24.252],[54.3246,24.25853],[54.31781,24.24713],[54.30271,24.24133],[54.29365,24.24615],[54.27008,24.24065],[54.26994,24.24782],[54.2494,24.24942],[54.23489,24.26057],[54.23486,24.2831],[54.24867,24.28465],[54.27352,24.27087],[54.29412,24.26761],[54.29179,24.28093],[54.28053,24.28976],[54.26481,24.31376],[54.244,24.32878],[54.23826,24.34163],[54.21745,24.35573],[54.19451,24.33947],[54.17178,24.33141],[54.16456,24.32104],[54.16477,24.31066],[54.17496,24.30199],[54.18962,24.30153],[54.22361,24.26034],[54.23413,24.26043],[54.24553,24.25093],[54.23583,24.24904],[54.21773,24.26347],[54.21475,24.25594],[54.19757,24.26933],[54.18762,24.26824],[54.15033,24.30633],[54.14946,24.32848],[54.13228,24.32323],[54.10461,24.30081],[54.08851,24.29559],[54.11188,24.26188],[54.13949,24.25337],[54.15402,24.23908],[54.14652,24.23441],[54.11827,24.25241],[54.11619,24.24993],[54.12858,24.24007],[54.11434,24.24556],[54.10584,24.25456],[54.10178,24.24994],[54.11505,24.23416],[54.09847,24.24457],[54.10017,24.2376],[54.11125,24.22997],[54.1162,24.23327],[54.13418,24.2306],[54.13773,24.22087],[54.12994,24.21762],[54.1429,24.20802],[54.15203,24.20957],[54.1516,24.21545],[54.14821,24.22025],[54.13849,24.22087],[54.139,24.22541],[54.14799,24.22487],[54.17263,24.20211],[54.18431,24.20211],[54.18495,24.19653],[54.1773,24.18988],[54.13694,24.17563],[54.12993,24.16061],[54.10338,24.14822],[54.09349,24.15106],[54.08416,24.14725],[54.07769,24.15391],[54.06589,24.14135],[54.05028,24.15534],[54.02607,24.15906],[54.05142,24.13526],[54.04271,24.12733],[54.0164,24.14401],[54.02383,24.12906],[53.97181,24.10972],[53.91356,24.09828],[53.90928,24.11728],[53.91529,24.07191],[53.83493,24.05924],[53.82432,24.06809],[53.8024,24.06124],[53.78834,24.06709],[53.78764,24.05647],[53.73956,24.05592],[53.70792,24.06659],[53.70585,24.07315],[53.70203,24.07027],[53.70592,24.06505],[53.70042,24.06086],[53.66497,24.04881],[53.61336,24.04308],[53.58766,24.04555],[53.57449,24.05159],[53.56982,24.06352],[53.55558,24.07575],[53.53605,24.09014],[53.52682,24.09118],[53.53538,24.09527],[53.51111,24.096],[53.4975,24.10298],[53.49293,24.09965],[53.49287,24.10703],[53.49121,24.10203],[53.47227,24.09765],[53.48132,24.10356],[53.46999,24.10251],[53.4639,24.11755],[53.44477,24.12659],[53.40855,24.10882],[53.40516,24.11473],[53.40504,24.1086],[53.36795,24.11117],[53.34948,24.10014],[53.33849,24.10172],[53.31421,24.11796],[53.31527,24.11443],[53.31074,24.11478],[53.32227,24.11124],[53.31981,24.10006],[53.28668,24.08071],[53.27627,24.08969],[53.2289,24.10099],[53.2015,24.14792],[53.19152,24.14838],[53.16879,24.16309],[53.1399,24.17161],[53.13141,24.15876],[53.13523,24.14652],[53.12992,24.13522],[53.10634,24.13708],[53.05048,24.11911],[53.03859,24.12144],[53.0316,24.12811],[53.04743,24.12442],[53.043,24.12874],[53.00205,24.14172],[52.9789,24.15504],[52.95851,24.13893],[52.93684,24.13181],[52.92581,24.1342],[52.91742,24.14436],[52.8761,24.13107],[52.85691,24.13028],[52.84029,24.14623],[52.77349,24.12588],[52.7583,24.13011],[52.74347,24.14338],[52.73923,24.14151],[52.74348,24.14382],[52.73876,24.14165],[52.74205,24.14477],[52.73401,24.1541],[52.73475,24.14277],[52.72886,24.14082],[52.69009,24.14578],[52.69361,24.15239],[52.67564,24.14476],[52.6699,24.12837],[52.66911,24.1404],[52.66018,24.15566],[52.63494,24.17154],[52.63303,24.18159],[52.62607,24.18811],[52.6298,24.19178],[52.62035,24.19048],[52.59302,24.19956],[52.56951,24.18564],[52.56964,24.18059],[52.56545,24.18198],[52.56133,24.14874],[52.56542,24.14856],[52.55947,24.14156],[52.56537,24.14066],[52.56577,24.1446],[52.57218,24.14005],[52.56175,24.1313],[52.52379,24.11726],[52.50195,24.10322],[52.4755,24.09883],[52.46563,24.09126],[52.45595,24.09212],[52.45662,24.07853],[52.44313,24.06465],[52.41457,24.05035],[52.37157,24.03714],[52.33015,24.01276],[52.31692,23.99764],[52.28406,23.98499],[52.2112,23.96438],[52.18403,23.96111],[52.1405,23.95936],[52.09686,23.97133],[52.1054,23.9594],[52.09646,23.95525],[52.10033,23.95547],[52.0982,23.94046],[52.09442,23.93992],[52.09072,23.94582],[52.06537,23.95496],[52.04536,23.95292],[52.02273,23.99043],[52.01897,23.98947],[52.02569,23.97686],[52.01803,23.97447],[52.01018,23.97868],[52.01487,23.98244],[51.98984,23.98121],[51.9616,23.98633],[51.95541,24.00355],[51.95564,23.99668],[51.94916,23.99465],[51.95429,23.99496],[51.95424,23.99069],[51.93322,23.99095],[51.92718,23.98388],[51.93962,23.95942],[51.93182,23.95163],[51.92305,23.95318],[51.9248,23.96348],[51.921,23.96904],[51.90727,23.97306],[51.88384,23.96981],[51.87632,23.96272],[51.87665,23.96759],[51.86916,23.97012],[51.87454,23.98025],[51.82954,23.98719],[51.8002,24.00756],[51.78387,24.03253],[51.78059,24.0561],[51.78458,24.06908],[51.79105,24.06766],[51.78452,24.07349],[51.78743,24.0818],[51.77932,24.11785],[51.76909,24.13525],[51.76404,24.15839],[51.76893,24.1656],[51.7681,24.18293],[51.77769,24.19307],[51.77332,24.21529],[51.78193,24.22639],[51.77474,24.24022],[51.78152,24.26341],[51.77552,24.27349],[51.74179,24.29312],[51.74444,24.2849],[51.71552,24.24831],[51.72173,24.21874],[51.704,24.20858],[51.69205,24.21612],[51.68837,24.25036],[51.67484,24.27585],[51.66997,24.27633],[51.67104,24.29234],[51.66128,24.30436],[51.6546,24.32622],[51.65153,24.32116],[51.65453,24.30995],[51.64968,24.30903],[51.65833,24.30363],[51.6596,24.29335],[51.66704,24.28746],[51.66756,24.26424],[51.67314,24.24804],[51.65673,24.21665],[51.64567,24.20523],[51.63292,24.20381],[51.6306,24.21029],[51.6377,24.21364],[51.62705,24.27718],[51.6331,24.28714],[51.63192,24.29775],[51.64055,24.29907],[51.6317,24.30253],[51.6371,24.31517],[51.62901,24.32274],[51.63121,24.33242],[51.62163,24.35081],[51.6092,24.35638],[51.5975,24.37974],[51.57362,24.38494],[51.59546,24.37993],[51.58948,24.37549],[51.59192,24.36756],[51.58228,24.36198],[51.58558,24.35428],[51.59241,24.35374],[51.59586,24.34316],[51.59112,24.33167],[51.5931,24.30977],[51.59733,24.30825],[51.59919,24.28725],[51.60457,24.28135],[51.59726,24.27113],[51.59892,24.26169],[51.59525,24.25952],[51.59909,24.2588],[51.59123,24.25389],[51.59218,24.26823],[51.58902,24.25454],[51.59038,24.12697],[51.92023,23.73766],[52.58104,22.9392],[54.18046,22.75176]],[[54.38503,24.2696],[54.43274,24.29735],[54.44898,24.31765],[54.45139,24.31148],[54.43489,24.28986],[54.41485,24.27405],[54.38926,24.26233],[54.38503,24.2696]]],[[[53.25923,24.12515],[53.26147,24.11475],[53.29248,24.10985],[53.27924,24.13708],[53.25923,24.12515]]],[[[54.07246,24.18484],[54.0697,24.19908],[54.05717,24.19722],[54.04145,24.20311],[54.04293,24.19831],[54.0287,24.19877],[54.01681,24.18669],[54.02722,24.17632],[54.04421,24.17895],[54.05653,24.16703],[54.05207,24.16532],[54.05504,24.16378],[54.06672,24.16486],[54.07628,24.1726],[54.07968,24.17694],[54.07246,24.18484]]],[[[54.06453,24.20254],[54.07494,24.19681],[54.08195,24.17792],[54.09851,24.18303],[54.10064,24.19092],[54.09235,24.20145],[54.06092,24.21044],[54.06453,24.20254]]],[[[53.53434,24.20428],[53.53286,24.19267],[53.54433,24.18477],[53.54029,24.20118],[53.53434,24.20428]]],[[[53.87186,24.26343],[53.87823,24.2608],[53.86443,24.27211],[53.84998,24.27474],[53.84573,24.26436],[53.83533,24.25678],[53.83554,24.24826],[53.8264,24.25012],[53.81621,24.24191],[53.81069,24.22611],[53.8177,24.25089],[53.80453,24.24919],[53.77798,24.23092],[53.73167,24.23881],[53.73103,24.2337],[53.70236,24.21744],[53.67602,24.19561],[53.63418,24.18028],[53.62313,24.16727],[53.64225,24.14776],[53.68367,24.16108],[53.68791,24.15457],[53.70554,24.14822],[53.7304,24.13057],[53.76693,24.12871],[53.77776,24.12143],[53.7852,24.12917],[53.81281,24.12964],[53.83299,24.138],[53.83256,24.16789],[53.83724,24.17486],[53.8349,24.1809],[53.84085,24.18415],[53.85041,24.18167],[53.86655,24.15829],[53.85317,24.15178],[53.90478,24.13397],[53.9082,24.11979],[53.92698,24.12663],[53.92444,24.1309],[53.93044,24.12932],[53.95194,24.138],[53.96574,24.14884],[53.96086,24.16464],[53.97212,24.18182],[53.95257,24.20397],[53.93558,24.21326],[53.90521,24.2128],[53.87483,24.22534],[53.85635,24.25337],[53.85954,24.26266],[53.87186,24.26343]]],[[[53.41051,24.19592],[53.43218,24.19437],[53.42448,24.19894],[53.42165,24.22011],[53.40257,24.2236],[53.38349,24.21778],[53.38349,24.20568],[53.40329,24.19313],[53.41051,24.19592]]],[[[54.1022,24.21915],[54.09583,24.23061],[54.07212,24.22976],[54.07169,24.22178],[54.10178,24.20211],[54.10943,24.19111],[54.1279,24.19638],[54.12727,24.20149],[54.11517,24.20877],[54.11857,24.21248],[54.1022,24.21915]]],[[[53.39545,24.24554],[53.38994,24.24727],[53.39583,24.23513],[53.39969,24.23553],[53.39545,24.24554]]],[[[53.34934,24.30215],[53.34084,24.31408],[53.33253,24.31738],[53.30507,24.31575],[53.25644,24.30388],[53.23655,24.29441],[53.22642,24.2955],[53.22456,24.29062],[53.22898,24.28736],[53.22595,24.28271],[53.24108,24.27759],[53.2462,24.26781],[53.26395,24.26824],[53.2716,24.28543],[53.28583,24.29116],[53.31438,24.28131],[53.32485,24.26432],[53.33276,24.26107],[53.32916,24.28527],[53.33702,24.30835],[53.34934,24.30215]]],[[[52.44601,24.11202],[52.44695,24.11891],[52.43936,24.12248],[52.43128,24.11581],[52.43456,24.10478],[52.44819,24.09727],[52.44363,24.10719],[52.44601,24.11202]]],[[[51.985,24.15179],[51.98174,24.15861],[51.98057,24.15359],[51.985,24.15179]]],[[[52.00149,24.15847],[52.00416,24.16009],[51.99672,24.15777],[52.00149,24.15847]]],[[[53.01267,24.15783],[53.01034,24.16232],[53.00927,24.15473],[53.01883,24.14404],[53.0303,24.14203],[53.01267,24.15783]]],[[[53.0378,24.15676],[53.06271,24.16216],[53.03114,24.15908],[53.0378,24.15676]]],[[[52.81545,24.17827],[52.81892,24.17621],[52.81213,24.1803],[52.8103,24.17651],[52.8235,24.16894],[52.82537,24.17151],[52.81545,24.17827]]],[[[52.94632,24.19852],[52.9404,24.20291],[52.94567,24.19203],[52.95351,24.18941],[52.94632,24.19852]]],[[[52.78816,24.19933],[52.79256,24.20389],[52.78144,24.19876],[52.78816,24.19933]]],[[[51.999,24.20433],[51.99351,24.20771],[51.98628,24.17195],[52.00119,24.1648],[51.999,24.20433]]],[[[51.86556,24.21475],[51.86669,24.22035],[51.86167,24.21747],[51.85973,24.20694],[51.86556,24.21475]]],[[[52.02167,24.25088],[52.01312,24.2562],[52.0007,24.2419],[52.00085,24.22608],[51.99596,24.21667],[52.00854,24.2084],[52.02349,24.22639],[52.02609,24.24442],[52.02167,24.25088]]],[[[52.59804,24.257],[52.59877,24.26147],[52.59055,24.26884],[52.58785,24.26167],[52.59246,24.26351],[52.59268,24.25908],[52.58759,24.26041],[52.58616,24.2539],[52.59258,24.2495],[52.60718,24.25503],[52.60804,24.26667],[52.59804,24.257]]],[[[52.88392,24.29927],[52.87987,24.30668],[52.8748,24.30616],[52.88153,24.29523],[52.88392,24.29927]]],[[[52.63791,24.35691],[52.62984,24.36873],[52.61251,24.37205],[52.59031,24.36486],[52.59846,24.36666],[52.59853,24.36113],[52.59168,24.35816],[52.57898,24.36407],[52.56122,24.34999],[52.55295,24.30187],[52.58248,24.26136],[52.58957,24.26977],[52.57371,24.28737],[52.59897,24.26224],[52.60638,24.26613],[52.60857,24.27562],[52.61602,24.28223],[52.62331,24.28211],[52.621,24.27589],[52.61297,24.27622],[52.62328,24.27382],[52.62991,24.29152],[52.62679,24.2934],[52.61924,24.28636],[52.63344,24.30137],[52.63077,24.29315],[52.64188,24.30332],[52.64679,24.33662],[52.64923,24.31201],[52.64961,24.33183],[52.63791,24.35691]]],[[[52.84836,24.36116],[52.8486,24.36476],[52.84243,24.35947],[52.84836,24.36116]]],[[[51.68585,24.27328],[51.68956,24.27032],[51.68889,24.27526],[51.68585,24.27328]]],[[[54.27918,24.33621],[54.26881,24.33784],[54.2748,24.32785],[54.28951,24.31827],[54.28826,24.32964],[54.27918,24.33621]]],[[[54.43706,24.33754],[54.43811,24.33249],[54.44721,24.33063],[54.45219,24.34864],[54.44404,24.35104],[54.43706,24.33754]]],[[[54.29243,24.35077],[54.28782,24.34684],[54.29476,24.34442],[54.29243,24.35077]]],[[[53.18855,24.30943],[53.18897,24.29302],[53.1981,24.28574],[53.21127,24.28527],[53.21616,24.29874],[53.20363,24.30246],[53.19662,24.31361],[53.18855,24.30943]]],[[[53.76839,24.29556],[53.77655,24.29625],[53.76827,24.30327],[53.76356,24.29625],[53.76839,24.29556]]],[[[53.78461,24.29876],[53.78747,24.29487],[53.80782,24.29775],[53.81217,24.30494],[53.80793,24.31718],[53.79171,24.31368],[53.78609,24.30798],[53.7931,24.30166],[53.78461,24.29876]]],[[[53.09041,24.31903],[53.10252,24.31284],[53.09679,24.32043],[53.09254,24.34412],[53.07703,24.337],[53.07427,24.32817],[53.07916,24.32166],[53.09041,24.31903]]],[[[54.31048,24.39258],[54.30942,24.39614],[54.29263,24.39786],[54.28903,24.38509],[54.31453,24.36925],[54.31041,24.36068],[54.31139,24.36748],[54.29667,24.37849],[54.29221,24.3723],[54.29944,24.363],[54.3005,24.33095],[54.31475,24.30964],[54.31493,24.31792],[54.32589,24.3234],[54.33123,24.34197],[54.35336,24.3526],[54.31048,24.39258]]],[[[54.41921,24.35053],[54.42049,24.35656],[54.39861,24.36406],[54.40442,24.35307],[54.4153,24.34766],[54.41921,24.35053]]],[[[54.2853,24.36409],[54.28816,24.36309],[54.28499,24.37106],[54.2745,24.3746],[54.27756,24.36626],[54.2853,24.36409]]],[[[54.34471,24.37113],[54.34911,24.3829],[54.33983,24.37434],[54.34471,24.37113]]],[[[54.37707,24.37172],[54.38195,24.37017],[54.3873,24.37707],[54.3829,24.38445],[54.36969,24.37696],[54.37005,24.37089],[54.37707,24.37172]]],[[[54.25648,24.41053],[54.26007,24.41423],[54.24187,24.41302],[54.21787,24.38948],[54.19663,24.38252],[54.1892,24.3692],[54.19472,24.3644],[54.19621,24.37384],[54.20598,24.37756],[54.2321,24.36873],[54.25738,24.35263],[54.26562,24.35659],[54.24268,24.38431],[54.24459,24.39717],[54.2552,24.40344],[54.25648,24.41053]]],[[[54.32904,24.38426],[54.32511,24.38315],[54.32304,24.39037],[54.32546,24.38224],[54.3354,24.37689],[54.32778,24.38103],[54.33318,24.38133],[54.33212,24.38562],[54.32904,24.38426]]],[[[54.4583,24.38972],[54.41883,24.40388],[54.39833,24.3956],[54.44091,24.3726],[54.45893,24.36949],[54.46184,24.38022],[54.4583,24.38972]]],[[[54.47788,24.38948],[54.48143,24.39117],[54.47746,24.39428],[54.47242,24.38957],[54.47788,24.38948]]],[[[54.45267,24.4423],[54.44304,24.44643],[54.42265,24.44396],[54.40838,24.44964],[54.39885,24.46445],[54.40525,24.46178],[54.41192,24.47013],[54.40667,24.46968],[54.4038,24.47761],[54.3941,24.48196],[54.38046,24.50126],[54.38854,24.50652],[54.3866,24.51123],[54.39954,24.51948],[54.39042,24.53227],[54.38938,24.52641],[54.3963,24.51889],[54.39218,24.51607],[54.37642,24.52708],[54.38673,24.53581],[54.38391,24.54086],[54.35899,24.53604],[54.36285,24.52404],[54.35999,24.51734],[54.36651,24.51202],[54.37358,24.5171],[54.36943,24.50893],[54.37631,24.51263],[54.3517,24.49162],[54.34296,24.47533],[54.3239,24.46458],[54.32261,24.47028],[54.33397,24.47865],[54.32535,24.47433],[54.3284,24.47835],[54.32089,24.47865],[54.32061,24.48221],[54.31663,24.47522],[54.31326,24.4783],[54.31574,24.48476],[54.31095,24.47749],[54.3216,24.46889],[54.31346,24.46328],[54.3121,24.46923],[54.30336,24.46442],[54.30266,24.46767],[54.30015,24.45916],[54.30914,24.45097],[54.32185,24.45763],[54.32685,24.45652],[54.32199,24.45449],[54.33854,24.45415],[54.32973,24.44892],[54.33853,24.44801],[54.33919,24.45401],[54.34542,24.4533],[54.34759,24.45079],[54.34199,24.44942],[54.36689,24.43013],[54.39772,24.41945],[54.39735,24.42557],[54.38076,24.43037],[54.39556,24.42752],[54.39934,24.41831],[54.4092,24.41908],[54.45083,24.40166],[54.45347,24.40836],[54.42099,24.41969],[54.44841,24.41238],[54.46657,24.40611],[54.45659,24.40721],[54.45411,24.40089],[54.4676,24.39601],[54.47908,24.39999],[54.48748,24.41172],[54.48343,24.42467],[54.46959,24.43313],[54.46409,24.44567],[54.45267,24.4423]]],[[[54.51868,24.45591],[54.5027,24.46257],[54.49816,24.45847],[54.50329,24.44313],[54.49543,24.4425],[54.49366,24.44731],[54.487,24.44236],[54.48296,24.44318],[54.48814,24.45577],[54.48359,24.45702],[54.47473,24.44296],[54.4767,24.43753],[54.47996,24.43351],[54.49658,24.43212],[54.49727,24.42589],[54.51201,24.4254],[54.53923,24.43751],[54.53834,24.44975],[54.51868,24.45591]]],[[[54.50146,24.47817],[54.4918,24.47917],[54.49376,24.46967],[54.53539,24.45408],[54.54451,24.43958],[54.56745,24.4464],[54.56629,24.45412],[54.55822,24.46171],[54.50146,24.47817]]],[[[54.45719,24.47122],[54.46526,24.46044],[54.47235,24.46691],[54.47056,24.47296],[54.45377,24.47791],[54.45719,24.47122]]],[[[54.48072,24.4828],[54.4735,24.48458],[54.47329,24.47768],[54.48551,24.47409],[54.48072,24.4828]]],[[[54.54133,24.48646],[54.54504,24.48781],[54.53818,24.4957],[54.57203,24.49805],[54.58746,24.47716],[54.58439,24.46948],[54.56771,24.4572],[54.57016,24.45309],[54.58899,24.45813],[54.5924,24.45221],[54.59421,24.45629],[54.60818,24.45793],[54.6092,24.47574],[54.6314,24.48541],[54.63435,24.4906],[54.63046,24.51007],[54.60182,24.51651],[54.60198,24.52287],[54.59239,24.51113],[54.58103,24.5072],[54.49286,24.53024],[54.47873,24.54511],[54.45979,24.5495],[54.46555,24.5266],[54.48226,24.52729],[54.48818,24.51687],[54.49529,24.5141],[54.4994,24.50273],[54.51416,24.49024],[54.51717,24.4916],[54.51053,24.51167],[54.49984,24.52682],[54.52727,24.51836],[54.54356,24.50602],[54.57005,24.49901],[54.5222,24.4951],[54.53283,24.47675],[54.53375,24.48425],[54.54133,24.48646]]],[[[54.51223,24.54683],[54.50927,24.54655],[54.51563,24.54265],[54.51548,24.53022],[54.52004,24.52654],[54.53709,24.53678],[54.53295,24.54386],[54.52233,24.54551],[54.51747,24.54098],[54.51223,24.54683]]],[[[54.49623,24.56021],[54.49715,24.55452],[54.49703,24.5669],[54.49623,24.56021]]],[[[54.63495,24.61444],[54.63607,24.62183],[54.63187,24.62421],[54.6171,24.62091],[54.61991,24.61652],[54.61648,24.60236],[54.63684,24.60611],[54.63553,24.60207],[54.64145,24.59703],[54.63736,24.58572],[54.63065,24.58797],[54.63513,24.58298],[54.63097,24.56441],[54.62447,24.55953],[54.6129,24.56659],[54.62478,24.55849],[54.61245,24.55027],[54.61262,24.54626],[54.63205,24.55559],[54.64406,24.58422],[54.64541,24.59837],[54.63495,24.61444]]],[[[54.52561,24.57723],[54.51497,24.57827],[54.52517,24.56314],[54.53778,24.55654],[54.55102,24.5642],[54.57133,24.55744],[54.5696,24.56067],[54.57373,24.56132],[54.56935,24.56718],[54.58238,24.56401],[54.59108,24.56781],[54.55715,24.56885],[54.55247,24.57394],[54.53491,24.57308],[54.52561,24.57723]]],[[[54.49054,24.57096],[54.47682,24.57526],[54.47819,24.58342],[54.469,24.56699],[54.47367,24.56399],[54.47397,24.5698],[54.48981,24.56747],[54.49329,24.5717],[54.48648,24.57839],[54.49054,24.57096]]],[[[54.5168,24.59748],[54.51904,24.59961],[54.51444,24.6011],[54.5168,24.59748]]],[[[54.49079,24.60845],[54.49149,24.61205],[54.48595,24.61135],[54.49079,24.60845]]],[[[54.59864,24.63897],[54.6074,24.63125],[54.59946,24.64274],[54.59864,24.63897]]],[[[54.65754,24.65386],[54.65623,24.64978],[54.65218,24.6545],[54.64425,24.65397],[54.63492,24.64249],[54.62618,24.64907],[54.63373,24.64159],[54.6532,24.64049],[54.66305,24.65205],[54.65754,24.65386]]],[[[54.4815,24.61574],[54.47186,24.61914],[54.47721,24.6112],[54.4815,24.61574]]],[[[54.556,24.63785],[54.53217,24.6376],[54.52507,24.61907],[54.51236,24.61236],[54.50325,24.61667],[54.50003,24.6103],[54.51349,24.6102],[54.52325,24.60425],[54.53357,24.6122],[54.54261,24.61305],[54.55848,24.60637],[54.56083,24.61027],[54.55263,24.62901],[54.556,24.63785]]],[[[54.59192,24.64582],[54.58854,24.64569],[54.59254,24.63149],[54.59563,24.64088],[54.59192,24.64582]]],[[[54.59999,24.64894],[54.6035,24.65258],[54.61,24.64868],[54.60311,24.65622],[54.59127,24.64959],[54.59755,24.64562],[54.59999,24.64894]]],[[[54.60834,24.68087],[54.61552,24.68165],[54.6145,24.68593],[54.57947,24.66451],[54.55614,24.64041],[54.57417,24.64401],[54.58093,24.66005],[54.59126,24.66086],[54.59126,24.66677],[54.60099,24.67395],[54.61242,24.66294],[54.60676,24.6721],[54.61683,24.67718],[54.60834,24.68087]]],[[[54.61644,24.65743],[54.62117,24.65563],[54.62092,24.66181],[54.61644,24.65743]]],[[[54.62077,24.66444],[54.62334,24.67599],[54.61723,24.66353],[54.62077,24.66444]]],[[[54.65295,24.67947],[54.63955,24.67606],[54.64018,24.66968],[54.64408,24.67435],[54.64806,24.67236],[54.64372,24.67078],[54.64333,24.66221],[54.65435,24.66006],[54.65574,24.67393],[54.66072,24.67426],[54.66456,24.66642],[54.66929,24.67026],[54.66089,24.67114],[54.66202,24.67442],[54.65251,24.67621],[54.65295,24.67947]]],[[[54.75998,24.84609],[54.75391,24.87238],[54.75605,24.84993],[54.73779,24.84412],[54.70621,24.81515],[54.71419,24.81568],[54.73608,24.80287],[54.76638,24.80173],[54.7703,24.80975],[54.76258,24.8245],[54.74694,24.83348],[54.7599,24.82925],[54.7619,24.83623],[54.7426,24.83828],[54.73028,24.82897],[54.73793,24.8431],[54.75266,24.84141],[54.75998,24.84609]]],[[[52.7707,24.38867],[52.76103,24.39633],[52.76127,24.39169],[52.76617,24.38997],[52.76158,24.39564],[52.77366,24.38602],[52.7707,24.38867]]],[[[51.50271,24.39602],[51.50424,24.40059],[51.49999,24.39867],[51.50325,24.38954],[51.50271,24.39602]]],[[[51.71857,24.40041],[51.71785,24.40528],[51.71622,24.39317],[51.71857,24.40041]]],[[[51.57051,24.41641],[51.56227,24.41869],[51.56652,24.41602],[51.56571,24.40222],[51.57051,24.41641]]],[[[51.55778,24.41766],[51.54578,24.42406],[51.53195,24.40585],[51.53549,24.40128],[51.53819,24.40642],[51.54914,24.40944],[51.55446,24.40231],[51.56359,24.40038],[51.55257,24.40951],[51.55322,24.41739],[51.55778,24.41766]]],[[[51.54956,24.43519],[51.54888,24.44028],[51.53982,24.43706],[51.5436,24.43192],[51.54956,24.43519]]],[[[54.34947,24.39944],[54.34364,24.40801],[54.33722,24.4042],[54.35304,24.38897],[54.34947,24.39944]]],[[[54.38601,24.41482],[54.36374,24.42258],[54.34029,24.44123],[54.32832,24.44269],[54.32726,24.44748],[54.323,24.44547],[54.32891,24.4168],[54.34408,24.41567],[54.39653,24.39618],[54.41706,24.40446],[54.38601,24.41482]]],[[[54.28445,24.44601],[54.27927,24.44786],[54.27137,24.44301],[54.27387,24.43357],[54.27145,24.44149],[54.28445,24.44601]]],[[[54.40678,24.45404],[54.41253,24.44842],[54.41002,24.46431],[54.40414,24.45951],[54.40678,24.45404]]],[[[54.43079,24.46759],[54.42234,24.47102],[54.41004,24.46755],[54.41332,24.44817],[54.42327,24.44462],[54.44475,24.44692],[54.44502,24.45543],[54.43079,24.46759]]],[[[54.29606,24.45438],[54.29203,24.47286],[54.29971,24.47749],[54.29171,24.4732],[54.2856,24.44051],[54.29348,24.4469],[54.28983,24.45908],[54.29481,24.44862],[54.3015,24.44835],[54.29606,24.45438]]],[[[54.20793,24.36917],[54.20002,24.36792],[54.20835,24.37322],[54.19618,24.37057],[54.2043,24.36574],[54.20793,24.36917]]],[[[53.37106,24.4663],[53.33551,24.50042],[53.33408,24.52041],[53.34408,24.53151],[53.32695,24.58662],[53.32295,24.58919],[53.31353,24.58334],[53.31438,24.56606],[53.31096,24.56506],[53.31024,24.58105],[53.30267,24.57934],[53.30981,24.56378],[53.31638,24.56521],[53.31424,24.58177],[53.3258,24.58505],[53.3429,24.53215],[53.33351,24.52098],[53.33451,24.49942],[53.37063,24.46515],[53.37277,24.45373],[53.3762,24.46515],[53.37106,24.4663]]],[[[53.33708,24.5899],[53.33109,24.58748],[53.35022,24.58705],[53.33708,24.5899]]],[[[54.45199,24.49014],[54.43367,24.49532],[54.44136,24.48568],[54.47047,24.47847],[54.46697,24.48631],[54.45199,24.49014]]],[[[54.41207,24.50917],[54.40478,24.51258],[54.40214,24.50652],[54.39548,24.50955],[54.39219,24.49061],[54.41474,24.47234],[54.42188,24.4781],[54.41977,24.49218],[54.41352,24.49935],[54.41668,24.50604],[54.41207,24.50917]]],[[[51.73698,24.49391],[51.72892,24.49507],[51.7332,24.48081],[51.73698,24.49391]]],[[[51.71429,24.57901],[51.70906,24.58138],[51.71475,24.57497],[51.71429,24.57901]]],[[[51.73225,24.5882],[51.72329,24.60069],[51.71347,24.59557],[51.7122,24.58221],[51.71601,24.59277],[51.71875,24.58811],[51.72046,24.59113],[51.71842,24.56889],[51.72968,24.57914],[51.73225,24.5882]]],[[[51.83322,24.65932],[51.83629,24.6663],[51.83087,24.6613],[51.83322,24.65932]]],[[[52.65326,24.40772],[52.65166,24.41648],[52.64623,24.41737],[52.65326,24.40772]]],[[[52.34034,24.50022],[52.3334,24.53077],[52.30681,24.54321],[52.2921,24.52979],[52.28106,24.50941],[52.28953,24.48826],[52.29936,24.48436],[52.30182,24.47712],[52.30903,24.47829],[52.30525,24.47708],[52.31146,24.46755],[52.31011,24.44746],[52.31342,24.44835],[52.30883,24.4461],[52.30878,24.42402],[52.3044,24.42404],[52.30356,24.41915],[52.31395,24.41946],[52.31731,24.47262],[52.32216,24.47118],[52.3241,24.48009],[52.33267,24.48535],[52.32924,24.48831],[52.33153,24.49332],[52.34034,24.49279],[52.34034,24.50022]]],[[[52.54899,24.80141],[52.54751,24.79274],[52.55536,24.78035],[52.56237,24.77756],[52.56853,24.79584],[52.55536,24.80311],[52.54899,24.80141]]],[[[52.85398,24.93572],[52.84971,24.94498],[52.84351,24.9381],[52.85727,24.91654],[52.8596,24.92269],[52.85407,24.92661],[52.86091,24.9239],[52.85398,24.93572]]],[[[52.39563,24.96989],[52.3933,24.97377],[52.39117,24.96029],[52.39946,24.9541],[52.39563,24.96989]]],[[[52.87629,25.16381],[52.86764,25.16458],[52.86213,25.15942],[52.86713,25.1582],[52.87014,25.14708],[52.86528,25.145],[52.87816,25.13314],[52.88273,25.11597],[52.88154,25.15991],[52.87629,25.16381]]],[[[54.38755,24.49612],[54.39089,24.49374],[54.39262,24.50692],[54.38755,24.49612]]],[[[54.3576,24.51018],[54.358,24.52003],[54.33942,24.50382],[54.32937,24.48016],[54.33986,24.48357],[54.35216,24.49879],[54.36081,24.50087],[54.3576,24.51018]]],[[[54.4298,24.50755],[54.42617,24.50802],[54.42738,24.50478],[54.43629,24.50354],[54.4298,24.50755]]],[[[53.32423,24.6019],[53.32323,24.61103],[53.31638,24.6136],[53.32081,24.61118],[53.32152,24.60161],[53.31038,24.59519],[53.31467,24.59176],[53.31181,24.58948],[53.32295,24.5919],[53.32423,24.6019]]],[[[53.73249,24.79882],[53.72695,24.79728],[53.73187,24.79451],[53.73249,24.79882]]],[[[53.49975,24.83233],[53.50221,24.83017],[53.50314,24.83602],[53.49975,24.83233]]],[[[53.65501,24.8477],[53.6504,24.84309],[53.65993,24.84032],[53.66239,24.84524],[53.65501,24.8477]]],[[[54.47302,24.59432],[54.47426,24.59772],[54.46922,24.59432],[54.47601,24.58738],[54.44035,24.55229],[54.42045,24.54048],[54.39536,24.53743],[54.4087,24.52363],[54.45681,24.50614],[54.47068,24.49363],[54.47533,24.50408],[54.45558,24.5526],[54.47751,24.58444],[54.47302,24.59432]]],[[[54.20245,25.22382],[54.20655,25.21858],[54.23961,25.21258],[54.23812,25.23751],[54.21899,25.25262],[54.20082,25.24215],[54.19787,25.23004],[54.20245,25.22382]]],[[[53.06149,24.88149],[53.08017,24.85764],[53.08421,24.88814],[53.07381,24.89806],[53.06722,24.89821],[53.0617,24.89279],[53.06149,24.88149]]],[[[53.72695,24.90058],[53.72941,24.90396],[53.72234,24.90642],[53.72695,24.90058]]]]}},{"type":"Feature","properties":{"gid":"ARE.2_1","name":"阿治曼","nameEn":"Ajman","nameLocal":"عجمان","type":"Emirate","typeEn":"Emirate","groupZh":"酋长国","area":232.5,"iso":"NA","engtype":"Emirate","capital":"阿治曼","pop":504000,"blurb":"面积最小的酋长国，夹在沙迦与哈伊马角之间，以自由区与渔业见长。"},"geometry":{"type":"MultiPolygon","coordinates":[[[[56.02995,24.81838],[56.07615,24.75071],[56.08123,24.78845],[56.10434,24.80935],[56.06181,24.83319],[56.06076,24.86802],[56.07002,24.86715],[55.97975,24.89504],[55.97795,24.87772],[56.02502,24.83093],[56.02995,24.81838]]],[[[56.02737,25.33671],[56.01619,25.34145],[55.96403,25.33651],[55.95937,25.32086],[55.9908,25.28933],[56.03569,25.32722],[56.03579,25.34149],[56.02737,25.33671]]],[[[55.60086,25.37668],[55.63001,25.41125],[55.61897,25.42124],[55.596,25.4247],[55.53471,25.44659],[55.4864,25.4421],[55.47178,25.45037],[55.45087,25.42663],[55.44563,25.4256],[55.44413,25.43013],[55.44502,25.42547],[55.45747,25.42473],[55.47639,25.43693],[55.49784,25.42639],[55.48588,25.4227],[55.47398,25.43038],[55.47308,25.42639],[55.48671,25.41894],[55.4697,25.42648],[55.45927,25.42229],[55.4642,25.41134],[55.45733,25.41564],[55.45664,25.40896],[55.46141,25.40705],[55.45637,25.4008],[55.46706,25.39531],[55.45482,25.39806],[55.45654,25.42167],[55.44401,25.41929],[55.44666,25.42197],[55.44242,25.43079],[55.42508,25.39979],[55.42749,25.39332],[55.45747,25.37586],[55.4998,25.35744],[55.59305,25.36776],[55.60086,25.37668]]]]}},{"type":"Feature","properties":{"gid":"ARE.3_1","name":"迪拜","nameEn":"Dubai","nameLocal":"دبي","type":"Emirate","typeEn":"Emirate","groupZh":"酋长国","area":4078.9,"iso":"NA","engtype":"Emirate","capital":"迪拜","pop":3604000,"blurb":"最国际化的酋长国，哈利法塔、棕榈岛与全球航空枢纽，经济早已超越石油。"},"geometry":{"type":"MultiPolygon","coordinates":[[[[55.16964,25.11968],[55.15412,25.10308],[55.14273,25.11828],[55.13588,25.11748],[55.14716,25.12052],[55.13463,25.11832],[55.14757,25.12423],[55.13344,25.11931],[55.14706,25.12854],[55.13235,25.12008],[55.14526,25.13186],[55.13141,25.12077],[55.14051,25.13463],[55.13014,25.12159],[55.13439,25.13422],[55.12861,25.12299],[55.12711,25.13238],[55.12667,25.12431],[55.1237,25.12996],[55.11858,25.12409],[55.12528,25.12275],[55.11682,25.12064],[55.12712,25.12156],[55.11543,25.11457],[55.12874,25.12033],[55.1163,25.1089],[55.12998,25.11952],[55.12049,25.10516],[55.13123,25.11865],[55.12477,25.10384],[55.13234,25.11782],[55.12919,25.10439],[55.13334,25.11663],[55.13335,25.10513],[55.13441,25.11596],[55.13465,25.10963],[55.15236,25.10212],[55.14674,25.09368],[55.13392,25.0919],[55.13727,25.08824],[55.13444,25.08222],[55.08501,25.03102],[55.08107,25.03256],[55.07755,25.02444],[55.07418,25.0241],[55.06673,25.04412],[55.06023,25.04191],[55.05718,25.04655],[55.05205,25.04036],[55.03729,25.03617],[55.04132,25.02918],[55.05796,25.03194],[55.06629,25.04216],[55.07278,25.02695],[55.04307,25.02011],[55.05463,24.99491],[55.07162,25.0085],[55.07568,25.00484],[55.05774,24.98896],[55.06071,24.98185],[55.07892,24.99769],[55.08168,24.99497],[55.05526,24.97205],[55.04897,24.97596],[55.05458,24.98107],[55.03845,25.02074],[55.04498,24.99732],[55.03094,24.9926],[55.03185,24.99727],[55.02578,24.98754],[55.02591,24.99208],[55.0159,24.98524],[55.02343,25.00778],[55.02216,25.01898],[55.01472,25.02932],[54.99992,25.03571],[54.98945,25.0363],[54.98895,25.03186],[55.00597,25.0304],[55.0184,25.02106],[55.0196,25.00825],[55.01217,24.99058],[55.01456,24.98398],[55.00517,24.97971],[54.9916,25.00172],[55.00755,24.99735],[54.99246,25.00477],[55.0098,25.00393],[54.99135,25.00702],[55.01242,25.00777],[54.99049,25.00792],[55.0118,25.01284],[54.98909,25.00994],[55.00877,25.01877],[55.00068,25.01904],[54.98841,25.01141],[55.00371,25.02241],[54.98608,25.01451],[54.99507,25.02696],[54.98512,25.01616],[54.98537,25.02164],[54.96958,25.01787],[54.9814,25.01476],[54.96639,25.01138],[54.98194,25.01108],[54.96395,25.00418],[54.98355,25.0098],[54.96531,24.99818],[54.98469,25.00781],[54.96949,24.99243],[54.98559,25.00597],[54.97367,24.98905],[54.98666,25.00404],[54.97873,24.98761],[54.98787,25.00219],[54.98476,24.98673],[54.99049,25.00098],[55.00233,24.97846],[54.99186,24.97363],[54.96327,24.98739],[54.95723,24.99364],[54.95669,25.0067],[54.96239,25.02098],[54.98694,25.03584],[54.97703,25.0365],[54.96821,25.03266],[54.95768,25.01875],[54.95269,24.99828],[54.96243,24.98345],[54.98871,24.97249],[54.96283,24.96502],[54.92467,24.93388],[54.91157,24.94161],[54.91573,24.94949],[54.89926,24.95365],[54.90265,24.94305],[54.8932,24.95083],[54.90671,24.95659],[54.89107,24.94973],[54.89847,24.93713],[54.91084,24.94053],[54.92122,24.93102],[54.89605,24.91119],[54.99175,24.88162],[55.02887,24.86092],[55.15665,24.70673],[55.20253,24.6576],[55.33456,24.62308],[55.52336,24.65056],[55.55294,24.66607],[55.5958,24.71198],[55.696,24.7345],[55.71613,24.74723],[55.73926,24.75345],[55.71646,24.8349],[55.66146,24.98963],[55.66216,25.0533],[55.62907,25.21101],[55.38625,25.30262],[55.36433,25.29939],[55.34958,25.31305],[55.35776,25.30187],[55.35251,25.29845],[55.3475,25.30904],[55.35232,25.32779],[55.33833,25.30961],[55.34096,25.32029],[55.33544,25.3241],[55.33226,25.31115],[55.33842,25.30619],[55.32874,25.29525],[55.32958,25.30052],[55.3259,25.29522],[55.31971,25.30094],[55.29998,25.30296],[55.29336,25.29902],[55.29009,25.28947],[55.29458,25.27927],[55.31899,25.28997],[55.295,25.27594],[55.2921,25.26717],[55.30824,25.26539],[55.34454,25.23257],[55.35142,25.22167],[55.34841,25.21818],[55.3512,25.21074],[55.34366,25.21006],[55.33941,25.20294],[55.34636,25.19802],[55.31846,25.1864],[55.31475,25.19435],[55.32561,25.2025],[55.31082,25.2],[55.31787,25.2057],[55.33643,25.20701],[55.34415,25.218],[55.3433,25.22817],[55.32884,25.23782],[55.32448,25.24752],[55.30757,25.26293],[55.291,25.26524],[55.2945,25.27202],[55.28773,25.28695],[55.26902,25.27955],[55.28399,25.28839],[55.29091,25.28235],[55.27484,25.2687],[55.2754,25.26517],[55.28802,25.27188],[55.27862,25.25893],[55.27033,25.26146],[55.26524,25.28284],[55.25979,25.28118],[55.26078,25.26742],[55.25606,25.2688],[55.25757,25.28307],[55.25463,25.26449],[55.26883,25.26044],[55.27582,25.25266],[55.26762,25.25137],[55.26935,25.24795],[55.26518,25.25038],[55.26585,25.24478],[55.25279,25.25233],[55.25032,25.26993],[55.25049,25.25433],[55.26485,25.24488],[55.25616,25.24918],[55.25533,25.24133],[55.26142,25.23946],[55.2651,25.24395],[55.26581,25.24019],[55.26194,25.2343],[55.25408,25.23685],[55.25938,25.233],[55.25583,25.22639],[55.24691,25.22868],[55.25339,25.22286],[55.23921,25.20502],[55.24038,25.21341],[55.23553,25.22156],[55.22586,25.2203],[55.22752,25.21631],[55.23422,25.21819],[55.23544,25.20972],[55.23228,25.20984],[55.23844,25.20881],[55.23765,25.20273],[55.22924,25.20458],[55.23149,25.19503],[55.22338,25.19958],[55.23095,25.19349],[55.19853,25.15285],[55.19246,25.15339],[55.19328,25.14704],[55.18467,25.14196],[55.18565,25.1374],[55.16964,25.11968]]],[[[55.14139,25.09836],[55.14351,25.10284],[55.13783,25.0984],[55.13997,25.0941],[55.14139,25.09836]]],[[[55.13341,25.10061],[55.11463,25.10249],[55.12369,25.09738],[55.13642,25.09969],[55.13341,25.10061]]],[[[55.14636,25.13663],[55.14336,25.1406],[55.13165,25.14099],[55.11588,25.13163],[55.1088,25.11808],[55.11235,25.1031],[55.11198,25.12063],[55.11992,25.13148],[55.13354,25.13872],[55.14636,25.13663]]],[[[55.15972,25.11621],[55.15522,25.11756],[55.15168,25.1117],[55.15972,25.11621]]],[[[55.16299,25.18548],[55.14655,25.18548],[55.13476,25.19384],[55.14649,25.18529],[55.16299,25.18548]]],[[[55.17075,25.19661],[55.17473,25.19594],[55.16874,25.19958],[55.17075,25.19661]]],[[[55.1811,25.19287],[55.18626,25.19622],[55.16943,25.18746],[55.1811,25.19287]]],[[[55.16747,25.20782],[55.1588,25.20532],[55.17453,25.19835],[55.1641,25.20567],[55.16747,25.20782]]],[[[55.17837,25.21391],[55.17944,25.21774],[55.17687,25.21328],[55.18451,25.21302],[55.1814,25.21735],[55.17837,25.21391]]],[[[55.14377,25.23043],[55.13226,25.22223],[55.13518,25.19793],[55.14064,25.19939],[55.13628,25.2003],[55.13986,25.20729],[55.13561,25.22348],[55.14219,25.22855],[55.15182,25.22389],[55.14377,25.23043]]],[[[55.16972,25.21846],[55.16695,25.22033],[55.16473,25.21542],[55.16972,25.21846]]],[[[55.17168,25.22128],[55.16921,25.21907],[55.17357,25.21796],[55.17168,25.22128]]],[[[55.17713,25.22013],[55.17416,25.21735],[55.17782,25.21654],[55.17713,25.22013]]],[[[55.12401,25.21095],[55.13205,25.19162],[55.12451,25.21266],[55.1313,25.23674],[55.14151,25.25299],[55.13113,25.23678],[55.12401,25.21095]]],[[[55.16429,25.23575],[55.15944,25.23245],[55.15854,25.22221],[55.16445,25.2268],[55.16137,25.22942],[55.1663,25.22892],[55.16554,25.2325],[55.16148,25.23069],[55.1627,25.23405],[55.17109,25.23085],[55.16896,25.23607],[55.16429,25.23575]]],[[[55.17843,25.24584],[55.16792,25.24896],[55.17535,25.24339],[55.17843,25.24584]]],[[[55.17608,25.25189],[55.18152,25.25465],[55.17162,25.25167],[55.17608,25.25189]]],[[[55.1884,25.26029],[55.16931,25.26323],[55.14245,25.24905],[55.16936,25.26298],[55.19581,25.25755],[55.1884,25.26029]]],[[[56.16371,24.76484],[56.20122,24.7844],[56.20541,24.84365],[56.20087,24.84086],[56.18462,24.84956],[56.06076,24.86802],[56.06181,24.83319],[56.10434,24.80935],[56.08123,24.78845],[56.07615,24.75071],[56.08108,24.74329],[56.1127,24.7382],[56.16371,24.76484]]],[[[55.19581,25.20763],[55.18903,25.20034],[55.19867,25.211],[55.20421,25.22712],[55.19581,25.20763]]],[[[55.19672,25.22241],[55.19329,25.22349],[55.18793,25.21437],[55.18805,25.20492],[55.19672,25.22241]]],[[[55.1935,25.23516],[55.18879,25.23469],[55.19394,25.23252],[55.19317,25.2268],[55.19466,25.2321],[55.20117,25.23279],[55.1935,25.23516]]],[[[55.19634,25.23873],[55.18888,25.23916],[55.18665,25.23517],[55.19149,25.23865],[55.19974,25.23504],[55.19634,25.23873]]],[[[55.20397,25.23815],[55.20328,25.22943],[55.20185,25.24621],[55.19294,25.25485],[55.20397,25.23815]]],[[[55.23805,25.32197],[55.2277,25.33279],[55.22753,25.322],[55.2373,25.31488],[55.23805,25.32197]]],[[[55.25451,25.31627],[55.24034,25.31897],[55.24081,25.31354],[55.24732,25.31143],[55.25434,25.31077],[55.25451,25.31627]]],[[[55.27243,25.31422],[55.27859,25.31771],[55.27685,25.32091],[55.25688,25.31613],[55.25677,25.3115],[55.27243,25.31422]]],[[[55.26179,25.31953],[55.28031,25.34436],[55.26433,25.32952],[55.26179,25.31953]]],[[[55.25356,25.31943],[55.27716,25.35153],[55.25513,25.32733],[55.25356,25.31943]]],[[[55.24555,25.32151],[55.26154,25.3378],[55.27201,25.35755],[55.24555,25.32151]]],[[[55.23858,25.32562],[55.25721,25.34083],[55.26524,25.36191],[55.23858,25.32562]]],[[[55.23342,25.33189],[55.25263,25.3435],[55.25699,25.3639],[55.24994,25.34495],[55.23342,25.33189]]],[[[55.23164,25.33944],[55.24769,25.34654],[55.24857,25.36264],[55.23164,25.33944]]],[[[55.24878,25.36698],[55.25686,25.37379],[55.2393,25.37158],[55.22408,25.35883],[55.2187,25.34285],[55.22271,25.32858],[55.22876,25.34992],[55.23771,25.3617],[55.24878,25.36698]]],[[[55.2833,25.35948],[55.27849,25.36433],[55.27192,25.36161],[55.28099,25.35163],[55.28653,25.35392],[55.2833,25.35948]]],[[[55.27597,25.36682],[55.26151,25.37326],[55.25404,25.36738],[55.26913,25.36345],[55.27597,25.36682]]],[[[55.28799,25.31191],[55.28118,25.31531],[55.27368,25.30984],[55.2759,25.30696],[55.28046,25.31103],[55.27737,25.30814],[55.28845,25.29333],[55.29642,25.30726],[55.28799,25.31191]]],[[[55.33133,25.32599],[55.32293,25.33139],[55.32233,25.31845],[55.31143,25.3043],[55.32581,25.30113],[55.33133,25.32599]]],[[[55.34194,25.32254],[55.33861,25.32709],[55.33459,25.32501],[55.34194,25.32254]]],[[[55.30107,25.31779],[55.29491,25.31388],[55.3088,25.3077],[55.30931,25.31217],[55.30107,25.31779]]],[[[55.28167,25.32898],[55.27948,25.33733],[55.27097,25.32984],[55.26908,25.32124],[55.27624,25.32632],[55.29244,25.31524],[55.296,25.32024],[55.28167,25.32898]]],[[[55.31587,25.33631],[55.31124,25.3373],[55.30411,25.32808],[55.30395,25.32032],[55.30995,25.31568],[55.32009,25.32108],[55.32035,25.33378],[55.31587,25.33631]],[[55.31591,25.31688],[55.31146,25.31515],[55.31307,25.31899],[55.31591,25.31688]]],[[[55.30126,25.32831],[55.31086,25.33759],[55.29408,25.34188],[55.29307,25.3304],[55.29693,25.326],[55.30126,25.32831]]],[[[55.28889,25.34757],[55.28728,25.35152],[55.28198,25.34975],[55.2845,25.33111],[55.28869,25.33172],[55.28889,25.34757]]],[[[55.29798,25.35341],[55.29274,25.35568],[55.29369,25.34325],[55.29647,25.34656],[55.31256,25.33807],[55.29798,25.35341]]]]}},{"type":"Feature","properties":{"gid":"ARE.4_1","name":"富查伊拉","nameEn":"Fujairah","nameLocal":"الفجيرة","type":"Emirate","typeEn":"Emirate","groupZh":"酋长国","area":1591.6,"iso":"NA","engtype":"Emirate","capital":"富查伊拉","pop":254000,"blurb":"唯一面向阿曼湾的酋长国，深水港与输油管线打破对霍尔木兹海峡的依赖。"},"geometry":{"type":"MultiPolygon","coordinates":[[[[56.32364,24.97221],[56.31138,24.97282],[56.30127,24.98044],[56.28971,24.96621],[56.28612,24.95355],[56.26677,24.94235],[56.26334,24.93547],[56.27917,24.92218],[56.28059,24.88421],[56.30536,24.88422],[56.32608,24.89817],[56.35006,24.93395],[56.32364,24.97221]]],[[[56.25228,25.23757],[56.23239,25.23889],[56.20662,25.23026],[56.1829,25.23952],[56.17237,25.2315],[56.17866,25.21001],[56.17046,25.19081],[56.17091,25.17399],[56.17673,25.16511],[56.17012,25.14494],[56.175,25.13341],[56.16862,25.10043],[56.17866,25.0753],[56.19391,25.07246],[56.20634,25.05257],[56.24143,25.02052],[56.23984,25.0048],[56.24678,24.98704],[56.29205,24.99015],[56.29131,25.00009],[56.30099,25.00329],[56.30519,24.99727],[56.31392,25.01238],[56.31958,25.01241],[56.32449,25.07438],[56.31631,25.09254],[56.30401,25.10147],[56.36059,25.09886],[56.36065,25.19901],[56.37601,25.31943],[56.38052,25.32646],[56.35018,25.3049],[56.34487,25.27439],[56.32131,25.26118],[56.30493,25.25786],[56.28215,25.2367],[56.26065,25.24306],[56.25838,25.23787],[56.25228,25.23757]]],[[[56.19471,25.6205],[56.15341,25.62283],[56.14861,25.63739],[56.09241,25.63901],[56.0729,25.64409],[56.07092,25.61362],[56.06479,25.61758],[56.05824,25.60851],[56.0143,25.61282],[56.01041,25.6088],[55.9902,25.62487],[55.98937,25.61955],[55.9827,25.62261],[55.98234,25.61209],[55.97451,25.61261],[55.9786,25.58768],[55.98556,25.58773],[55.98168,25.55091],[55.98841,25.53714],[55.99021,25.5121],[55.99644,25.51228],[56.01996,25.48982],[56.09742,25.49549],[56.12189,25.47374],[56.13657,25.47894],[56.14241,25.47123],[56.14004,25.46521],[56.12747,25.45917],[56.12333,25.44877],[56.11533,25.44731],[56.11022,25.4347],[56.09719,25.43165],[56.09303,25.42445],[56.10577,25.41676],[56.12458,25.41734],[56.12586,25.40738],[56.13245,25.40529],[56.15278,25.41636],[56.16575,25.39468],[56.16484,25.36989],[56.14969,25.36485],[56.13555,25.37063],[56.12598,25.35836],[56.11847,25.3594],[56.1126,25.3543],[56.09426,25.35795],[56.08904,25.37234],[56.07393,25.36992],[56.04998,25.38016],[56.00728,25.38925],[55.99548,25.34088],[56.01619,25.34145],[56.02737,25.33671],[56.03579,25.34149],[56.03569,25.32722],[55.9908,25.28933],[55.99592,25.25453],[56.00389,25.24405],[56.03933,25.23751],[56.03932,25.22803],[56.06689,25.2307],[56.07989,25.23866],[56.08876,25.23875],[56.10485,25.22469],[56.13081,25.23087],[56.15813,25.24494],[56.16306,25.25105],[56.15065,25.25727],[56.15811,25.26325],[56.1504,25.27942],[56.16986,25.29861],[56.18019,25.29817],[56.18639,25.30419],[56.17749,25.3106],[56.1683,25.30605],[56.16059,25.3117],[56.1429,25.31355],[56.14276,25.31802],[56.15551,25.34121],[56.17459,25.35497],[56.17686,25.3416],[56.19031,25.3329],[56.19663,25.33665],[56.20003,25.32874],[56.20892,25.32676],[56.21373,25.31916],[56.2115,25.30936],[56.22965,25.31801],[56.21952,25.33204],[56.22192,25.33738],[56.23139,25.34141],[56.24377,25.33939],[56.25152,25.34765],[56.25285,25.358],[56.26942,25.36463],[56.27481,25.37702],[56.29593,25.3858],[56.31471,25.38778],[56.3554,25.41831],[56.36463,25.41931],[56.36886,25.41144],[56.36676,25.43063],[56.37165,25.4336],[56.36276,25.43506],[56.36184,25.44784],[56.36295,25.49093],[56.37172,25.53367],[56.3565,25.55983],[56.35562,25.59498],[56.33578,25.60479],[56.32671,25.60325],[56.30313,25.61009],[56.29687,25.61575],[56.30121,25.61135],[56.29332,25.6081],[56.29481,25.6125],[56.29147,25.61128],[56.29083,25.60658],[56.27946,25.61321],[56.25334,25.6023],[56.19471,25.6205]]]]}},{"type":"Feature","properties":{"gid":"ARE.5_1","name":"哈伊马角","nameEn":"Ras Al-Khaimah","nameLocal":"رأس الخيمة","type":"Emirate","typeEn":"Emirate","groupZh":"酋长国","area":2437.5,"iso":"NA","engtype":"Emirate","capital":"哈伊马角","pop":345000,"blurb":"北部酋长国，石灰岩山脉与采石业，近年靠旅游与自由区提速。"},"geometry":{"type":"MultiPolygon","coordinates":[[[[56.20925,24.85089],[56.25913,24.85995],[56.28021,24.87472],[56.28111,24.89111],[56.27274,24.90608],[56.2554,24.90761],[56.24534,24.91522],[56.23454,24.9134],[56.22848,24.92526],[56.21242,24.91846],[56.20041,24.93632],[56.18684,24.94284],[56.19431,24.95049],[56.18432,24.96504],[56.17897,24.98397],[56.18605,24.98614],[56.19123,25.01384],[56.19626,25.01775],[56.16898,25.06655],[56.17885,25.07229],[56.16862,25.10043],[56.175,25.13341],[56.17012,25.14494],[56.17673,25.16511],[56.17091,25.17399],[56.17046,25.19081],[56.17866,25.21001],[56.17237,25.2315],[56.1829,25.23952],[56.20662,25.23026],[56.23239,25.23889],[56.249,25.23735],[56.23428,25.24787],[56.22442,25.24878],[56.22126,25.26414],[56.22515,25.27654],[56.20951,25.31106],[56.21373,25.31916],[56.20892,25.32676],[56.19902,25.32972],[56.20103,25.33338],[56.19663,25.33665],[56.19031,25.3329],[56.17686,25.3416],[56.17459,25.35497],[56.15551,25.34121],[56.14276,25.31802],[56.1429,25.31355],[56.16059,25.3117],[56.1683,25.30605],[56.17749,25.3106],[56.18639,25.30419],[56.18019,25.29817],[56.16986,25.29861],[56.1504,25.27942],[56.15811,25.26325],[56.15065,25.25727],[56.16306,25.25105],[56.15813,25.24494],[56.13081,25.23087],[56.10485,25.22469],[56.08876,25.23875],[56.07989,25.23866],[56.06689,25.2307],[56.03932,25.22803],[56.03933,25.23751],[56.00389,25.24405],[55.99617,25.25369],[56.00388,25.21003],[55.98446,25.20508],[55.99458,25.17362],[56.00666,25.16683],[56.00577,25.15149],[55.99868,25.10917],[55.97727,25.07853],[55.99314,25.04388],[55.96025,25.00599],[56.00666,24.99452],[56.03004,24.97338],[56.04598,24.96823],[56.0414,24.94653],[56.0632,24.94757],[56.0407,24.90891],[56.04185,24.88876],[56.05105,24.87647],[56.07025,24.86705],[56.18462,24.84956],[56.20087,24.84086],[56.20925,24.85089]]],[[[56.14217,25.47139],[56.13328,25.47965],[56.12189,25.47374],[56.09742,25.49549],[56.01996,25.48982],[55.99644,25.51228],[55.99021,25.5121],[55.98841,25.53714],[55.98168,25.55091],[55.98556,25.58773],[55.9786,25.58768],[55.97451,25.61261],[55.98234,25.61209],[55.9827,25.62261],[55.98937,25.61955],[55.9902,25.62487],[56.01041,25.6088],[56.0143,25.61282],[56.05824,25.60851],[56.06479,25.61758],[56.07092,25.61362],[56.0729,25.64409],[56.09241,25.63901],[56.14861,25.63739],[56.15341,25.62283],[56.17975,25.62099],[56.15567,25.68679],[56.16757,25.72584],[56.15643,25.76122],[56.15485,25.79805],[56.1414,25.81259],[56.14158,25.82784],[56.16295,25.85791],[56.15996,25.87553],[56.17812,25.89245],[56.17975,25.91713],[56.17309,25.91884],[56.16795,25.93565],[56.16968,25.94697],[56.18053,25.95292],[56.19133,25.97199],[56.18037,25.99535],[56.18168,26.019],[56.17117,26.0233],[56.16127,26.04934],[56.16381,26.05458],[56.15306,26.06933],[56.142,26.06696],[56.13479,26.05677],[56.12229,26.05096],[56.10707,26.05562],[56.08552,26.0505],[56.07006,25.98849],[56.06208,25.98071],[56.04938,25.98027],[56.05913,25.9804],[56.05416,25.97469],[56.04617,25.975],[56.0465,25.98192],[56.04561,25.97448],[56.05252,25.97161],[56.05093,25.96505],[56.05896,25.95653],[56.05757,25.93991],[56.05723,25.95554],[56.04726,25.96715],[56.04328,25.94042],[56.02494,25.9],[56.0177,25.88851],[56.00748,25.89003],[56.02024,25.88897],[56.02481,25.89758],[56.0215,25.8896],[56.02948,25.88482],[56.03062,25.89518],[56.04008,25.90463],[56.03847,25.90954],[56.04516,25.91408],[56.05112,25.92937],[56.04733,25.91767],[56.05629,25.90172],[56.04729,25.89299],[56.05098,25.8886],[56.03833,25.89216],[56.03272,25.88192],[56.016,25.88612],[56.00596,25.86741],[56.00909,25.86377],[56.00491,25.86339],[55.9872,25.83484],[55.96571,25.81659],[55.97664,25.82914],[55.96782,25.83213],[55.96088,25.81647],[55.95504,25.81699],[55.95439,25.81155],[55.95196,25.81458],[55.95228,25.79733],[55.96719,25.79516],[55.96558,25.79045],[55.95374,25.79162],[55.96419,25.78647],[55.96575,25.77533],[55.95226,25.7717],[55.95387,25.77643],[55.94679,25.77774],[55.95085,25.77141],[55.93823,25.7728],[55.95211,25.79104],[55.94949,25.81058],[55.94568,25.79955],[55.90693,25.75609],[55.88211,25.73851],[55.88317,25.73552],[55.87545,25.7374],[55.88033,25.7344],[55.86784,25.7248],[55.85367,25.71861],[55.85039,25.72519],[55.85701,25.72852],[55.84855,25.72726],[55.84895,25.72178],[55.84163,25.71783],[55.84771,25.72827],[55.83926,25.72482],[55.84115,25.71774],[55.83777,25.71507],[55.83238,25.71535],[55.83827,25.71713],[55.83893,25.7264],[55.82284,25.72172],[55.82393,25.71679],[55.83194,25.71524],[55.82321,25.71531],[55.82259,25.72286],[55.81826,25.7172],[55.80216,25.71844],[55.81657,25.71533],[55.80127,25.71578],[55.80003,25.71111],[55.79666,25.71359],[55.79926,25.72205],[55.77601,25.69732],[55.78997,25.69199],[55.78187,25.68608],[55.77305,25.69714],[55.77074,25.68407],[55.751,25.66311],[55.74155,25.67786],[55.75347,25.67805],[55.76148,25.68907],[55.75696,25.69057],[55.75828,25.69449],[55.75524,25.68858],[55.7494,25.68789],[55.75385,25.68603],[55.75138,25.68248],[55.74218,25.68294],[55.7456,25.68992],[55.73958,25.69535],[55.73111,25.68891],[55.74126,25.68278],[55.7381,25.67649],[55.74877,25.66082],[55.7462,25.65607],[55.77638,25.64708],[55.81548,25.6155],[55.80639,25.52694],[55.84519,25.49565],[55.82835,25.48525],[55.84962,25.47726],[55.91034,25.43473],[55.90643,25.42844],[55.90728,25.41212],[55.91568,25.40167],[55.9371,25.38913],[55.9517,25.38504],[55.98943,25.39297],[56.04998,25.38016],[56.07393,25.36992],[56.08904,25.37234],[56.09426,25.35795],[56.1126,25.3543],[56.11847,25.3594],[56.12598,25.35836],[56.13555,25.37063],[56.14969,25.36485],[56.16484,25.36989],[56.16575,25.39468],[56.15317,25.41615],[56.13245,25.40529],[56.12586,25.40738],[56.12458,25.41734],[56.10577,25.41676],[56.09303,25.42445],[56.09719,25.43165],[56.11022,25.4347],[56.11533,25.44731],[56.12333,25.44877],[56.12611,25.45761],[56.13787,25.46291],[56.14217,25.47139]],[[55.78258,25.68839],[55.78033,25.69099],[55.785,25.69519],[55.78761,25.69253],[55.78258,25.68839]]],[[[56.00769,25.88831],[56.00059,25.86308],[55.97723,25.83035],[56.00095,25.85827],[56.01552,25.88646],[56.00769,25.88831]]]]}},{"type":"Feature","properties":{"gid":"ARE.6_1","name":"沙迦","nameEn":"Sharjah","nameLocal":"الشارقة","type":"Emirate","typeEn":"Emirate","groupZh":"酋长国","area":2525.1,"iso":"NA","engtype":"Emirate","capital":"沙迦","pop":1405000,"blurb":"文化之都与教育重镇，与迪拜连成都会带，以博物馆群与保守氛围闻名。"},"geometry":{"type":"MultiPolygon","coordinates":[[[[56.3267,24.97237],[56.3434,24.97187],[56.37073,24.97959],[56.36543,25.00487],[56.3602,25.0099],[56.35975,24.99787],[56.35928,25.01297],[56.35435,25.01956],[56.35611,25.02556],[56.35967,25.01406],[56.36674,25.02933],[56.375,25.03014],[56.36553,25.03379],[56.35937,25.10026],[56.30401,25.10147],[56.31631,25.09254],[56.32449,25.07438],[56.31958,25.01241],[56.31392,25.01238],[56.30519,24.99727],[56.30099,25.00329],[56.29131,25.00009],[56.29205,24.99015],[56.24678,24.98704],[56.23984,25.0048],[56.24143,25.02052],[56.20634,25.05257],[56.19391,25.07246],[56.17862,25.0759],[56.16898,25.06655],[56.19626,25.01775],[56.19123,25.01384],[56.18605,24.98614],[56.17897,24.98397],[56.18432,24.96504],[56.19431,24.95049],[56.18684,24.94284],[56.20041,24.93632],[56.21242,24.91846],[56.22848,24.92526],[56.23454,24.9134],[56.24534,24.91522],[56.2554,24.90761],[56.27274,24.90608],[56.28075,24.89022],[56.27917,24.92218],[56.26334,24.93547],[56.26677,24.94235],[56.28612,24.95355],[56.28971,24.96621],[56.30127,24.98044],[56.31138,24.97282],[56.3267,24.97237]]],[[[56.37374,24.9866],[56.36953,25.02662],[56.37516,25.02876],[56.36626,25.02462],[56.36054,25.01321],[56.36758,25.00644],[56.37311,24.98013],[56.37374,24.9866]]],[[[55.91084,24.96528],[55.9609,25.00652],[55.99314,25.04388],[55.97727,25.07853],[55.99868,25.10917],[56.00666,25.16683],[55.99458,25.17362],[55.98446,25.20508],[56.00388,25.21003],[55.99163,25.28877],[55.95937,25.32086],[55.96403,25.33651],[55.99548,25.34088],[56.00728,25.38925],[55.98943,25.39297],[55.95941,25.38649],[55.91768,25.36055],[55.91245,25.34961],[55.9149,25.32377],[55.86145,25.32308],[55.848,25.31667],[55.81522,25.31315],[55.79168,25.33118],[55.81051,25.34081],[55.79313,25.37181],[55.80278,25.37487],[55.75368,25.39458],[55.68932,25.41218],[55.64429,25.43212],[55.62321,25.43611],[55.59082,25.46574],[55.55178,25.48854],[55.52104,25.51986],[55.51425,25.51052],[55.5218,25.51216],[55.51908,25.50827],[55.52558,25.50842],[55.52422,25.51182],[55.5291,25.50539],[55.517,25.50689],[55.5263,25.50505],[55.53348,25.49469],[55.53046,25.50607],[55.53492,25.4942],[55.5125,25.51063],[55.51015,25.50119],[55.52097,25.50021],[55.51106,25.499],[55.52116,25.49715],[55.51057,25.49753],[55.50824,25.50885],[55.50723,25.50207],[55.50104,25.50138],[55.50661,25.50998],[55.5006,25.50115],[55.50762,25.50177],[55.50334,25.49972],[55.50489,25.49349],[55.49388,25.48068],[55.49768,25.47615],[55.51011,25.48015],[55.51891,25.47111],[55.51049,25.47877],[55.4962,25.47426],[55.49196,25.4816],[55.49624,25.47217],[55.50497,25.47177],[55.50287,25.46863],[55.50663,25.46644],[55.51163,25.47049],[55.50715,25.46378],[55.49502,25.47001],[55.48907,25.48324],[55.48089,25.47529],[55.48591,25.47255],[55.48264,25.46612],[55.4764,25.46987],[55.47768,25.47797],[55.47315,25.46159],[55.47762,25.45929],[55.47178,25.45037],[55.4864,25.4421],[55.53628,25.44629],[55.596,25.4247],[55.61942,25.42107],[55.63005,25.4106],[55.59305,25.36776],[55.50542,25.35744],[55.49286,25.35851],[55.45753,25.37583],[55.42749,25.39332],[55.42515,25.39989],[55.39292,25.37607],[55.38971,25.37765],[55.39017,25.36744],[55.37811,25.35723],[55.38118,25.3476],[55.37712,25.34241],[55.37643,25.35463],[55.38873,25.3685],[55.38858,25.37431],[55.38414,25.37482],[55.38824,25.37934],[55.37075,25.36721],[55.38514,25.36989],[55.37214,25.35935],[55.36686,25.36177],[55.36876,25.36967],[55.36853,25.35239],[55.35494,25.33121],[55.37362,25.32242],[55.37915,25.3247],[55.37649,25.33304],[55.38003,25.33361],[55.37634,25.33575],[55.38158,25.34764],[55.38327,25.33483],[55.38992,25.33062],[55.37364,25.32207],[55.3708,25.31458],[55.36442,25.31941],[55.36675,25.32617],[55.36324,25.32287],[55.36135,25.32883],[55.35381,25.32915],[55.35556,25.31716],[55.36378,25.30979],[55.35886,25.30793],[55.35254,25.31724],[55.34958,25.31305],[55.36433,25.29939],[55.38625,25.30262],[55.62907,25.21101],[55.66216,25.0533],[55.66146,24.98963],[55.71646,24.8349],[55.73686,24.75815],[55.82044,24.79453],[55.81999,24.79973],[55.81501,24.79939],[55.8126,24.91067],[55.85143,24.9654],[55.91084,24.96528]]],[[[56.27601,25.26209],[56.28465,25.26283],[56.28471,25.27064],[56.29322,25.27617],[56.28723,25.27757],[56.27954,25.29034],[56.2677,25.2795],[56.27024,25.26325],[56.27601,25.26209]]],[[[56.3144,25.30703],[56.31975,25.3025],[56.32266,25.30993],[56.35018,25.3049],[56.38052,25.32646],[56.3762,25.33083],[56.38033,25.33776],[56.37318,25.34262],[56.37598,25.34879],[56.36529,25.35867],[56.36672,25.34902],[56.36209,25.34721],[56.34929,25.36321],[56.35031,25.3722],[56.35687,25.3735],[56.36705,25.39362],[56.36334,25.39108],[56.36463,25.41931],[56.3554,25.41831],[56.31471,25.38778],[56.29593,25.3858],[56.27481,25.37702],[56.26942,25.36463],[56.25285,25.358],[56.25152,25.34765],[56.24377,25.33939],[56.23139,25.34141],[56.22192,25.33738],[56.21952,25.33204],[56.22965,25.31801],[56.21142,25.31033],[56.22515,25.27654],[56.2234,25.26226],[56.25786,25.28657],[56.25862,25.29646],[56.24404,25.31711],[56.24807,25.32496],[56.26769,25.33748],[56.27605,25.33735],[56.29107,25.32523],[56.3069,25.32951],[56.3144,25.30703]]],[[[56.25944,25.6183],[56.26755,25.60507],[56.28191,25.61485],[56.2802,25.62005],[56.28384,25.61916],[56.27091,25.6259],[56.25944,25.6183]]]]}},{"type":"Feature","properties":{"gid":"ARE.7_1","name":"乌姆盖万","nameEn":"Umm al-Qaywayn","nameLocal":"أم القيوين","type":"Emirate","typeEn":"Emirate","groupZh":"酋长国","area":742.1,"iso":"NA","engtype":"Emirate","capital":"乌姆盖万","pop":72000,"blurb":"人口最少、最安静的酋长国，红树林与湿地保护区为主。"},"geometry":{"type":"MultiPolygon","coordinates":[[[[55.59163,25.54935],[55.58423,25.55562],[55.57568,25.54685],[55.57639,25.54123],[55.58381,25.53522],[55.59163,25.54935]]],[[[55.59415,25.56287],[55.58992,25.5627],[55.59153,25.55785],[55.59415,25.56287]]],[[[55.76493,25.65264],[55.74675,25.65688],[55.73193,25.64318],[55.70311,25.63282],[55.69441,25.62716],[55.70097,25.62886],[55.69662,25.62287],[55.67857,25.6162],[55.66743,25.59634],[55.64779,25.58609],[55.64872,25.56985],[55.63963,25.56814],[55.6412,25.55175],[55.64758,25.54492],[55.6312,25.53069],[55.60659,25.51944],[55.60726,25.52617],[55.61301,25.52467],[55.6275,25.53694],[55.63371,25.53667],[55.62652,25.53926],[55.58394,25.52828],[55.57118,25.53262],[55.56612,25.52464],[55.56022,25.53765],[55.56728,25.57024],[55.56485,25.58338],[55.57605,25.58142],[55.58156,25.58661],[55.57845,25.60987],[55.57664,25.59791],[55.55757,25.58531],[55.52122,25.51968],[55.55178,25.48854],[55.59082,25.46574],[55.62321,25.43611],[55.64429,25.43212],[55.68932,25.41218],[55.75368,25.39458],[55.80278,25.37487],[55.79313,25.37181],[55.81051,25.34081],[55.79168,25.33118],[55.81522,25.31315],[55.848,25.31667],[55.86145,25.32308],[55.9149,25.32377],[55.91245,25.34961],[55.91768,25.36055],[55.95941,25.38649],[55.9371,25.38913],[55.91568,25.40167],[55.90728,25.41212],[55.90643,25.42844],[55.91034,25.43473],[55.84962,25.47726],[55.82835,25.48525],[55.84519,25.49565],[55.80639,25.52694],[55.81548,25.6155],[55.76493,25.65264]]],[[[55.59865,25.54247],[55.60928,25.54641],[55.59811,25.55081],[55.59658,25.55624],[55.59486,25.54722],[55.59865,25.54247]]],[[[55.62005,25.55911],[55.62295,25.56258],[55.59959,25.5618],[55.60839,25.5508],[55.62005,25.55911]]],[[[55.72193,25.65161],[55.71179,25.65624],[55.67036,25.62883],[55.65197,25.62231],[55.61933,25.61977],[55.58647,25.58794],[55.59766,25.58991],[55.6122,25.60428],[55.61812,25.60227],[55.62152,25.60953],[55.63104,25.60994],[55.61957,25.60072],[55.61717,25.59259],[55.60841,25.59308],[55.6118,25.58666],[55.60292,25.57598],[55.60822,25.56831],[55.61777,25.56657],[55.63488,25.5827],[55.65036,25.6083],[55.66473,25.60969],[55.67957,25.63254],[55.69557,25.6458],[55.71087,25.65323],[55.72193,25.65161]]],[[[55.5794,25.57546],[55.57604,25.57903],[55.5735,25.56941],[55.57397,25.55879],[55.57948,25.55408],[55.5794,25.57546]]]]}}]}