{"type":"FeatureCollection","features":[{"type":"Feature","properties":{"gid":"ARG.1_1","name":"布宜诺斯艾利斯省","nameEn":"Buenos Aires","nameLocal":"","type":"Province","typeEn":"Province","groupZh":"省","area":306623.1,"iso":"AR-B","engtype":"Province","capital":"拉普拉塔","pop":17500000,"blurb":"人口最多的省，潘帕斯农业心脏，首府拉普拉塔紧邻首都。"},"geometry":{"type":"MultiPolygon","coordinates":[[[[-62.12153,-40.3768],[-62.12708,-40.40875],[-62.08264,-40.38764],[-62.12153,-40.3768]]],[[[-62.05903,-40.22708],[-62.08875,-40.25208],[-62.04681,-40.27236],[-62.03347,-40.23847],[-62.05903,-40.22708]]],[[[-62.12986,-40.43097],[-62.20236,-40.4468],[-62.23736,-40.51042],[-62.17541,-40.54403],[-62.15097,-40.46708],[-62.16431,-40.54486],[-62.1343,-40.51958],[-62.12986,-40.43097]]],[[[-62.16208,-40.3664],[-62.19792,-40.43736],[-62.13042,-40.41153],[-62.16208,-40.3664]]],[[[-62.10958,-40.12625],[-62.13153,-40.17014],[-62.11291,-40.22597],[-62.10958,-40.12625]]],[[[-62.18431,-39.90319],[-62.20681,-39.92264],[-62.16847,-39.94736],[-62.18431,-39.90319]]],[[[-62.16542,-39.94181],[-62.1318,-39.96069],[-62.10541,-39.91347],[-62.12208,-39.89847],[-62.1318,-39.92847],[-62.12486,-39.89653],[-62.1693,-39.87653],[-62.16542,-39.94181]]],[[[-62.30014,-40.18486],[-62.35792,-40.21542],[-62.32625,-40.23931],[-62.35403,-40.25375],[-62.35931,-40.22236],[-62.38958,-40.25375],[-62.3732,-40.27764],[-62.32375,-40.25014],[-62.36153,-40.33736],[-62.32875,-40.34264],[-62.35486,-40.36792],[-62.3307,-40.38847],[-62.26153,-40.30292],[-62.31042,-40.27903],[-62.26875,-40.21292],[-62.30014,-40.18486]]],[[[-62.31597,-40.52486],[-62.25597,-40.55458],[-62.24792,-40.64403],[-62.17764,-40.62097],[-62.17875,-40.5793],[-62.31597,-40.52486]]],[[[-62.17153,-39.83153],[-62.11708,-39.84653],[-62.12569,-39.72958],[-62.09042,-39.68208],[-62.11597,-39.6393],[-62.04542,-39.44819],[-62.27097,-39.30819],[-62.18458,-39.30097],[-62.17014,-39.33792],[-62.02431,-39.41819],[-62.01069,-39.35792],[-62.10625,-39.29375],[-62.3193,-39.26625],[-62.23653,-39.25236],[-62.32292,-39.18375],[-62.31319,-39.12431],[-62.28403,-39.11264],[-62.32819,-39.09153],[-62.22111,-38.99986],[-62.26208,-38.98958],[-62.26847,-39.01764],[-62.2718,-38.99097],[-62.30847,-38.99264],[-62.26236,-38.97486],[-62.31819,-38.98903],[-62.34542,-38.95403],[-62.32125,-38.89542],[-62.35403,-38.86458],[-62.27903,-38.85264],[-62.32847,-38.8418],[-62.30347,-38.82014],[-62.38736,-38.82597],[-62.30208,-38.78903],[-62.36347,-38.76069],[-62.39736,-38.77681],[-62.34903,-38.76292],[-62.39958,-38.75014],[-62.41875,-38.78792],[-62.41458,-38.75958],[-62.43097,-38.77847],[-62.4193,-38.76069],[-62.46708,-38.75153],[-62.37958,-38.7518],[-62.35319,-38.71514],[-62.31403,-38.73653],[-62.34069,-38.75736],[-62.31208,-38.77625],[-62.30764,-38.75042],[-62.31014,-38.78347],[-62.13458,-38.81764],[-62.07292,-38.92541],[-61.81458,-38.98653],[-61.70986,-38.96458],[-61.60264,-39.00403],[-61.13375,-38.99958],[-59.78292,-38.82597],[-59.01208,-38.67931],[-58.7132,-38.57347],[-58.49569,-38.53736],[-57.85264,-38.29653],[-57.54375,-38.09764],[-57.51458,-37.86986],[-57.41486,-37.74208],[-57.43347,-37.7132],[-57.40653,-37.61625],[-57.32292,-37.56181],[-57.38514,-37.61819],[-57.35014,-37.65319],[-57.42736,-37.69653],[-57.42181,-37.74208],[-57.12597,-37.49403],[-56.6782,-36.8968],[-56.69097,-36.49153],[-56.73486,-36.32375],[-56.77653,-36.2957],[-56.75708,-36.34514],[-56.77847,-36.31958],[-56.90569,-36.34431],[-57.0182,-36.33042],[-57.11403,-36.2793],[-57.28847,-36.13542],[-57.38097,-35.96931],[-57.36069,-35.73958],[-57.12486,-35.44347],[-57.22208,-35.27236],[-57.50736,-35.02458],[-57.87375,-34.82597],[-57.89986,-34.87375],[-57.8893,-34.85153],[-57.92653,-34.83792],[-57.88153,-34.82847],[-57.94764,-34.83264],[-58.00903,-34.78208],[-58.17903,-34.7443],[-58.33569,-34.63236],[-58.46166,-34.70905],[-58.52893,-34.65953],[-58.50051,-34.55409],[-58.45292,-34.53153],[-58.51903,-34.4468],[-58.49125,-34.3818],[-58.45347,-34.38819],[-58.5168,-34.30486],[-58.49764,-34.26875],[-58.40181,-34.25958],[-58.40375,-34.22792],[-58.35153,-34.20069],[-58.37569,-34.16403],[-58.34903,-34.05069],[-58.37819,-34.01625],[-58.65878,-34.03868],[-58.76382,-33.94292],[-58.84994,-33.93994],[-59.00636,-33.83375],[-59.13072,-33.84258],[-59.18565,-33.79943],[-59.23565,-33.80345],[-59.25574,-33.71823],[-59.44175,-33.72895],[-59.52119,-33.63114],[-59.61908,-33.68977],[-59.67824,-33.61748],[-59.81541,-33.585],[-59.83201,-33.52161],[-60.06,-33.43291],[-60.24989,-33.26014],[-60.34037,-33.41474],[-60.40553,-33.45885],[-60.46179,-33.62916],[-60.54166,-33.64491],[-60.69106,-33.57604],[-60.86921,-33.55026],[-60.91635,-33.6366],[-61.71769,-34.37882],[-63.39386,-34.385],[-63.38754,-40.70657],[-63.19358,-40.71577],[-62.95686,-40.8174],[-62.75819,-41.03347],[-62.31125,-40.87097],[-62.19486,-40.63264],[-62.28403,-40.65569],[-62.34042,-40.63514],[-62.35986,-40.60319],[-62.33292,-40.59042],[-62.29597,-40.6418],[-62.24958,-40.64514],[-62.25986,-40.55653],[-62.40625,-40.46625],[-62.48625,-40.30708],[-62.43708,-40.2443],[-62.3618,-40.21931],[-62.31653,-40.14847],[-62.34097,-40.06208],[-62.31014,-39.87458],[-62.25347,-39.88097],[-62.28375,-39.84458],[-62.23708,-39.88486],[-62.16403,-39.86986],[-62.19014,-39.85236],[-62.12458,-39.88792],[-62.1193,-39.84986],[-62.17153,-39.83153]]],[[[-62.31014,-38.8657],[-62.2943,-38.89486],[-62.26903,-38.87458],[-62.31014,-38.8657]]],[[[-62.17319,-38.91736],[-62.2018,-38.9593],[-62.15458,-38.93486],[-62.18375,-38.94292],[-62.17319,-38.91736]]],[[[-62.13208,-38.94819],[-62.16292,-38.96292],[-62.14597,-38.99236],[-62.09792,-38.97347],[-62.13208,-38.94819]]],[[[-62.20875,-38.90597],[-62.21403,-38.93681],[-62.18014,-38.91625],[-62.20875,-38.90597]]],[[[-62.03736,-39.22986],[-61.99181,-39.27875],[-61.99208,-39.2368],[-62.03736,-39.22986]]],[[[-62.07375,-39.06986],[-62.07319,-39.14958],[-61.85708,-39.22903],[-61.88569,-39.09042],[-61.89625,-39.1343],[-61.91014,-39.09681],[-62.07375,-39.06986]]],[[[-62.17903,-39.17097],[-62.13014,-39.24264],[-62.03292,-39.26319],[-62.17903,-39.17097]]],[[[-62.06653,-38.98264],[-62.14264,-39.00458],[-62.13986,-39.03958],[-62.06653,-39.00042],[-62.00097,-39.06153],[-61.92347,-39.06625],[-61.92236,-39.04042],[-62.06653,-38.98264]]],[[[-58.46153,-34.32708],[-58.48653,-34.33042],[-58.44958,-34.37708],[-58.46153,-34.32708]]],[[[-58.30931,-34.18736],[-58.3293,-34.23903],[-58.28597,-34.22819],[-58.30931,-34.18736]]]]}},{"type":"Feature","properties":{"gid":"ARG.2_1","name":"卡塔马卡省","nameEn":"Catamarca","nameLocal":"","type":"Province","typeEn":"Province","groupZh":"省","area":101553.0,"iso":"AR-K","engtype":"Province","capital":"圣费尔南多-德尔巴列-卡塔马卡","pop":429000,"blurb":"西北干旱山区省，矿业与葡萄酒为主要产业。"},"geometry":{"type":"Polygon","coordinates":[[[-65.14583,-28.6656],[-65.18087,-28.65314],[-65.18114,-28.60058],[-65.12572,-28.60907],[-65.0994,-28.46948],[-65.11689,-28.19159],[-65.18338,-27.93549],[-65.36756,-27.84114],[-65.57218,-28.00229],[-65.6601,-27.95958],[-65.75021,-27.77557],[-65.82468,-27.85361],[-65.86594,-27.68258],[-65.92016,-27.66777],[-65.96878,-27.5462],[-65.98949,-27.31268],[-66.14672,-27.24315],[-65.85867,-26.92867],[-65.89835,-26.84127],[-65.86076,-26.74857],[-66.06068,-26.61469],[-66.16235,-26.58755],[-66.14877,-26.40432],[-66.10327,-26.3955],[-66.08544,-26.21111],[-66.14748,-26.13869],[-66.2132,-26.14932],[-66.32311,-26.27879],[-66.37007,-26.3959],[-66.42757,-26.37641],[-66.51409,-26.29775],[-66.62367,-26.09875],[-66.80012,-25.89503],[-66.81571,-25.74231],[-66.76855,-25.69757],[-66.59064,-25.67951],[-66.5584,-25.61291],[-66.5294,-25.45914],[-66.55711,-25.27459],[-67.98538,-25.23975],[-68.50512,-25.1652],[-68.50345,-25.22098],[-68.55002,-25.26131],[-68.52338,-25.3771],[-68.59032,-25.41565],[-68.58949,-25.44836],[-68.51861,-25.57238],[-68.54459,-25.63413],[-68.47686,-25.70249],[-68.38107,-26.1779],[-68.55744,-26.2865],[-68.58801,-26.49206],[-68.26309,-26.91902],[-68.31925,-26.98171],[-68.29436,-27.03836],[-68.34687,-27.03301],[-68.45074,-27.09488],[-68.48415,-27.05739],[-68.48169,-27.12866],[-68.55794,-27.11546],[-68.57483,-27.17545],[-68.63332,-27.16179],[-68.67034,-27.09873],[-68.77822,-27.09811],[-68.84347,-27.1597],[-68.86837,-27.26257],[-68.80859,-27.30106],[-68.87142,-27.31921],[-68.88681,-27.3983],[-68.93079,-27.40934],[-68.93565,-27.44502],[-68.98097,-27.43156],[-68.94144,-27.51805],[-68.98758,-27.52454],[-68.97556,-27.56005],[-69.03955,-27.59495],[-69.04379,-27.69579],[-69.0898,-27.72149],[-69.08902,-27.77303],[-68.84559,-27.78051],[-68.55305,-27.7108],[-68.49202,-27.73382],[-68.50558,-27.80446],[-68.42751,-27.88268],[-68.44564,-28.02289],[-68.30281,-28.02416],[-68.28327,-28.08607],[-68.18018,-28.091],[-68.10336,-28.15974],[-67.91765,-28.12204],[-67.92222,-28.21343],[-67.8176,-28.38647],[-67.8095,-28.35042],[-67.65487,-28.31279],[-67.38269,-28.38138],[-67.16038,-28.3801],[-67.09115,-28.27921],[-66.99638,-28.24267],[-66.57945,-28.32015],[-66.51777,-28.45292],[-66.52773,-28.53009],[-66.48933,-28.54449],[-66.48956,-28.64071],[-66.33101,-28.73951],[-66.39798,-28.86357],[-66.21989,-28.88984],[-66.10976,-28.94081],[-65.82858,-29.18089],[-65.829,-29.25342],[-65.75264,-29.27732],[-65.41371,-30.1224],[-65.12532,-30.06558],[-64.90726,-29.90663],[-64.9697,-29.58564],[-64.82775,-29.56298],[-64.83537,-29.43297],[-64.8917,-29.34309],[-64.84731,-29.31293],[-64.89027,-29.28066],[-64.82567,-29.12556],[-64.83138,-29.04881],[-64.91851,-28.86888],[-65.02537,-28.74951],[-65.13236,-28.71737],[-65.14583,-28.6656]]]}},{"type":"Feature","properties":{"gid":"ARG.3_1","name":"查科省","nameEn":"Chaco","nameLocal":"","type":"Province","typeEn":"Province","groupZh":"省","area":99930.3,"iso":"AR-H","engtype":"Province","capital":"雷西斯滕西亚","pop":1140000,"blurb":"亚热带查科平原，棉花种植与林业发达。"},"geometry":{"type":"Polygon","coordinates":[[[-60.11628,-25.6566],[-60.19476,-25.64639],[-60.23507,-25.49302],[-60.28263,-25.4889],[-60.30379,-25.42656],[-60.34875,-25.42204],[-60.32364,-25.39296],[-60.47638,-25.26375],[-60.48628,-25.20178],[-60.66092,-25.15832],[-60.65252,-25.13355],[-60.89352,-25.02033],[-61.12399,-24.81798],[-61.15984,-24.70847],[-61.19518,-24.71427],[-61.2208,-24.65286],[-61.4595,-24.62625],[-61.6014,-24.46021],[-61.67841,-24.45313],[-61.78637,-24.3139],[-61.78792,-24.34062],[-61.87632,-24.31227],[-61.97342,-24.22995],[-62.1002,-24.21794],[-62.0959,-24.19055],[-62.17788,-24.20841],[-62.17664,-24.16696],[-62.28844,-24.13235],[-62.31179,-24.09314],[-62.34756,-24.11021],[-62.34776,-24.39442],[-63.42762,-25.65191],[-61.71229,-25.65553],[-61.71717,-27.99393],[-58.89299,-27.99935],[-58.81113,-27.78433],[-58.82502,-27.67141],[-58.87956,-27.60078],[-58.88721,-27.48224],[-58.76863,-27.38121],[-58.62374,-27.33244],[-58.59232,-27.23848],[-58.66249,-27.17217],[-58.64739,-27.13489],[-58.5538,-27.10296],[-58.54764,-27.03841],[-58.50523,-27.05761],[-58.50663,-27.00297],[-58.47505,-26.98623],[-58.4878,-26.92441],[-58.40463,-26.89894],[-58.36386,-26.85029],[-58.40004,-26.85159],[-58.38883,-26.82504],[-58.42649,-26.79744],[-58.48667,-26.79584],[-58.58055,-26.67706],[-58.68258,-26.63296],[-58.69624,-26.58502],[-58.75088,-26.59455],[-58.77628,-26.53951],[-58.85655,-26.50672],[-58.96229,-26.38703],[-59.07137,-26.36648],[-59.15053,-26.31637],[-59.14846,-26.28973],[-59.26734,-26.34354],[-59.31493,-26.31707],[-59.35511,-26.33313],[-59.42792,-26.15403],[-59.57317,-26.14804],[-59.63257,-26.11268],[-59.65974,-26.14215],[-59.67074,-26.0123],[-59.70601,-26.01487],[-59.74989,-25.93537],[-59.87821,-25.84193],[-59.86906,-25.80612],[-60.11628,-25.6566]]]}},{"type":"Feature","properties":{"gid":"ARG.4_1","name":"丘布特省","nameEn":"Chubut","nameLocal":"","type":"Province","typeEn":"Province","groupZh":"省","area":224529.3,"iso":"AR-U","engtype":"Province","capital":"罗森","pop":603000,"blurb":"巴塔哥尼亚北部，瓦尔德斯半岛观鲸与石油开采并重。"},"geometry":{"type":"MultiPolygon","coordinates":[[[[-68.61304,-46.00616],[-67.5907,-45.99792],[-67.53097,-45.95958],[-67.54542,-45.91625],[-67.4557,-45.8618],[-67.45541,-45.82125],[-67.36792,-45.78764],[-67.3482,-45.62764],[-66.94236,-45.26264],[-66.66431,-45.21236],[-66.51903,-45.22375],[-66.51264,-45.1968],[-66.59402,-45.17153],[-66.59847,-45.14041],[-66.47292,-45.1668],[-66.46403,-45.14292],[-66.53403,-45.14069],[-66.51292,-45.09375],[-66.36291,-45.06292],[-66.35986,-45.04014],[-66.2782,-45.05958],[-66.19486,-44.98292],[-66.00403,-45.00625],[-65.93653,-45.05153],[-65.8868,-45.03986],[-65.87458,-45.00236],[-65.82514,-45.01403],[-65.82902,-45.04097],[-65.80847,-45.01569],[-65.73681,-45.02514],[-65.69347,-45.06347],[-65.68486,-45.03764],[-65.60097,-45.02736],[-65.62431,-45.00791],[-65.58347,-45.00708],[-65.59431,-44.95681],[-65.51903,-44.92986],[-65.72375,-44.85708],[-65.68958,-44.71903],[-65.60847,-44.64875],[-65.4643,-44.60403],[-65.46181,-44.57625],[-65.36486,-44.58931],[-65.39403,-44.55486],[-65.35875,-44.53764],[-65.37597,-44.51764],[-65.27792,-44.51847],[-65.33347,-44.45486],[-65.21403,-44.36736],[-65.31097,-44.19708],[-65.27653,-44.14764],[-65.22069,-44.1393],[-65.2393,-44.07597],[-65.18681,-44.03486],[-65.25097,-44.02792],[-65.23041,-43.97208],[-65.29903,-43.93403],[-65.32764,-43.84625],[-65.30959,-43.79597],[-65.35375,-43.76375],[-65.33319,-43.65986],[-65.05263,-43.40403],[-65.05125,-43.33153],[-64.98347,-43.26042],[-64.78597,-43.16208],[-64.47292,-43.07014],[-64.30736,-42.9793],[-64.33125,-42.93431],[-64.48486,-42.94986],[-64.68708,-42.90181],[-65.01347,-42.78236],[-65.03403,-42.72653],[-64.93792,-42.6232],[-64.8493,-42.61792],[-64.68986,-42.51514],[-64.56958,-42.49125],[-64.34153,-42.53292],[-64.3093,-42.58653],[-64.26014,-42.58903],[-64.26875,-42.62264],[-64.2143,-42.62181],[-64.26097,-42.74792],[-64.14597,-42.87486],[-63.67903,-42.79208],[-63.63291,-42.76569],[-63.63903,-42.69958],[-63.58264,-42.60792],[-63.61097,-42.36458],[-63.66153,-42.29486],[-63.60541,-42.3582],[-63.60125,-42.50514],[-63.59708,-42.33292],[-63.73791,-42.09847],[-63.85403,-42.07903],[-64.07764,-42.17958],[-64.37958,-42.23708],[-64.09402,-42.25264],[-64.04847,-42.29458],[-64.07014,-42.33347],[-64.04486,-42.35708],[-64.12903,-42.42736],[-64.30153,-42.40375],[-64.43958,-42.4393],[-64.61681,-42.41153],[-64.55153,-42.30153],[-64.46264,-42.23875],[-64.87791,-42.18125],[-65.00153,-42.10486],[-65.06903,-41.9976],[-71.76412,-41.99953],[-71.72516,-42.11016],[-71.78172,-42.14813],[-71.92486,-42.18951],[-71.95719,-42.1411],[-72.05359,-42.11416],[-72.06727,-42.14743],[-72.17237,-42.13893],[-72.13104,-42.38411],[-72.02746,-42.40801],[-72.04713,-42.45241],[-72.01055,-42.48835],[-72.05556,-42.56991],[-72.11679,-42.60258],[-72.09696,-42.64199],[-72.17774,-42.68894],[-72.12871,-42.73144],[-72.16508,-42.79869],[-72.11938,-42.87567],[-72.14208,-42.90096],[-72.01295,-43.03057],[-71.93533,-43.05398],[-71.93296,-43.10199],[-71.72949,-43.19934],[-71.75711,-43.22825],[-71.73429,-43.31259],[-71.9055,-43.32209],[-71.89092,-43.38154],[-71.93306,-43.38629],[-71.91327,-43.41669],[-71.93388,-43.4498],[-71.84804,-43.48343],[-71.8913,-43.51041],[-71.87166,-43.55375],[-71.77661,-43.53867],[-71.75982,-43.58394],[-71.70762,-43.58441],[-71.703,-43.62551],[-71.58118,-43.65182],[-71.59984,-43.69737],[-71.6616,-43.70338],[-71.75398,-43.78852],[-71.76372,-43.84077],[-71.70824,-43.85491],[-71.70693,-43.89459],[-71.66549,-43.90223],[-71.64874,-43.94558],[-71.76741,-44.10718],[-71.84951,-44.11487],[-71.84518,-44.16081],[-71.78018,-44.21711],[-71.83135,-44.26601],[-71.78612,-44.33101],[-71.8401,-44.35084],[-71.81507,-44.41612],[-71.71453,-44.38102],[-71.66937,-44.40941],[-71.38611,-44.38555],[-71.34858,-44.42453],[-71.17168,-44.4397],[-71.12888,-44.47112],[-71.16171,-44.49919],[-71.09133,-44.53412],[-71.103,-44.59045],[-71.20085,-44.59164],[-71.23549,-44.64092],[-71.19418,-44.68548],[-71.20543,-44.75078],[-71.29266,-44.81389],[-71.47097,-44.73771],[-71.6628,-44.78761],[-71.78462,-44.7515],[-71.85618,-44.80197],[-72.06614,-44.75894],[-72.06811,-44.78782],[-72.02696,-44.80605],[-72.06722,-44.85034],[-72.03609,-44.86273],[-72.06582,-44.8761],[-72.04035,-44.90197],[-71.87936,-44.95952],[-71.81535,-44.9197],[-71.75431,-44.92698],[-71.74154,-44.95891],[-71.55985,-44.97787],[-71.55797,-45.03043],[-71.50531,-45.07162],[-71.52672,-45.10338],[-71.33318,-45.24132],[-71.3363,-45.32199],[-71.4472,-45.36629],[-71.43825,-45.39582],[-71.52946,-45.3941],[-71.53448,-45.43295],[-71.46995,-45.4952],[-71.55982,-45.52336],[-71.68225,-45.51306],[-71.76354,-45.5611],[-71.72629,-45.57756],[-71.77729,-45.61915],[-71.79606,-45.66546],[-71.77233,-45.69536],[-71.80193,-45.71978],[-71.74294,-45.80307],[-71.76346,-45.85282],[-71.6708,-45.87531],[-71.62391,-45.93504],[-71.61613,-45.97701],[-71.64824,-46.00673],[-68.61304,-46.00616]]],[[[-66.00708,-45.08181],[-66.00847,-45.10514],[-65.9632,-45.10958],[-66.00708,-45.08181]]],[[[-65.59847,-45.04264],[-65.62514,-45.06319],[-65.57181,-45.06708],[-65.59847,-45.04264]]]]}},{"type":"Feature","properties":{"gid":"ARG.5_1","name":"布宜诺斯艾利斯自治市","nameEn":"Ciudad de Buenos Aires","nameLocal":"","type":"Federal District","typeEn":"Federal District","groupZh":"联邦区","area":215.6,"iso":"NA","engtype":"Federal District","capital":"布宜诺斯艾利斯","pop":3120000,"blurb":"联邦首都，南美最大都市之一，探戈与博卡区发源地。"},"geometry":{"type":"Polygon","coordinates":[[[-58.34292,-34.63319],[-58.36153,-34.58125],[-58.45125,-34.53181],[-58.50051,-34.55409],[-58.53127,-34.61947],[-58.52893,-34.65953],[-58.46166,-34.70905],[-58.34292,-34.63319]]]}},{"type":"Feature","properties":{"gid":"ARG.6_1","name":"科尔多瓦省","nameEn":"Córdoba","nameLocal":"","type":"Province","typeEn":"Province","groupZh":"省","area":164500.4,"iso":"NA","engtype":"Province","capital":"科尔多瓦","pop":3950000,"blurb":"中部人口大省，工业与留学名城，西埃尔拉山地环绕。"},"geometry":{"type":"Polygon","coordinates":[[[-63.04897,-34.3842],[-62.86174,-34.36306],[-61.92498,-33.12473],[-61.79544,-33.01862],[-61.78934,-32.79098],[-61.86489,-32.69777],[-61.95321,-32.67374],[-61.88742,-32.60698],[-61.92011,-32.58582],[-61.9012,-32.55612],[-61.92822,-32.54028],[-61.93147,-32.45889],[-62.03931,-32.25749],[-62.1273,-32.20833],[-62.19479,-32.1171],[-62.17609,-31.97266],[-62.22964,-31.88673],[-62.21495,-31.78152],[-62.24963,-31.70164],[-62.13195,-31.60856],[-61.83227,-30.67349],[-61.98256,-30.64628],[-61.97818,-30.59803],[-62.02349,-30.59236],[-62.12774,-30.48811],[-62.1773,-30.33038],[-62.522,-30.32632],[-62.56305,-30.29047],[-62.59255,-30.17693],[-62.55992,-30.08235],[-62.76353,-29.93917],[-62.81066,-29.84223],[-62.78357,-29.81477],[-63.45188,-29.77591],[-63.45231,-29.72373],[-63.48328,-29.72275],[-63.46912,-29.66339],[-63.72277,-29.66338],[-63.77286,-29.64112],[-63.80717,-29.57],[-63.86525,-29.56977],[-63.89259,-29.61766],[-63.96255,-29.61723],[-63.97711,-29.54603],[-64.33191,-29.50332],[-64.9697,-29.58564],[-64.90726,-29.90663],[-65.12532,-30.06558],[-65.41371,-30.1224],[-65.53312,-30.48231],[-65.76972,-31.03168],[-65.77826,-31.88525],[-65.65512,-31.88498],[-65.29205,-32.05487],[-65.2485,-32.10879],[-65.21337,-32.3213],[-64.92877,-32.31835],[-64.93805,-32.43446],[-64.88675,-32.52917],[-64.88284,-32.57845],[-64.94083,-32.65735],[-64.92646,-32.70167],[-64.97726,-32.897],[-65.06278,-33.09314],[-65.05229,-33.14005],[-65.14829,-33.20248],[-65.10981,-33.91253],[-65.10672,-34.99768],[-63.39265,-34.99844],[-63.39386,-34.385],[-63.04897,-34.3842]]]}},{"type":"Feature","properties":{"gid":"ARG.7_1","name":"科连特斯省","nameEn":"Corrientes","nameLocal":"","type":"Province","typeEn":"Province","groupZh":"省","area":89129.0,"iso":"AR-W","engtype":"Province","capital":"科连特斯","pop":1190000,"blurb":"东北部伊贝拉湿地与巴拉那河，湿地生态丰富。"},"geometry":{"type":"Polygon","coordinates":[[[-57.64509,-30.1935],[-57.50484,-30.14306],[-57.34196,-30.00122],[-57.31834,-29.86758],[-57.25287,-29.7915],[-57.10449,-29.74896],[-56.97093,-29.63738],[-56.88911,-29.51851],[-56.81603,-29.47662],[-56.76515,-29.38033],[-56.67567,-29.32119],[-56.59727,-29.12669],[-56.42479,-29.07288],[-56.41017,-28.97657],[-56.31401,-28.91596],[-56.28425,-28.79103],[-56.18415,-28.76793],[-56.01545,-28.60781],[-56.01075,-28.50913],[-55.88802,-28.47917],[-55.90044,-28.40052],[-55.87405,-28.35937],[-55.74842,-28.3728],[-55.68981,-28.41536],[-55.66988,-28.33031],[-55.77483,-28.24777],[-55.63504,-28.17679],[-55.61629,-28.13215],[-55.73901,-28.04858],[-55.8228,-27.94418],[-55.8504,-27.76159],[-56.05787,-27.45783],[-56.04133,-27.3122],[-56.14348,-27.31252],[-56.28265,-27.40851],[-56.28965,-27.48805],[-56.39207,-27.6057],[-56.48222,-27.57844],[-56.51899,-27.50313],[-56.59286,-27.44603],[-56.70767,-27.46158],[-56.73728,-27.55948],[-56.85005,-27.60421],[-57.0,-27.51063],[-57.0,-27.46483],[-57.07588,-27.4871],[-57.32576,-27.41406],[-57.51085,-27.439],[-57.71569,-27.32749],[-58.20461,-27.2477],[-58.60636,-27.29533],[-58.63591,-27.34442],[-58.76863,-27.38121],[-58.88721,-27.48224],[-58.87956,-27.60078],[-58.82502,-27.67141],[-58.81266,-27.79508],[-58.90397,-28.09062],[-59.05331,-28.12454],[-59.09724,-28.2115],[-59.10024,-28.34336],[-59.0569,-28.48299],[-59.10954,-28.60639],[-59.07714,-28.64468],[-59.16119,-28.77826],[-59.20754,-29.04886],[-59.32926,-29.09991],[-59.39906,-29.20986],[-59.49294,-29.22505],[-59.52537,-29.31811],[-59.60914,-29.4037],[-59.60295,-29.64685],[-59.6373,-29.69878],[-59.61816,-29.75431],[-59.6801,-29.83067],[-59.62395,-29.88284],[-59.56296,-30.02844],[-59.59946,-30.06101],[-59.6224,-30.22799],[-59.6889,-30.27887],[-59.66083,-30.34856],[-59.59591,-30.42563],[-59.55446,-30.3341],[-59.39772,-30.32074],[-59.23936,-30.36093],[-59.0206,-30.21881],[-58.88079,-30.23992],[-58.68154,-30.16446],[-58.58065,-30.16577],[-58.36021,-30.26257],[-58.27177,-30.2476],[-58.2035,-30.2944],[-58.13657,-30.39244],[-58.06693,-30.42217],[-58.05817,-30.54346],[-58.01611,-30.59798],[-57.83357,-30.70356],[-57.80787,-30.75542],[-57.89224,-30.513],[-57.64776,-30.34901],[-57.61556,-30.25248],[-57.64509,-30.1935]]]}},{"type":"Feature","properties":{"gid":"ARG.8_1","name":"恩特雷里奥斯省","nameEn":"Entre Ríos","nameLocal":"","type":"Province","typeEn":"Province","groupZh":"省","area":78145.3,"iso":"NA","engtype":"Province","capital":"巴拉那","pop":1440000,"blurb":"两河之间的温润省，温泉与柑橘种植业兴盛。"},"geometry":{"type":"Polygon","coordinates":[[[-59.1991,-33.79928],[-59.13072,-33.84258],[-59.00636,-33.83375],[-58.84994,-33.93994],[-58.76382,-33.94292],[-58.65878,-34.03868],[-58.41736,-34.00427],[-58.40681,-33.958],[-58.46585,-33.89306],[-58.45018,-33.82057],[-58.5541,-33.67796],[-58.52319,-33.45437],[-58.41826,-33.29303],[-58.40819,-33.12791],[-58.43176,-33.09301],[-58.34149,-33.06691],[-58.34882,-33.11298],[-58.25087,-33.09839],[-58.0841,-32.99782],[-58.20464,-32.46055],[-58.18229,-32.3722],[-58.10397,-32.30836],[-58.10008,-32.25518],[-58.18367,-32.15502],[-58.13852,-32.00104],[-58.20683,-31.86879],[-58.08565,-31.81929],[-58.03764,-31.75476],[-57.98063,-31.5784],[-58.08202,-31.45647],[-57.97924,-31.3858],[-57.99637,-31.35961],[-57.9104,-31.219],[-57.90828,-31.11846],[-57.86601,-31.04807],[-57.90709,-30.94523],[-57.8096,-30.91332],[-57.80134,-30.7784],[-57.83134,-30.70531],[-58.0179,-30.59584],[-58.05817,-30.54346],[-58.06693,-30.42217],[-58.13657,-30.39244],[-58.2035,-30.2944],[-58.27177,-30.2476],[-58.35738,-30.26331],[-58.58593,-30.16485],[-58.68154,-30.16446],[-58.88079,-30.23992],[-59.0206,-30.21881],[-59.23936,-30.36093],[-59.39772,-30.32074],[-59.55446,-30.3341],[-59.59591,-30.42563],[-59.66083,-30.34856],[-59.70813,-30.40833],[-59.65081,-30.52013],[-59.6723,-30.6322],[-59.62479,-30.69252],[-59.68745,-30.80817],[-59.74359,-30.832],[-59.88137,-31.04979],[-59.96012,-31.1113],[-60.01523,-31.24373],[-60.0954,-31.28626],[-60.14079,-31.43797],[-60.24104,-31.52008],[-60.32817,-31.54696],[-60.32523,-31.60568],[-60.4306,-31.67876],[-60.66005,-31.72552],[-60.66264,-31.91039],[-60.72379,-32.00487],[-60.65786,-32.07763],[-60.73337,-32.1683],[-60.67399,-32.22453],[-60.6731,-32.30368],[-60.7367,-32.31481],[-60.71194,-32.39905],[-60.75598,-32.49089],[-60.74915,-32.61586],[-60.6955,-32.70861],[-60.71696,-32.75785],[-60.67371,-32.82653],[-60.67739,-32.90001],[-60.609,-32.9544],[-60.53014,-33.09518],[-60.38558,-33.18394],[-60.31598,-33.17414],[-60.3019,-33.23665],[-60.20611,-33.28465],[-60.1847,-33.33941],[-60.02145,-33.45377],[-59.83201,-33.52161],[-59.79715,-33.5992],[-59.67824,-33.61748],[-59.6158,-33.69048],[-59.51436,-33.63265],[-59.45936,-33.71936],[-59.4113,-33.73695],[-59.25574,-33.71823],[-59.25218,-33.78453],[-59.1991,-33.79928]]]}},{"type":"Feature","properties":{"gid":"ARG.9_1","name":"福尔摩沙省","nameEn":"Formosa","nameLocal":"","type":"Province","typeEn":"Province","groupZh":"省","area":75693.9,"iso":"AR-P","engtype":"Province","capital":"福尔摩沙","pop":606000,"blurb":"最北省份，热带湿地与巴拉圭交界，地广人稀。"},"geometry":{"type":"Polygon","coordinates":[[[-58.36386,-26.85029],[-58.32235,-26.86663],[-58.35824,-26.81294],[-58.28956,-26.80017],[-58.29473,-26.76168],[-58.25027,-26.75323],[-58.25001,-26.64239],[-58.18828,-26.63963],[-58.22502,-26.47096],[-58.17674,-26.45008],[-58.20637,-26.3949],[-58.1539,-26.3236],[-58.16739,-26.26559],[-58.11317,-26.23658],[-58.15548,-26.18055],[-58.11674,-26.18204],[-58.08001,-26.11622],[-57.84935,-26.00602],[-57.88268,-25.93685],[-57.83944,-25.91733],[-57.85654,-25.86091],[-57.79676,-25.8296],[-57.81383,-25.76092],[-57.73204,-25.72334],[-57.76453,-25.68143],[-57.67871,-25.65951],[-57.6711,-25.60136],[-57.60899,-25.61751],[-57.56644,-25.56463],[-57.55595,-25.44485],[-57.6723,-25.32417],[-57.66695,-25.27411],[-57.72206,-25.26403],[-57.86712,-25.08188],[-57.98526,-25.08095],[-57.99721,-25.03946],[-58.06658,-25.04345],[-58.22954,-24.93014],[-58.32726,-24.99917],[-58.49346,-24.85124],[-58.66541,-24.83119],[-58.71876,-24.77849],[-58.81346,-24.76832],[-58.96872,-24.66652],[-59.12178,-24.6191],[-59.35299,-24.48472],[-59.47596,-24.3371],[-60.04662,-24.01213],[-60.33463,-24.04564],[-60.4525,-23.96409],[-60.56743,-23.95698],[-60.60306,-23.90195],[-60.83673,-23.87149],[-60.93194,-23.8048],[-60.98194,-23.81165],[-61.08684,-23.68696],[-61.0958,-23.612],[-61.17176,-23.5485],[-61.23466,-23.54853],[-61.35789,-23.44594],[-61.39528,-23.46018],[-61.49502,-23.41564],[-61.5277,-23.36859],[-61.50737,-23.34751],[-61.61147,-23.28512],[-61.68917,-23.27627],[-61.86316,-23.08662],[-61.98925,-23.02078],[-62.04327,-22.87223],[-62.20132,-22.71009],[-62.18873,-22.64869],[-62.26659,-22.5953],[-62.23996,-22.53739],[-62.34463,-22.4616],[-62.34756,-24.11021],[-62.31179,-24.09314],[-62.28844,-24.13235],[-62.19289,-24.15389],[-62.17788,-24.20841],[-62.0959,-24.19055],[-62.1002,-24.21794],[-61.97342,-24.22995],[-61.87632,-24.31227],[-61.78792,-24.34062],[-61.78637,-24.3139],[-61.67841,-24.45313],[-61.6014,-24.46021],[-61.4595,-24.62625],[-61.2208,-24.65286],[-61.19518,-24.71427],[-61.15984,-24.70847],[-61.12399,-24.81798],[-60.89352,-25.02033],[-60.65252,-25.13355],[-60.66092,-25.15832],[-60.48628,-25.20178],[-60.47638,-25.26375],[-60.32364,-25.39296],[-60.34875,-25.42204],[-60.30379,-25.42656],[-60.28263,-25.4889],[-60.23507,-25.49302],[-60.19476,-25.64639],[-60.05416,-25.68],[-59.86906,-25.80612],[-59.87821,-25.84193],[-59.74989,-25.93537],[-59.70601,-26.01487],[-59.67074,-26.0123],[-59.65974,-26.14215],[-59.63257,-26.11268],[-59.57317,-26.14804],[-59.42792,-26.15403],[-59.35511,-26.33313],[-59.31493,-26.31707],[-59.26734,-26.34354],[-59.14846,-26.28973],[-59.15053,-26.31637],[-59.07137,-26.36648],[-58.96229,-26.38703],[-58.85655,-26.50672],[-58.77628,-26.53951],[-58.75088,-26.59455],[-58.69624,-26.58502],[-58.68258,-26.63296],[-58.58055,-26.67706],[-58.48667,-26.79584],[-58.42649,-26.79744],[-58.38883,-26.82504],[-58.40004,-26.85159],[-58.36386,-26.85029]]]}},{"type":"Feature","properties":{"gid":"ARG.10_1","name":"胡胡伊省","nameEn":"Jujuy","nameLocal":"","type":"Province","typeEn":"Province","groupZh":"省","area":53355.4,"iso":"AR-Y","engtype":"Province","capital":"圣萨尔瓦多-德胡胡伊","pop":797000,"blurb":"西北山区，七色山与安第斯盐湖，印加文化浓厚。"},"geometry":{"type":"Polygon","coordinates":[[[-64.44048,-23.63004],[-64.54929,-23.5189],[-64.67001,-23.45814],[-64.81098,-23.51034],[-64.87045,-23.5011],[-64.94959,-23.32912],[-65.02905,-23.27685],[-65.01334,-23.01968],[-65.03494,-22.99393],[-65.1786,-22.98344],[-65.24276,-22.93013],[-65.28986,-22.73267],[-65.26637,-22.63476],[-65.33959,-22.59034],[-65.34,-22.50008],[-65.23904,-22.31789],[-65.1958,-22.10305],[-65.09452,-22.08397],[-65.57492,-22.07554],[-65.58936,-22.0987],[-65.74802,-22.10924],[-65.9248,-21.93355],[-66.04819,-21.91902],[-66.07631,-21.83498],[-66.22148,-21.78137],[-66.28949,-22.08698],[-66.35698,-22.13216],[-66.73929,-22.23846],[-66.78247,-22.43807],[-66.92857,-22.49223],[-66.97296,-22.54066],[-67.02727,-22.54088],[-67.01408,-22.65481],[-67.12777,-22.72211],[-67.1816,-22.81445],[-66.99018,-22.99996],[-67.21538,-23.7011],[-67.00558,-23.86432],[-67.00291,-23.95943],[-66.93476,-23.95557],[-66.80731,-24.09253],[-66.74758,-24.08788],[-66.71928,-24.13837],[-66.59577,-24.19657],[-66.4763,-24.20771],[-66.36716,-24.08667],[-66.32809,-23.72427],[-66.3947,-23.53926],[-66.33603,-23.36792],[-65.99012,-23.5154],[-66.02526,-23.8199],[-65.999,-23.95257],[-65.82937,-23.9994],[-65.62273,-24.33581],[-65.62812,-24.37486],[-65.57265,-24.42709],[-65.50995,-24.45862],[-65.454,-24.43177],[-65.4267,-24.47045],[-65.35136,-24.46752],[-65.33356,-24.5018],[-65.18542,-24.46095],[-65.079,-24.56491],[-64.91054,-24.60438],[-64.83212,-24.47771],[-64.62972,-24.60868],[-64.5278,-24.49274],[-64.27963,-24.41278],[-64.15573,-24.20688],[-64.17354,-23.507],[-64.35597,-23.50659],[-64.44048,-23.63004]]]}},{"type":"Feature","properties":{"gid":"ARG.11_1","name":"拉潘帕省","nameEn":"La Pampa","nameLocal":"","type":"Province","typeEn":"Province","groupZh":"省","area":142886.7,"iso":"AR-L","engtype":"Province","capital":"圣罗莎","pop":366000,"blurb":"中部潘帕斯草原腹地，畜牧与小麦为主。"},"geometry":{"type":"Polygon","coordinates":[[[-63.38943,-38.43159],[-63.39265,-34.99844],[-65.10672,-34.99768],[-65.10225,-35.99694],[-68.29579,-35.99852],[-68.29581,-36.16628],[-68.24169,-36.16571],[-68.24275,-37.57786],[-67.88111,-37.61308],[-67.78739,-37.65549],[-67.71621,-37.8155],[-67.89915,-38.0007],[-67.84367,-38.06526],[-67.75056,-38.06856],[-67.58903,-38.2429],[-67.36839,-38.25267],[-67.18542,-38.2141],[-67.14957,-38.35752],[-66.99168,-38.44264],[-66.6379,-38.53327],[-66.57702,-38.6197],[-66.59723,-38.67251],[-66.4374,-38.74617],[-66.07445,-38.72587],[-65.66038,-38.83058],[-65.55482,-38.77556],[-65.36491,-38.85155],[-65.27097,-38.81761],[-65.18829,-38.83179],[-65.15051,-38.80079],[-64.45658,-38.85825],[-64.00149,-39.00776],[-63.90462,-39.09604],[-63.76892,-39.12648],[-63.62882,-39.24203],[-63.40995,-39.32099],[-63.38855,-39.31832],[-63.38943,-38.43159]]]}},{"type":"Feature","properties":{"gid":"ARG.12_1","name":"拉里奥哈省","nameEn":"La Rioja","nameLocal":"","type":"Province","typeEn":"Province","groupZh":"省","area":91204.8,"iso":"AR-F","engtype":"Province","capital":"拉里奥哈","pop":414000,"blurb":"干旱西北省，葡萄酒与塔拉姆帕亚峡谷世界遗产。"},"geometry":{"type":"Polygon","coordinates":[[[-65.77586,-31.64535],[-65.76972,-31.03168],[-65.53312,-30.48231],[-65.41371,-30.1224],[-65.75264,-29.27732],[-65.829,-29.25342],[-65.82858,-29.18089],[-66.10976,-28.94081],[-66.21989,-28.88984],[-66.39798,-28.86357],[-66.33101,-28.73951],[-66.48956,-28.64071],[-66.48933,-28.54449],[-66.52773,-28.53009],[-66.51777,-28.45292],[-66.57945,-28.32015],[-66.99638,-28.24267],[-67.09115,-28.27921],[-67.16038,-28.3801],[-67.38269,-28.38138],[-67.65487,-28.31279],[-67.8095,-28.35042],[-67.8176,-28.38647],[-67.92222,-28.21343],[-67.91765,-28.12204],[-68.10336,-28.15974],[-68.18018,-28.091],[-68.28327,-28.08607],[-68.30281,-28.02416],[-68.44564,-28.02289],[-68.42751,-27.88268],[-68.50558,-27.80446],[-68.49202,-27.73382],[-68.55305,-27.7108],[-68.84559,-27.78051],[-69.08902,-27.77303],[-69.17305,-27.97154],[-69.23794,-27.96699],[-69.33613,-28.16427],[-69.38328,-28.1842],[-69.39139,-28.2272],[-69.45669,-28.18389],[-69.52355,-28.32982],[-69.59277,-28.38407],[-69.48377,-28.40264],[-69.44736,-28.44315],[-69.35233,-28.43507],[-69.19792,-28.58992],[-69.14233,-28.7399],[-68.94927,-28.91421],[-68.96656,-28.97002],[-68.90359,-29.05832],[-68.93464,-29.12534],[-68.97388,-29.11254],[-69.00649,-29.14853],[-68.95207,-29.29173],[-68.99321,-29.40309],[-68.95664,-29.44296],[-69.03096,-29.52122],[-69.00292,-29.61536],[-68.95094,-29.63496],[-68.87978,-29.59338],[-68.82967,-29.61639],[-68.69293,-29.60106],[-68.61423,-29.64034],[-68.33401,-29.67622],[-68.24477,-29.77669],[-68.19571,-29.78805],[-68.17361,-29.84763],[-68.10327,-29.84568],[-68.00436,-29.97107],[-67.69086,-30.18775],[-67.57639,-30.30775],[-67.55123,-30.40745],[-67.17977,-30.72253],[-67.07632,-30.88713],[-67.11644,-31.02088],[-67.06229,-31.08579],[-67.10014,-31.38745],[-67.05477,-31.55323],[-66.94613,-31.63775],[-66.86946,-31.63811],[-66.84921,-31.78386],[-66.76469,-31.81853],[-66.6466,-31.94158],[-66.34264,-32.00254],[-66.30636,-31.94263],[-66.15324,-31.97051],[-66.1239,-31.9459],[-66.07526,-31.97284],[-65.95535,-31.88598],[-65.77826,-31.88525],[-65.77586,-31.64535]]]}},{"type":"Feature","properties":{"gid":"ARG.13_1","name":"门多萨省","nameEn":"Mendoza","nameLocal":"","type":"Province","typeEn":"Province","groupZh":"省","area":148791.5,"iso":"AR-M","engtype":"Province","capital":"门多萨","pop":2014000,"blurb":"安第斯山麓，马尔贝克葡萄酒与阿空加瓜峰（南美最高峰）。"},"geometry":{"type":"Polygon","coordinates":[[[-68.29579,-36.13807],[-68.29579,-35.99852],[-66.62605,-35.99893],[-66.63175,-35.90921],[-66.55914,-35.63976],[-66.57771,-35.59679],[-66.53372,-35.52554],[-66.50362,-35.15216],[-66.55029,-35.02135],[-66.5537,-34.89608],[-66.65506,-34.74708],[-66.64066,-34.71296],[-66.75038,-34.58795],[-66.7726,-34.4256],[-66.80672,-34.39214],[-66.78445,-34.36314],[-66.81712,-34.33067],[-66.80666,-34.24013],[-66.74358,-34.19442],[-66.72667,-34.00239],[-66.7411,-33.94724],[-66.82384,-33.8988],[-66.89805,-33.76069],[-67.00179,-33.69126],[-67.01144,-33.60377],[-67.06282,-33.57502],[-67.15629,-33.43259],[-67.21976,-32.93584],[-67.19031,-32.76431],[-67.24902,-32.68301],[-67.33108,-32.4095],[-67.38152,-32.33842],[-67.45831,-32.30434],[-67.51098,-32.19798],[-67.54831,-32.22007],[-67.82668,-32.2084],[-67.91331,-32.15947],[-67.9689,-32.07283],[-68.06275,-32.06927],[-68.28992,-32.1362],[-68.46812,-32.10405],[-68.48805,-32.17807],[-68.66317,-32.33098],[-68.93155,-32.32346],[-68.93112,-32.0975],[-69.01649,-32.11179],[-69.15683,-31.9687],[-69.31741,-32.0896],[-69.42317,-32.06647],[-69.59439,-32.13978],[-69.61985,-32.23904],[-69.71152,-32.33448],[-69.69605,-32.5202],[-69.83437,-32.56958],[-69.98289,-32.53957],[-70.03254,-32.56829],[-70.05602,-32.62867],[-70.12629,-32.57267],[-70.17205,-32.62112],[-70.10789,-32.80071],[-69.98935,-32.8983],[-70.01989,-33.00733],[-70.09365,-33.05144],[-70.0522,-33.13539],[-70.06422,-33.20583],[-70.02662,-33.23494],[-70.03872,-33.27023],[-70.00165,-33.32276],[-69.91802,-33.2447],[-69.90434,-33.27293],[-69.8009,-33.28737],[-69.76981,-33.34316],[-69.78483,-33.39111],[-69.81573,-33.39114],[-69.7958,-33.42222],[-69.83536,-33.51538],[-69.87153,-33.53948],[-69.86427,-33.71648],[-69.90421,-33.7732],[-69.89833,-33.84758],[-69.85539,-33.89224],[-69.90593,-33.96346],[-69.85352,-33.96353],[-69.82157,-34.01556],[-69.87322,-34.13304],[-69.79713,-34.20917],[-69.80659,-34.24809],[-69.90845,-34.29045],[-69.97347,-34.24985],[-70.03055,-34.28855],[-70.01292,-34.41192],[-70.13179,-34.48788],[-70.21787,-34.61187],[-70.21603,-34.68425],[-70.30639,-34.74769],[-70.24828,-34.79911],[-70.33261,-34.93718],[-70.33321,-34.99023],[-70.36502,-35.00529],[-70.37446,-35.16978],[-70.56791,-35.22358],[-70.56695,-35.29892],[-70.43198,-35.31864],[-70.44675,-35.46345],[-70.36753,-35.51962],[-70.4135,-35.52843],[-70.38466,-35.60549],[-70.42302,-35.64075],[-70.35819,-35.74946],[-70.3793,-35.78691],[-70.31175,-35.81323],[-70.42127,-35.87634],[-70.42308,-35.91526],[-70.36505,-35.92501],[-70.42203,-35.97064],[-70.37479,-35.99478],[-70.36922,-36.03825],[-70.42576,-36.09884],[-70.36334,-36.32133],[-70.22066,-36.33776],[-70.20071,-36.45148],[-70.12473,-36.56807],[-69.95011,-36.69749],[-69.90437,-36.79107],[-69.76016,-36.86645],[-69.7748,-36.98035],[-69.70444,-37.09076],[-69.48882,-37.17472],[-69.27832,-37.14249],[-69.14956,-37.18188],[-69.04071,-37.24691],[-69.0158,-37.36321],[-68.86585,-37.39534],[-68.76343,-37.36643],[-68.69427,-37.4395],[-68.49622,-37.45468],[-68.42994,-37.546],[-68.24275,-37.57786],[-68.24169,-36.16571],[-68.29581,-36.16628],[-68.29579,-36.13807]]]}},{"type":"Feature","properties":{"gid":"ARG.14_1","name":"米西奥内斯省","nameEn":"Misiones","nameLocal":"","type":"Province","typeEn":"Province","groupZh":"省","area":29982.5,"iso":"AR-N","engtype":"Province","capital":"波萨达斯","pop":1280000,"blurb":"东北亚热带雨林，伊瓜苏瀑布与耶稣会遗址。"},"geometry":{"type":"Polygon","coordinates":[[[-55.32273,-27.928],[-55.196,-27.86306],[-55.13383,-27.89542],[-55.11698,-27.85318],[-55.03188,-27.85393],[-55.08089,-27.78732],[-54.94052,-27.77511],[-54.90033,-27.64091],[-54.84715,-27.62338],[-54.80801,-27.53302],[-54.7751,-27.58801],[-54.67025,-27.5682],[-54.67472,-27.5113],[-54.62035,-27.54797],[-54.57641,-27.4583],[-54.52467,-27.50687],[-54.44962,-27.47646],[-54.47157,-27.43037],[-54.41495,-27.41213],[-54.35321,-27.46751],[-54.33897,-27.40554],[-54.27752,-27.44509],[-54.26518,-27.40084],[-54.21625,-27.38164],[-54.17596,-27.26069],[-54.1549,-27.2981],[-54.08906,-27.30265],[-54.00891,-27.20455],[-53.95662,-27.19936],[-53.94872,-27.15544],[-53.90122,-27.17414],[-53.86301,-27.13087],[-53.83033,-27.17094],[-53.79599,-27.14138],[-53.813,-27.10377],[-53.77532,-27.10492],[-53.79433,-27.04495],[-53.762,-27.0669],[-53.77693,-27.03508],[-53.74689,-27.03676],[-53.72644,-26.9651],[-53.67255,-26.94482],[-53.69001,-26.86722],[-53.66116,-26.84187],[-53.69382,-26.84651],[-53.70111,-26.777],[-53.73521,-26.7733],[-53.71439,-26.74922],[-53.74889,-26.74373],[-53.714,-26.66355],[-53.75213,-26.64334],[-53.70613,-26.55965],[-53.73716,-26.54547],[-53.69382,-26.4857],[-53.69934,-26.36381],[-53.68485,-26.33662],[-53.62479,-26.33814],[-53.59184,-26.26489],[-53.72242,-26.12911],[-53.73383,-26.04266],[-53.83658,-25.96576],[-53.81901,-25.89962],[-53.85095,-25.88329],[-53.82383,-25.87301],[-53.84961,-25.83958],[-53.82299,-25.79061],[-53.88062,-25.7064],[-53.84318,-25.68646],[-53.88982,-25.62244],[-53.93967,-25.61137],[-53.95074,-25.64076],[-54.01543,-25.56617],[-54.07899,-25.57597],[-54.10036,-25.62252],[-54.12877,-25.56658],[-54.10986,-25.50155],[-54.2127,-25.5545],[-54.1833,-25.58835],[-54.23231,-25.56796],[-54.25081,-25.59964],[-54.28728,-25.55981],[-54.38673,-25.60469],[-54.42947,-25.70309],[-54.4898,-25.62675],[-54.59564,-25.59212],[-54.59,-25.66619],[-54.65945,-25.68188],[-54.59062,-25.83386],[-54.62269,-25.91788],[-54.60753,-25.96243],[-54.68156,-25.99761],[-54.6425,-26.0903],[-54.67384,-26.1617],[-54.62034,-26.21711],[-54.67995,-26.26661],[-54.64986,-26.31799],[-54.70655,-26.45289],[-54.80412,-26.54546],[-54.78447,-26.6155],[-54.81403,-26.67385],[-54.93895,-26.69318],[-54.96195,-26.79058],[-55.05309,-26.80055],[-55.13518,-26.86629],[-55.14314,-26.95481],[-55.20596,-26.96884],[-55.26162,-26.9408],[-55.41965,-26.99621],[-55.45657,-27.10217],[-55.54827,-27.11181],[-55.56575,-27.16253],[-55.61543,-27.17562],[-55.58043,-27.24825],[-55.59553,-27.33704],[-55.7326,-27.4448],[-55.82849,-27.43322],[-55.89998,-27.34572],[-56.02844,-27.32048],[-56.05787,-27.45783],[-55.8504,-27.76159],[-55.8228,-27.94418],[-55.7085,-28.0756],[-55.61629,-28.13215],[-55.585,-28.1196],[-55.5543,-28.16401],[-55.49507,-28.0782],[-55.44798,-28.09631],[-55.37864,-28.04033],[-55.38475,-27.98806],[-55.32273,-27.928]]]}},{"type":"Feature","properties":{"gid":"ARG.15_1","name":"内乌肯省","nameEn":"Neuquén","nameLocal":"","type":"Province","typeEn":"Province","groupZh":"省","area":94540.0,"iso":"NA","engtype":"Province","capital":"内乌肯","pop":726000,"blurb":"巴塔哥尼亚能源省，天然气与水电站，纳韦尔瓦皮湖。"},"geometry":{"type":"Polygon","coordinates":[[[-70.90638,-40.62054],[-70.66331,-40.58891],[-70.52448,-40.50365],[-70.42072,-40.53649],[-70.18602,-40.48818],[-70.1812,-40.42345],[-70.06155,-40.36977],[-70.06153,-40.24643],[-69.95444,-40.1795],[-70.00447,-40.04684],[-69.93463,-39.94662],[-69.69499,-39.84586],[-69.50721,-39.80804],[-69.35939,-39.71425],[-69.23013,-39.56276],[-68.99393,-39.50403],[-68.83797,-39.38423],[-68.81057,-39.28443],[-68.67487,-39.22121],[-68.66801,-39.16666],[-68.56669,-39.08559],[-68.29009,-38.9812],[-68.08658,-38.99221],[-68.0127,-38.96892],[-68.0721,-38.90487],[-68.1254,-38.75122],[-68.24534,-38.68764],[-68.24275,-37.57786],[-68.42994,-37.546],[-68.49622,-37.45468],[-68.69427,-37.4395],[-68.76343,-37.36643],[-68.86585,-37.39534],[-69.0158,-37.36321],[-69.04071,-37.24691],[-69.14956,-37.18188],[-69.27832,-37.14249],[-69.48882,-37.17472],[-69.70444,-37.09076],[-69.7748,-36.98035],[-69.76016,-36.86645],[-69.90437,-36.79107],[-69.95011,-36.69749],[-70.12473,-36.56807],[-70.20071,-36.45148],[-70.22066,-36.33776],[-70.36499,-36.31936],[-70.41235,-36.10312],[-70.44831,-36.17251],[-70.57045,-36.13331],[-70.57105,-36.175],[-70.63178,-36.23856],[-70.70558,-36.27205],[-70.68369,-36.30477],[-70.71112,-36.34484],[-70.67768,-36.38872],[-70.71244,-36.4269],[-70.88346,-36.39639],[-70.89432,-36.47187],[-70.95895,-36.5035],[-71.03558,-36.47447],[-71.05747,-36.61822],[-71.00902,-36.69085],[-71.06618,-36.71454],[-71.11327,-36.67994],[-71.13223,-36.81422],[-71.17974,-36.84127],[-71.12212,-36.86359],[-71.14474,-36.92914],[-71.08725,-36.93372],[-71.10555,-36.97078],[-71.22244,-36.97786],[-71.16718,-36.99725],[-71.09254,-37.11487],[-71.13454,-37.14227],[-71.11487,-37.20674],[-71.22074,-37.27491],[-71.19927,-37.38117],[-71.15183,-37.40223],[-71.11849,-37.46884],[-71.14992,-37.53934],[-71.12774,-37.5872],[-71.20729,-37.64831],[-71.20932,-37.69835],[-71.15566,-37.75702],[-71.16962,-37.78391],[-71.12555,-37.82193],[-71.18348,-37.85804],[-71.10716,-37.89109],[-71.11418,-37.95174],[-71.06176,-37.97047],[-71.05566,-38.04462],[-70.989,-38.08789],[-71.04395,-38.12283],[-70.99557,-38.17074],[-71.03256,-38.24947],[-70.99702,-38.29146],[-70.98375,-38.43067],[-70.84175,-38.53951],[-70.82741,-38.59596],[-70.90332,-38.66785],[-70.88353,-38.70176],[-70.92505,-38.76355],[-71.09567,-38.75491],[-71.18585,-38.81451],[-71.23847,-38.80224],[-71.29581,-38.87194],[-71.43351,-38.92914],[-71.44048,-38.97786],[-71.39717,-39.04601],[-71.4212,-39.15117],[-71.37366,-39.28245],[-71.39945,-39.34971],[-71.45752,-39.37162],[-71.47311,-39.49204],[-71.5342,-39.52724],[-71.46107,-39.58338],[-71.50261,-39.63714],[-71.60837,-39.62847],[-71.67339,-39.56384],[-71.69812,-39.58813],[-71.71583,-39.64936],[-71.66918,-39.68238],[-71.7122,-39.72457],[-71.66697,-39.80763],[-71.68883,-39.84901],[-71.64172,-39.85507],[-71.5921,-39.91236],[-71.68782,-40.0325],[-71.67393,-40.10499],[-71.81367,-40.08008],[-71.83093,-40.10482],[-71.80045,-40.11391],[-71.82371,-40.23276],[-71.74699,-40.3067],[-71.71678,-40.27876],[-71.68428,-40.2936],[-71.65666,-40.36373],[-71.74099,-40.43729],[-71.82547,-40.42048],[-71.84308,-40.5248],[-71.89128,-40.55573],[-71.85811,-40.59152],[-71.82546,-40.57761],[-71.84436,-40.62764],[-71.96504,-40.74568],[-71.92012,-40.78544],[-71.90871,-40.85681],[-71.85939,-40.87943],[-71.85653,-40.95884],[-71.90865,-40.97308],[-71.85821,-41.03355],[-71.53773,-41.02466],[-71.35848,-41.08902],[-71.23661,-41.09443],[-71.13351,-41.0471],[-71.10147,-40.98685],[-71.03894,-40.95485],[-71.0337,-40.88395],[-71.09759,-40.83432],[-71.118,-40.75869],[-70.90638,-40.62054]]]}},{"type":"Feature","properties":{"gid":"ARG.16_1","name":"内格罗河省","nameEn":"Río Negro","nameLocal":"","type":"Province","typeEn":"Province","groupZh":"省","area":202334.3,"iso":"NA","engtype":"Province","capital":"别德马","pop":762000,"blurb":"巴塔哥尼亚北端，河谷果园与樱桃出口，内格罗河灌溉。"},"geometry":{"type":"Polygon","coordinates":[[[-62.79958,-41.02736],[-62.8075,-40.97467],[-62.95205,-40.81991],[-63.19358,-40.71577],[-63.38754,-40.70657],[-63.38855,-39.31832],[-63.62882,-39.24203],[-63.76596,-39.12802],[-63.90462,-39.09604],[-64.00149,-39.00776],[-64.45658,-38.85825],[-65.15051,-38.80079],[-65.18829,-38.83179],[-65.27097,-38.81761],[-65.36786,-38.85138],[-65.55482,-38.77556],[-65.66038,-38.83058],[-66.07445,-38.72587],[-66.31516,-38.75518],[-66.47484,-38.7354],[-66.59723,-38.67251],[-66.57702,-38.6197],[-66.6379,-38.53327],[-66.99168,-38.44264],[-67.14957,-38.35752],[-67.18542,-38.2141],[-67.37135,-38.25275],[-67.54436,-38.25148],[-67.64042,-38.21179],[-67.75056,-38.06856],[-67.84367,-38.06526],[-67.89915,-38.0007],[-67.71621,-37.8155],[-67.78555,-37.65736],[-67.88111,-37.61308],[-68.24275,-37.57786],[-68.24534,-38.68764],[-68.1254,-38.75122],[-68.01627,-38.97934],[-68.29009,-38.9812],[-68.56669,-39.08559],[-68.66801,-39.16666],[-68.67487,-39.22121],[-68.81057,-39.28443],[-68.83797,-39.38423],[-68.99393,-39.50403],[-69.23013,-39.56276],[-69.35939,-39.71425],[-69.50721,-39.80804],[-69.69499,-39.84586],[-69.93463,-39.94662],[-70.00447,-40.04684],[-69.95444,-40.1795],[-70.06153,-40.24643],[-70.06155,-40.36977],[-70.1812,-40.42345],[-70.17197,-40.4794],[-70.42072,-40.53649],[-70.52739,-40.50422],[-70.66331,-40.58891],[-70.85651,-40.59945],[-70.9843,-40.64836],[-71.0368,-40.7253],[-71.08894,-40.72472],[-71.11893,-40.76097],[-71.09759,-40.83432],[-71.02723,-40.90425],[-71.03894,-40.95485],[-71.10147,-40.98685],[-71.13593,-41.04858],[-71.29186,-41.09631],[-71.53773,-41.02466],[-71.83983,-41.02421],[-71.81818,-41.0626],[-71.85124,-41.09874],[-71.83888,-41.14893],[-71.8871,-41.16831],[-71.83396,-41.27175],[-71.89896,-41.25553],[-71.87622,-41.30882],[-71.90959,-41.35797],[-71.83638,-41.43271],[-71.85239,-41.51553],[-71.81763,-41.5756],[-71.84802,-41.56638],[-71.8854,-41.60636],[-71.79434,-41.69436],[-71.81006,-41.72072],[-71.75305,-41.78556],[-71.77311,-41.79504],[-71.75084,-41.82472],[-71.79746,-41.84291],[-71.76978,-42.00995],[-65.06903,-41.9976],[-65.05041,-41.84042],[-65.01625,-41.83347],[-64.99375,-41.76375],[-65.02541,-41.72347],[-65.00597,-41.69764],[-65.02878,-41.6154],[-64.98597,-41.57764],[-65.00847,-41.55847],[-64.98653,-41.52291],[-65.10181,-41.33681],[-65.16014,-40.97486],[-65.12375,-40.85319],[-65.02069,-40.76486],[-64.90708,-40.76736],[-64.92208,-40.7243],[-64.88653,-40.76236],[-64.89181,-40.72903],[-64.86181,-40.72708],[-64.83403,-40.77847],[-64.7757,-40.79125],[-64.90708,-40.80569],[-64.87736,-40.83153],[-64.74709,-40.81847],[-64.54181,-40.86458],[-63.7868,-41.15986],[-63.11847,-41.15542],[-62.79958,-41.02736]]]}},{"type":"Feature","properties":{"gid":"ARG.17_1","name":"萨尔塔省","nameEn":"Salta","nameLocal":"","type":"Province","typeEn":"Province","groupZh":"省","area":155246.6,"iso":"AR-A","engtype":"Province","capital":"萨尔塔","pop":1440000,"blurb":"西北文化省，殖民古城与云中铁路。"},"geometry":{"type":"Polygon","coordinates":[[[-66.08544,-26.21111],[-65.71092,-26.35651],[-65.67351,-26.11828],[-65.5957,-26.12423],[-65.53947,-26.08887],[-65.42883,-26.11033],[-65.34409,-26.07351],[-65.29158,-26.08868],[-65.26237,-26.19309],[-64.96236,-26.24089],[-64.954,-26.28142],[-64.78664,-26.20383],[-64.49355,-26.23354],[-64.42913,-26.10483],[-64.45355,-26.07386],[-64.2873,-25.72024],[-64.04442,-25.76234],[-64.02916,-25.69604],[-63.47541,-25.70968],[-62.34776,-24.39442],[-62.32978,-22.4655],[-62.45243,-22.41569],[-62.45753,-22.36654],[-62.51728,-22.37362],[-62.53998,-22.32486],[-62.63566,-22.30139],[-62.62892,-22.24611],[-62.66546,-22.24473],[-62.69105,-22.19105],[-62.72042,-22.21075],[-62.75942,-22.15185],[-62.78406,-22.17324],[-62.81359,-22.12992],[-62.80478,-22.00223],[-63.66706,-22.00346],[-63.68361,-22.05478],[-63.71775,-21.99951],[-63.93078,-21.99933],[-63.95823,-22.08615],[-64.00013,-22.10758],[-64.03331,-22.24239],[-64.07384,-22.25918],[-64.11669,-22.40706],[-64.23976,-22.55545],[-64.26512,-22.76408],[-64.31575,-22.88276],[-64.33976,-22.86392],[-64.34165,-22.74934],[-64.40305,-22.71941],[-64.39444,-22.68806],[-64.4423,-22.63797],[-64.41287,-22.5382],[-64.49208,-22.43656],[-64.5251,-22.44124],[-64.51289,-22.41565],[-64.56676,-22.36801],[-64.53655,-22.28564],[-64.61659,-22.2056],[-64.73687,-22.19417],[-64.99431,-22.08405],[-65.1853,-22.08537],[-65.23904,-22.31789],[-65.33875,-22.49478],[-65.33959,-22.59034],[-65.26637,-22.63476],[-65.28986,-22.73267],[-65.2401,-22.93469],[-65.1786,-22.98344],[-65.03494,-22.99393],[-65.00782,-23.02923],[-65.02905,-23.27685],[-64.94959,-23.32912],[-64.87381,-23.4964],[-64.81098,-23.51034],[-64.67001,-23.45814],[-64.54929,-23.5189],[-64.44379,-23.63491],[-64.35597,-23.50659],[-64.17354,-23.507],[-64.15917,-24.218],[-64.27963,-24.41278],[-64.5278,-24.49274],[-64.62413,-24.60659],[-64.66225,-24.6114],[-64.83212,-24.47771],[-64.91054,-24.60438],[-65.079,-24.56491],[-65.18542,-24.46095],[-65.33356,-24.5018],[-65.35136,-24.46752],[-65.4267,-24.47045],[-65.454,-24.43177],[-65.50995,-24.45862],[-65.57265,-24.42709],[-65.62812,-24.37486],[-65.62273,-24.33581],[-65.82937,-23.9994],[-65.999,-23.95257],[-66.02526,-23.8199],[-65.99012,-23.5154],[-66.33603,-23.36792],[-66.3947,-23.53926],[-66.32809,-23.72427],[-66.34216,-23.99033],[-66.38429,-24.11903],[-66.4763,-24.20771],[-66.65248,-24.17676],[-66.74758,-24.08788],[-66.80731,-24.09253],[-66.93476,-23.95557],[-67.00291,-23.95943],[-67.00558,-23.86432],[-67.21538,-23.7011],[-67.32262,-24.03416],[-68.25847,-24.40173],[-68.31059,-24.49061],[-68.39019,-24.48867],[-68.43325,-24.60574],[-68.46775,-24.62283],[-68.49512,-24.59997],[-68.4918,-24.66433],[-68.56825,-24.79504],[-68.51931,-24.87368],[-68.43177,-24.90549],[-68.41272,-25.01954],[-68.37435,-25.03583],[-68.34327,-25.11064],[-68.40855,-25.14451],[-68.45782,-25.12571],[-68.48333,-25.15632],[-67.98538,-25.23975],[-66.55711,-25.27459],[-66.5294,-25.45914],[-66.5584,-25.61291],[-66.59064,-25.67951],[-66.76855,-25.69757],[-66.81571,-25.74231],[-66.79774,-25.9002],[-66.62367,-26.09875],[-66.51409,-26.29775],[-66.42757,-26.37641],[-66.37007,-26.3959],[-66.32311,-26.27879],[-66.2132,-26.14932],[-66.14748,-26.13869],[-66.08544,-26.21111]]]}},{"type":"Feature","properties":{"gid":"ARG.18_1","name":"圣胡安省","nameEn":"San Juan","nameLocal":"","type":"Province","typeEn":"Province","groupZh":"省","area":88807.2,"iso":"AR-J","engtype":"Province","capital":"圣胡安","pop":818000,"blurb":"半干旱安第斯省，橄榄油与葡萄酒，地震频发。"},"geometry":{"type":"Polygon","coordinates":[[[-67.37388,-32.34627],[-67.28719,-32.35939],[-67.35677,-32.2636],[-67.38082,-32.12206],[-67.35616,-32.00234],[-67.38605,-31.87465],[-66.71545,-31.88713],[-66.76469,-31.81853],[-66.8526,-31.77845],[-66.86946,-31.63811],[-66.94613,-31.63775],[-67.05708,-31.54744],[-67.10014,-31.38745],[-67.06229,-31.08579],[-67.11644,-31.02088],[-67.07632,-30.88713],[-67.17977,-30.72253],[-67.55123,-30.40745],[-67.57639,-30.30775],[-67.69086,-30.18775],[-68.00436,-29.97107],[-68.10327,-29.84568],[-68.17361,-29.84763],[-68.19571,-29.78805],[-68.24477,-29.77669],[-68.33401,-29.67622],[-68.61423,-29.64034],[-68.69293,-29.60106],[-68.82967,-29.61639],[-68.87978,-29.59338],[-68.95094,-29.63496],[-69.00104,-29.61739],[-69.03096,-29.52122],[-68.95664,-29.44296],[-68.99321,-29.40309],[-68.95207,-29.29173],[-69.00649,-29.14853],[-68.97388,-29.11254],[-68.93464,-29.12534],[-68.90359,-29.05832],[-68.96656,-28.97002],[-68.94927,-28.91421],[-69.14233,-28.7399],[-69.19792,-28.58992],[-69.35233,-28.43507],[-69.44736,-28.44315],[-69.48377,-28.40264],[-69.6287,-28.37873],[-69.65629,-28.41324],[-69.63935,-28.44261],[-69.68079,-28.47109],[-69.66144,-28.58286],[-69.73062,-28.67919],[-69.72979,-28.7377],[-69.69322,-28.77214],[-69.76611,-28.89954],[-69.7872,-29.12979],[-69.87588,-29.13877],[-69.95266,-29.18879],[-69.93725,-29.24812],[-70.02093,-29.32866],[-70.02121,-29.38441],[-69.96706,-29.41243],[-69.98143,-29.45164],[-69.94664,-29.48795],[-69.93982,-29.65463],[-69.87749,-29.72649],[-69.91365,-29.80023],[-69.87675,-29.86245],[-69.91405,-30.02552],[-69.96546,-30.08566],[-69.93703,-30.12015],[-69.81822,-30.12738],[-69.81925,-30.18689],[-69.83559,-30.21923],[-69.88539,-30.21848],[-69.89189,-30.35093],[-69.95506,-30.38571],[-70.06328,-30.39461],[-70.15428,-30.34652],[-70.11722,-30.43182],[-70.19517,-30.49236],[-70.19091,-30.54923],[-70.24667,-30.63352],[-70.24558,-30.72846],[-70.32311,-30.92974],[-70.26953,-31.04385],[-70.3218,-31.04321],[-70.3999,-31.16782],[-70.45189,-31.08597],[-70.49661,-31.12209],[-70.547,-31.31427],[-70.527,-31.36496],[-70.56922,-31.4728],[-70.5665,-31.60055],[-70.50658,-31.65211],[-70.51332,-31.68999],[-70.46671,-31.70121],[-70.46062,-31.84369],[-70.3748,-31.88595],[-70.27996,-31.88394],[-70.20944,-31.95959],[-70.28816,-32.05116],[-70.3612,-32.02521],[-70.38816,-32.04415],[-70.33527,-32.06998],[-70.34089,-32.11028],[-70.30409,-32.13596],[-70.31973,-32.27331],[-70.21787,-32.33293],[-70.23657,-32.42872],[-70.14873,-32.46592],[-70.12629,-32.57267],[-70.07961,-32.63095],[-69.98289,-32.53957],[-69.83437,-32.56958],[-69.80246,-32.53733],[-69.71531,-32.53146],[-69.68198,-32.48249],[-69.71152,-32.33448],[-69.61985,-32.23904],[-69.59439,-32.13978],[-69.42317,-32.06647],[-69.31741,-32.0896],[-69.15078,-31.96789],[-69.01649,-32.11179],[-68.93112,-32.0975],[-68.93155,-32.32346],[-68.66317,-32.33098],[-68.48805,-32.17807],[-68.46812,-32.10405],[-68.28992,-32.1362],[-68.05688,-32.06873],[-67.96335,-32.07454],[-67.91331,-32.15947],[-67.82137,-32.20972],[-67.54831,-32.22007],[-67.51098,-32.19798],[-67.45831,-32.30434],[-67.37388,-32.34627]]]}},{"type":"Feature","properties":{"gid":"ARG.19_1","name":"圣路易斯省","nameEn":"San Luis","nameLocal":"","type":"Province","typeEn":"Province","groupZh":"省","area":75925.1,"iso":"AR-D","engtype":"Province","capital":"圣路易斯","pop":540000,"blurb":"中部小省，山地旅游与风电场。"},"geometry":{"type":"Polygon","coordinates":[[[-65.10732,-34.8539],[-65.10981,-33.91253],[-65.14829,-33.20248],[-65.05229,-33.14005],[-65.06278,-33.09314],[-64.92646,-32.70167],[-64.94083,-32.65735],[-64.8811,-32.57337],[-64.93805,-32.43446],[-64.92461,-32.32195],[-65.21337,-32.3213],[-65.2485,-32.10879],[-65.28996,-32.05672],[-65.65807,-31.88405],[-65.95535,-31.88598],[-66.07526,-31.97284],[-66.1239,-31.9459],[-66.15324,-31.97051],[-66.30636,-31.94263],[-66.34264,-32.00254],[-66.55959,-31.97688],[-66.71312,-31.88721],[-67.38605,-31.87465],[-67.35616,-32.00234],[-67.38082,-32.12206],[-67.35677,-32.2636],[-67.28719,-32.35939],[-67.36718,-32.37597],[-67.18958,-32.76686],[-67.21976,-32.93584],[-67.15629,-33.43259],[-67.06282,-33.57502],[-67.01144,-33.60377],[-67.00009,-33.69342],[-66.9,-33.75872],[-66.82384,-33.8988],[-66.73988,-33.94961],[-66.74358,-34.19442],[-66.80112,-34.217],[-66.81712,-34.33067],[-66.78445,-34.36314],[-66.80672,-34.39214],[-66.7726,-34.4256],[-66.75038,-34.58795],[-66.63929,-34.71526],[-66.65506,-34.74708],[-66.53866,-34.94886],[-66.50773,-35.34178],[-66.53905,-35.54725],[-66.57771,-35.59679],[-66.55914,-35.63976],[-66.63175,-35.90921],[-66.62605,-35.99893],[-65.10225,-35.99694],[-65.10732,-34.8539]]]}},{"type":"Feature","properties":{"gid":"ARG.20_1","name":"圣克鲁斯省","nameEn":"Santa Cruz","nameLocal":"","type":"Province","typeEn":"Province","groupZh":"省","area":242466.4,"iso":"AR-Z","engtype":"Province","capital":"里奥加耶戈斯","pop":333000,"blurb":"巴塔哥尼亚南端，莫雷诺冰川与佩里托莫雷诺，人口稀少。"},"geometry":{"type":"Polygon","coordinates":[[[-69.1375,-50.76625],[-69.07806,-50.56347],[-68.8775,-50.33292],[-68.40139,-50.18514],[-68.34639,-50.12042],[-68.06194,-50.07764],[-67.83791,-49.9468],[-67.72903,-49.77625],[-67.68097,-49.45597],[-67.60291,-49.29597],[-67.61264,-49.24903],[-67.66681,-49.25431],[-67.67431,-49.22014],[-67.60931,-49.18042],[-67.63125,-49.12986],[-67.49208,-48.96125],[-67.21986,-48.83847],[-67.12681,-48.68292],[-66.99097,-48.61347],[-66.87486,-48.59458],[-66.7543,-48.4743],[-66.49181,-48.41791],[-66.45264,-48.35375],[-66.3343,-48.36208],[-66.35986,-48.31986],[-66.33736,-48.27736],[-66.22764,-48.20069],[-66.15847,-48.19153],[-66.11902,-48.12262],[-65.89152,-48.10153],[-65.97459,-48.04786],[-65.93125,-48.01458],[-65.9418,-47.9543],[-65.90208,-47.93153],[-65.83822,-47.94042],[-65.83236,-47.96569],[-65.76403,-47.94958],[-65.79486,-47.93903],[-65.76758,-47.9068],[-65.84541,-47.89264],[-65.89902,-47.75903],[-65.84209,-47.74347],[-65.74011,-47.51208],[-65.71847,-47.32845],[-65.75819,-47.22597],[-65.73714,-47.20153],[-65.94375,-47.07625],[-66.2132,-47.08679],[-66.6282,-47.04681],[-66.78875,-47.0018],[-67.1282,-46.70179],[-67.35014,-46.62097],[-67.43927,-46.54901],[-67.61597,-46.22153],[-67.62569,-46.05264],[-67.58153,-46.02291],[-67.5907,-45.99792],[-71.54546,-45.9992],[-71.64824,-46.00673],[-71.77344,-46.11623],[-71.91544,-46.13816],[-71.86662,-46.15709],[-71.86009,-46.1939],[-71.77821,-46.19823],[-71.72747,-46.27241],[-71.75696,-46.34557],[-71.66871,-46.52909],[-71.64594,-46.68593],[-71.8338,-46.79627],[-71.95582,-46.81521],[-71.9308,-46.84529],[-71.97006,-46.90376],[-71.95771,-46.97364],[-71.8802,-47.01102],[-71.9552,-47.07686],[-71.85989,-47.13208],[-71.84992,-47.16296],[-71.89258,-47.21379],[-71.86484,-47.23104],[-72.01936,-47.1978],[-71.99676,-47.29496],[-72.0484,-47.33997],[-72.13004,-47.32948],[-72.1976,-47.41646],[-72.24458,-47.40458],[-72.3415,-47.45524],[-72.29211,-47.51224],[-72.31266,-47.59571],[-72.42003,-47.66069],[-72.44323,-47.74602],[-72.52377,-47.74709],[-72.46872,-47.81237],[-72.5278,-47.93688],[-72.42502,-47.96637],[-72.4435,-48.06349],[-72.36081,-48.07211],[-72.3053,-48.13934],[-72.32539,-48.2146],[-72.22959,-48.32398],[-72.28005,-48.361],[-72.38043,-48.3496],[-72.34721,-48.38905],[-72.40508,-48.41427],[-72.37452,-48.44972],[-72.44219,-48.51292],[-72.58843,-48.49163],[-72.53004,-48.79624],[-72.63957,-48.86616],[-72.68842,-48.86478],[-72.79595,-48.96838],[-72.92363,-48.93549],[-72.98984,-48.99129],[-73.00453,-49.06346],[-73.14607,-49.18976],[-73.13398,-49.2665],[-73.03954,-49.27694],[-73.08207,-49.28321],[-73.05417,-49.46527],[-73.13021,-49.52462],[-73.21681,-49.66903],[-73.48644,-49.8116],[-73.50683,-49.89181],[-73.55611,-49.92273],[-73.55477,-49.94962],[-73.44578,-49.96483],[-73.4356,-50.00994],[-73.46222,-50.05431],[-73.49714,-50.04965],[-73.47556,-50.08951],[-73.51415,-50.10631],[-73.52153,-50.15355],[-73.43042,-50.18189],[-73.45192,-50.24116],[-73.36257,-50.30115],[-73.43778,-50.34361],[-73.41694,-50.38166],[-73.3702,-50.37238],[-73.366,-50.48755],[-73.33729,-50.49722],[-73.35774,-50.535],[-73.14501,-50.65142],[-73.19845,-50.74074],[-73.14972,-50.76778],[-73.20101,-50.82036],[-73.1455,-50.78186],[-73.00246,-50.76339],[-72.89135,-50.66985],[-72.72879,-50.61405],[-72.59616,-50.68167],[-72.49184,-50.60082],[-72.40451,-50.63691],[-72.35334,-50.61784],[-72.28715,-50.65814],[-72.3495,-50.75173],[-72.24675,-50.87818],[-72.26509,-51.03282],[-72.37312,-51.02238],[-72.40852,-51.10759],[-72.3481,-51.20398],[-72.30349,-51.20131],[-72.25914,-51.25271],[-72.37152,-51.3363],[-72.30878,-51.36604],[-72.33814,-51.42436],[-72.32408,-51.47498],[-72.3513,-51.48447],[-72.34461,-51.52061],[-72.40484,-51.51348],[-72.44172,-51.58479],[-72.327,-51.58736],[-72.28318,-51.63821],[-72.29726,-51.69915],[-72.12185,-51.74404],[-71.94805,-51.87401],[-71.92878,-51.91491],[-72.03359,-51.96023],[-72.00668,-51.97874],[-71.89035,-52.00008],[-69.99549,-52.00071],[-69.48613,-52.15163],[-69.19012,-52.15004],[-68.83798,-52.27774],[-68.4186,-52.33248],[-68.42973,-52.39764],[-68.35306,-52.32069],[-68.71472,-51.97347],[-68.95805,-51.62486],[-69.0125,-51.60625],[-69.14528,-51.67986],[-69.24416,-51.69541],[-69.11972,-51.63653],[-69.33417,-51.58541],[-69.60139,-51.62069],[-69.34583,-51.55181],[-69.13472,-51.60708],[-68.94639,-51.55542],[-69.16639,-50.9793],[-69.43472,-51.09125],[-69.13583,-50.90208],[-69.1375,-50.76625]]]}},{"type":"Feature","properties":{"gid":"ARG.21_1","name":"圣菲省","nameEn":"Santa Fe","nameLocal":"","type":"Province","typeEn":"Province","groupZh":"省","area":133497.7,"iso":"AR-S","engtype":"Province","capital":"圣菲","pop":3540000,"blurb":"潘帕斯东北，罗萨里奥（大豆出口港）与农业工业。"},"geometry":{"type":"Polygon","coordinates":[[[-60.91639,-33.60024],[-60.82914,-33.54131],[-60.54506,-33.64425],[-60.46179,-33.62916],[-60.40553,-33.45885],[-60.34037,-33.41474],[-60.24989,-33.26014],[-60.3019,-33.23665],[-60.31871,-33.17231],[-60.38558,-33.18394],[-60.52378,-33.10229],[-60.6109,-32.95189],[-60.67617,-32.90219],[-60.67371,-32.82653],[-60.71587,-32.76369],[-60.6955,-32.70861],[-60.74842,-32.61883],[-60.75671,-32.49686],[-60.71226,-32.40203],[-60.73595,-32.31195],[-60.67338,-32.30677],[-60.67399,-32.22453],[-60.7337,-32.17121],[-60.65824,-32.0806],[-60.6849,-32.01832],[-60.72379,-32.00487],[-60.66264,-31.91039],[-60.66856,-31.74256],[-60.57351,-31.69291],[-60.42805,-31.67731],[-60.32523,-31.60568],[-60.32817,-31.54696],[-60.24104,-31.52008],[-60.14079,-31.43797],[-60.0954,-31.28626],[-60.01523,-31.24373],[-59.96174,-31.11345],[-59.89,-31.06058],[-59.62657,-30.70004],[-59.6723,-30.6322],[-59.65081,-30.52013],[-59.70829,-30.40527],[-59.65497,-30.32526],[-59.68798,-30.27641],[-59.6224,-30.22799],[-59.59946,-30.06101],[-59.56296,-30.02844],[-59.62395,-29.88284],[-59.6801,-29.83067],[-59.61816,-29.75431],[-59.6373,-29.69878],[-59.60295,-29.64685],[-59.60914,-29.4037],[-59.52537,-29.31811],[-59.49294,-29.22505],[-59.39906,-29.20986],[-59.32703,-29.09808],[-59.21217,-29.05872],[-59.16119,-28.77826],[-59.07714,-28.64468],[-59.10954,-28.60639],[-59.0569,-28.48299],[-59.10024,-28.34336],[-59.09724,-28.2115],[-59.05331,-28.12454],[-58.91122,-28.09911],[-58.87082,-28.03262],[-58.89299,-27.99935],[-61.71717,-27.99393],[-62.12774,-30.48811],[-62.02349,-30.59236],[-61.97818,-30.59803],[-61.98256,-30.64628],[-61.83227,-30.67349],[-62.13195,-31.60856],[-62.24963,-31.70164],[-62.21495,-31.78152],[-62.22964,-31.88673],[-62.17609,-31.97266],[-62.19479,-32.1171],[-62.1273,-32.20833],[-62.03931,-32.25749],[-61.93147,-32.45889],[-61.92822,-32.54028],[-61.9012,-32.55612],[-61.92011,-32.58582],[-61.88742,-32.60698],[-61.95321,-32.67374],[-61.86489,-32.69777],[-61.78934,-32.79098],[-61.79086,-32.99837],[-61.92498,-33.12473],[-62.88922,-34.38429],[-61.71769,-34.37882],[-60.91635,-33.6366],[-60.91639,-33.60024]]]}},{"type":"Feature","properties":{"gid":"ARG.22_1","name":"圣地亚哥-德尔埃斯特罗省","nameEn":"Santiago del Estero","nameLocal":"","type":"Province","typeEn":"Province","groupZh":"省","area":137137.9,"iso":"AR-G","engtype":"Province","capital":"圣地亚哥-德尔埃斯特罗","pop":1054000,"blurb":"最古老城市所在的干旱省，被称为母亲之城。"},"geometry":{"type":"Polygon","coordinates":[[[-63.12197,-29.79141],[-62.78357,-29.81477],[-62.81066,-29.84223],[-62.76353,-29.93917],[-62.55992,-30.08235],[-62.59255,-30.17693],[-62.56305,-30.29047],[-62.522,-30.32632],[-62.1773,-30.33038],[-62.12615,-30.47898],[-61.71717,-27.99393],[-61.71229,-25.65553],[-63.42762,-25.65191],[-63.47541,-25.70968],[-64.02916,-25.69604],[-64.04442,-25.76234],[-64.2873,-25.72024],[-64.45355,-26.07386],[-64.42913,-26.10483],[-64.49355,-26.23354],[-64.47826,-26.31983],[-64.52034,-26.35734],[-64.53005,-26.42145],[-64.50136,-26.68371],[-64.59479,-26.66455],[-64.62287,-26.79807],[-64.67715,-26.79052],[-64.68801,-26.83508],[-64.72594,-26.82991],[-64.80157,-27.14834],[-64.87576,-27.31116],[-64.94675,-27.3479],[-64.99435,-27.33625],[-65.04084,-27.48742],[-64.96686,-27.55323],[-65.04262,-27.5895],[-64.95956,-27.75962],[-65.01435,-27.77123],[-65.04936,-27.87221],[-65.09345,-27.89082],[-65.15457,-27.86611],[-65.1874,-27.91515],[-65.11689,-28.19159],[-65.0994,-28.46948],[-65.12572,-28.60907],[-65.18114,-28.60058],[-65.18087,-28.65314],[-65.1441,-28.66626],[-65.13236,-28.71737],[-65.00298,-28.77122],[-64.91682,-28.87107],[-64.83231,-29.04631],[-64.82567,-29.12556],[-64.89027,-29.28066],[-64.84731,-29.31293],[-64.8917,-29.34309],[-64.83537,-29.43297],[-64.82775,-29.56298],[-64.33191,-29.50332],[-63.97711,-29.54603],[-63.96255,-29.61723],[-63.89259,-29.61766],[-63.86525,-29.56977],[-63.80717,-29.57],[-63.77286,-29.64112],[-63.72277,-29.66338],[-63.46912,-29.66339],[-63.48328,-29.72275],[-63.45231,-29.72373],[-63.45188,-29.77591],[-63.12197,-29.79141]]]}},{"type":"Feature","properties":{"gid":"ARG.23_1","name":"火地岛省","nameEn":"Tierra del Fuego","nameLocal":"","type":"Province","typeEn":"Province","groupZh":"省","area":20798.1,"iso":"AR-V","engtype":"Province","capital":"乌斯怀亚","pop":159000,"blurb":"最南省份，世界尽头乌斯怀亚，企鹅与南极门户。"},"geometry":{"type":"MultiPolygon","coordinates":[[[[-67.43025,-54.89296],[-67.53813,-54.88515],[-67.4867,-54.91753],[-67.41365,-54.91255],[-67.43025,-54.89296]]],[[[-64.3375,-54.71014],[-64.37694,-54.75264],[-64.36861,-54.8107],[-64.39139,-54.74847],[-64.41361,-54.77375],[-64.48527,-54.76514],[-64.54528,-54.72458],[-64.50806,-54.79708],[-64.58916,-54.82014],[-64.6875,-54.77958],[-64.67472,-54.79986],[-64.70972,-54.79097],[-64.75694,-54.83736],[-64.73972,-54.85958],[-64.65861,-54.84653],[-64.68417,-54.86097],[-64.64528,-54.88847],[-64.7025,-54.91542],[-64.60694,-54.91042],[-64.46694,-54.82431],[-64.44472,-54.83931],[-64.48583,-54.84792],[-64.48527,-54.87625],[-64.23417,-54.78208],[-64.22195,-54.85847],[-64.20084,-54.82903],[-64.12028,-54.8143],[-64.11083,-54.83736],[-64.05861,-54.77958],[-64.0325,-54.80847],[-63.95417,-54.76736],[-63.95361,-54.81375],[-63.84139,-54.79042],[-63.79417,-54.72625],[-63.88194,-54.75458],[-63.85528,-54.7332],[-63.87528,-54.71764],[-63.9375,-54.72486],[-64.04861,-54.77764],[-64.0475,-54.73014],[-64.10861,-54.76375],[-64.15083,-54.73041],[-64.14584,-54.76986],[-64.21639,-54.73347],[-64.32416,-54.73542],[-64.3375,-54.71014]]],[[[-64.12917,-54.64597],[-64.16361,-54.65181],[-64.10861,-54.65097],[-64.12917,-54.64597]]],[[[-66.29472,-54.51097],[-66.46972,-54.47736],[-66.73639,-54.2593],[-67.32195,-54.04653],[-67.33361,-54.01569],[-67.55527,-53.91153],[-67.57917,-53.86264],[-67.54916,-53.83903],[-67.67528,-53.78736],[-67.77917,-53.83403],[-67.68083,-53.79792],[-67.99028,-53.58458],[-68.1275,-53.33764],[-68.20528,-53.30708],[-68.38416,-53.31264],[-68.4975,-53.27097],[-68.51083,-53.17625],[-68.30527,-53.05819],[-68.25139,-53.0643],[-68.20084,-53.13986],[-68.28528,-52.95486],[-68.61059,-52.65347],[-68.61051,-54.89431],[-68.49861,-54.86736],[-68.57139,-54.84847],[-68.26361,-54.84208],[-68.31917,-54.81125],[-68.2475,-54.79514],[-67.69305,-54.88736],[-67.50417,-54.8543],[-67.40972,-54.8893],[-67.27695,-54.87014],[-66.77138,-54.9593],[-66.64917,-55.02819],[-66.4525,-55.05819],[-66.31028,-54.99236],[-66.00027,-54.97208],[-65.99972,-54.99986],[-65.95639,-54.94181],[-65.99805,-54.91875],[-65.98194,-54.90319],[-65.74028,-54.90486],[-65.71806,-54.97014],[-65.6525,-54.97347],[-65.42973,-54.88514],[-65.42028,-54.93819],[-65.38194,-54.94208],[-65.22139,-54.81847],[-65.26472,-54.79403],[-65.20472,-54.78042],[-65.22083,-54.74542],[-65.19361,-54.69569],[-65.11639,-54.65819],[-65.24361,-54.64736],[-65.2325,-54.61903],[-65.43139,-54.66264],[-65.43361,-54.64208],[-65.52583,-54.66597],[-65.80361,-54.65208],[-66.29472,-54.51097]]]]}},{"type":"Feature","properties":{"gid":"ARG.24_1","name":"图库曼省","nameEn":"Tucumán","nameLocal":"","type":"Province","typeEn":"Province","groupZh":"省","area":22657.5,"iso":"NA","engtype":"Province","capital":"圣米格尔-德图库曼","pop":1700000,"blurb":"最小却人口稠密的西北省，号称阿根廷的花园，独立宣言诞生地。"},"geometry":{"type":"Polygon","coordinates":[[[-65.25066,-27.90042],[-65.18338,-27.93549],[-65.15457,-27.86611],[-65.08724,-27.89102],[-65.04936,-27.87221],[-65.01435,-27.77123],[-64.95956,-27.75962],[-65.04262,-27.5895],[-64.97784,-27.57068],[-64.97435,-27.52007],[-65.04084,-27.48742],[-64.99435,-27.33625],[-64.94675,-27.3479],[-64.87576,-27.31116],[-64.80157,-27.14834],[-64.72594,-26.82991],[-64.68801,-26.83508],[-64.67715,-26.79052],[-64.62287,-26.79807],[-64.59479,-26.66455],[-64.50136,-26.68371],[-64.53005,-26.42145],[-64.52034,-26.35734],[-64.47826,-26.31983],[-64.49398,-26.23205],[-64.78664,-26.20383],[-64.954,-26.28142],[-64.96236,-26.24089],[-65.26237,-26.19309],[-65.29158,-26.08868],[-65.34409,-26.07351],[-65.42883,-26.11033],[-65.53947,-26.08887],[-65.5957,-26.12423],[-65.67351,-26.11828],[-65.71092,-26.35651],[-66.08385,-26.21812],[-66.10327,-26.3955],[-66.14877,-26.40432],[-66.16235,-26.58755],[-66.06068,-26.61469],[-65.86076,-26.74857],[-65.89835,-26.84127],[-65.85867,-26.92867],[-66.14672,-27.24315],[-65.98949,-27.31268],[-65.96878,-27.5462],[-65.92016,-27.66777],[-65.86594,-27.68258],[-65.82468,-27.85361],[-65.75021,-27.77557],[-65.6601,-27.95958],[-65.57218,-28.00229],[-65.53644,-27.99851],[-65.50106,-27.92338],[-65.39413,-27.84878],[-65.25066,-27.90042]]]}}]}