{"type":"FeatureCollection","features":[{"type":"Feature","properties":{"gid":"GBR.2_1","country":"United Kingdom","name":"北爱尔兰","en":"Northern Ireland","engtype":"Constituent Country","type":"Constituent Country","iso":"GB-NIR","capitalZh":"贝尔法斯特","capitalEn":"Belfast","pop":1911000,"area":13547,"devolved":true,"nick":"阿尔斯特","blurb":"历史省份阿尔斯特九郡中的六郡；1998 年《耶稣受难日协议》后走向和平稳定，权力下放政府驻贝尔法斯特。"},"geometry":{"type":"MultiPolygon","coordinates":[[[[-6.0307,54.0364],[-5.8969,54.1047],[-5.8718,54.1676],[-5.8929,54.2054],[-5.8297,54.2419],[-5.8595,54.2502],[-5.8144,54.2865],[-5.8159,54.2591],[-5.8338,54.2567],[-5.8203,54.243],[-5.6928,54.2513],[-5.6602,54.2256],[-5.6364,54.2423],[-5.6398,54.263],[-5.6119,54.2472],[-5.6076,54.2657],[-5.595,54.261],[-5.5498,54.3069],[-5.5227,54.314],[-5.5417,54.3193],[-5.5456,54.3616],[-5.5569,54.3767],[-5.5762,54.3718],[-5.5724,54.3837],[-5.6499,54.3648],[-5.6612,54.3674],[-5.6385,54.3795],[-5.6655,54.3634],[-5.6839,54.3718],[-5.6529,54.3816],[-5.6445,54.4177],[-5.6317,54.4118],[-5.6428,54.4282],[-5.6267,54.4337],[-5.6412,54.4386],[-5.6268,54.4642],[-5.6451,54.4531],[-5.6479,54.4903],[-5.6767,54.503],[-5.6578,54.5146],[-5.6475,54.4958],[-5.6178,54.5065],[-5.6456,54.4998],[-5.6301,54.5164],[-5.7234,54.539],[-5.6957,54.5458],[-5.6851,54.5819],[-5.5572,54.5313],[-5.5438,54.485],[-5.531,54.4829],[-5.5594,54.457],[-5.5366,54.4591],[-5.5344,54.439],[-5.5777,54.4231],[-5.5799,54.3926],[-5.5483,54.3796],[-5.5059,54.3313],[-5.4813,54.3567],[-5.4897,54.3764],[-5.4581,54.3929],[-5.4795,54.4305],[-5.4356,54.4571],[-5.4328,54.4873],[-5.4636,54.4984],[-5.4839,54.5379],[-5.4773,54.5641],[-5.5256,54.6034],[-5.5302,54.645],[-5.5836,54.6776],[-5.6725,54.663],[-5.741,54.6776],[-5.9089,54.6123],[-5.8789,54.6359],[-5.9056,54.6304],[-5.8979,54.64],[-5.9139,54.6454],[-5.8957,54.6741],[-5.71,54.746],[-5.688,54.767],[-5.6914,54.8096],[-5.7257,54.8483],[-5.791,54.8517],[-5.7349,54.8132],[-5.7212,54.772],[-5.7528,54.8104],[-5.7401,54.8117],[-5.8123,54.8309],[-5.8167,54.8466],[-5.7997,54.8394],[-5.7962,54.8521],[-5.8443,54.9008],[-5.8781,54.9076],[-5.919,54.9618],[-5.9912,54.9851],[-5.9657,55.0521],[-6.0622,55.0601],[-6.036,55.1032],[-6.0269,55.1612],[-6.0622,55.1989],[-6.1406,55.2273],[-6.2362,55.2027],[-6.3326,55.2396],[-6.4062,55.2318],[-6.4836,55.252],[-6.5461,55.216],[-6.6629,55.2127],[-6.6566,55.2001],[-6.7219,55.1898],[-6.7305,55.1706],[-6.8751,55.1676],[-6.9631,55.1942],[-6.9861,55.1068],[-7.0197,55.1008],[-7.0133,55.0776],[-7.0442,55.0513],[-7.1293,55.0419],[-7.1561,55.059],[-7.2249,55.0611],[-7.2344,55.042],[-7.2634,55.0426],[-7.2456,55.0635],[-7.2649,55.0666],[-7.2891,55.0474],[-7.3462,55.0505],[-7.3915,55.0223],[-7.4075,54.9637],[-7.3921,54.9454],[-7.4476,54.9346],[-7.4441,54.8695],[-7.484,54.8238],[-7.5492,54.7894],[-7.5342,54.7471],[-7.6367,54.7515],[-7.7499,54.7043],[-7.8367,54.7364],[-7.8794,54.7029],[-7.9209,54.696],[-7.899,54.6909],[-7.9139,54.6759],[-7.904,54.6627],[-7.8566,54.6505],[-7.8546,54.6319],[-7.8133,54.6439],[-7.7416,54.618],[-7.7084,54.6349],[-7.6973,54.6101],[-7.7934,54.5819],[-7.8505,54.533],[-8.006,54.5459],[-8.0427,54.4877],[-8.1797,54.465],[-8.1432,54.451],[-8.1619,54.442],[-8.0574,54.3658],[-8.0003,54.3581],[-7.9466,54.3043],[-7.862,54.2935],[-7.8732,54.2795],[-7.8599,54.2174],[-7.8115,54.2009],[-7.6854,54.2078],[-7.6766,54.182],[-7.6561,54.1857],[-7.6104,54.1438],[-7.5478,54.1222],[-7.5284,54.1357],[-7.4794,54.1222],[-7.4424,54.1539],[-7.4096,54.1563],[-7.4206,54.137],[-7.3729,54.1397],[-7.3919,54.1202],[-7.3634,54.1314],[-7.3187,54.1134],[-7.3053,54.1234],[-7.3395,54.1467],[-7.2914,54.1719],[-7.2838,54.1539],[-7.3013,54.1444],[-7.2854,54.1364],[-7.3089,54.1321],[-7.2794,54.1224],[-7.2581,54.1645],[-7.2403,54.1697],[-7.2583,54.1774],[-7.2591,54.1923],[-7.233,54.1978],[-7.2481,54.2044],[-7.145,54.2247],[-7.159,54.2439],[-7.1431,54.2564],[-7.2121,54.2997],[-7.1792,54.3097],[-7.1885,54.3377],[-7.1036,54.3559],[-7.1097,54.3683],[-7.0289,54.4214],[-6.9237,54.3829],[-6.9328,54.3779],[-6.9112,54.3747],[-6.9063,54.3504],[-6.8759,54.3465],[-6.8508,54.2973],[-6.8774,54.2783],[-6.8277,54.2614],[-6.8162,54.223],[-6.7952,54.2091],[-6.7386,54.1815],[-6.6918,54.2002],[-6.644,54.1798],[-6.6297,54.1534],[-6.6612,54.1227],[-6.6451,54.096],[-6.6689,54.0725],[-6.6238,54.0365],[-6.5866,54.0576],[-6.5105,54.0527],[-6.4713,54.0663],[-6.4778,54.0771],[-6.4435,54.0565],[-6.3912,54.0589],[-6.3636,54.0726],[-6.3664,54.1136],[-6.3179,54.091],[-6.2917,54.1123],[-6.3188,54.1488],[-6.2893,54.1124],[-6.2348,54.0954],[-6.2153,54.1082],[-6.1642,54.0643],[-6.0946,54.0551],[-6.1075,54.0423],[-6.0873,54.0295],[-6.0307,54.0364]]],[[[-5.6234,54.4541],[-5.6309,54.4405],[-5.6129,54.4464],[-5.6234,54.4541]]],[[[-5.5337,54.6817],[-5.5454,54.6729],[-5.5206,54.6708],[-5.5337,54.6817]]],[[[-6.2409,55.3122],[-6.2866,55.2943],[-6.1931,55.2927],[-6.1997,55.267],[-6.1812,55.2671],[-6.1698,55.3016],[-6.2409,55.3122]]]]}},{"type":"Feature","properties":{"gid":"GBR.3_1","country":"United Kingdom","name":"苏格兰","en":"Scotland","engtype":"Constituent Country","type":"Constituent Country","iso":"GB-SCT","capitalZh":"爱丁堡","capitalEn":"Edinburgh","pop":5448000,"area":77901,"devolved":true,"nick":"山与湖之国","blurb":"山地与湖泊（loch）密布，风能与威士忌之乡；1999 年恢复苏格兰议会，独立公投话题长热。"},"geometry":{"type":"MultiPolygon","coordinates":[[[[-5.5835,55.2851],[-5.5977,55.279],[-5.5645,55.2815],[-5.5835,55.2851]]],[[[-5.4922,55.5467],[-5.4865,55.5782],[-5.4578,55.5755],[-5.4823,55.643],[-5.4489,55.7077],[-5.3949,55.75],[-5.3264,55.7637],[-5.314,55.7838],[-5.3388,55.8268],[-5.385,55.8627],[-5.414,55.8649],[-5.3952,55.8706],[-5.4496,55.9714],[-5.4415,56.0341],[-5.4077,56.0005],[-5.3455,56.0218],[-5.3258,56.0581],[-5.3349,56.0666],[-5.2976,56.0647],[-5.2365,56.1282],[-5.1175,56.1707],[-5.1107,56.1995],[-5.0532,56.2469],[-5.0389,56.2342],[-4.9168,56.2723],[-5.0608,56.2078],[-5.0996,56.157],[-5.2032,56.1286],[-5.2057,56.1073],[-5.342,55.9959],[-5.3473,55.9662],[-5.3307,55.9565],[-5.353,55.898],[-5.3112,55.8758],[-5.3127,55.8526],[-5.2579,55.8521],[-5.2009,55.8296],[-5.2058,55.8568],[-5.2411,55.8943],[-5.1957,55.9321],[-5.1921,55.9794],[-5.1787,55.933],[-5.0765,55.898],[-5.082,55.9383],[-5.1287,55.9963],[-5.1213,56.0083],[-5.1061,55.9716],[-5.0688,55.9517],[-5.0453,55.871],[-4.9786,55.8611],[-4.9074,55.9665],[-4.9604,55.9899],[-4.8966,55.9838],[-4.9112,56.0498],[-4.874,56.0864],[-4.9087,56.1121],[-4.8998,56.1466],[-4.916,56.1657],[-4.9023,56.1699],[-4.8842,56.1452],[-4.8841,56.1051],[-4.8616,56.0998],[-4.7527,56.2038],[-4.8802,56.0581],[-4.8538,55.99],[-4.7649,55.9901],[-4.8258,56.0336],[-4.8413,56.0592],[-4.8296,56.0782],[-4.79,56.0139],[-4.7023,55.9916],[-4.6868,55.9754],[-4.7025,55.9673],[-4.5166,55.9307],[-4.6689,55.9331],[-4.7908,55.964],[-4.8789,55.9427],[-4.8833,55.9132],[-4.8712,55.91],[-4.8989,55.8903],[-4.8885,55.8186],[-4.8552,55.7743],[-4.8572,55.7479],[-4.8769,55.7555],[-4.8749,55.7304],[-4.9042,55.7307],[-4.906,55.6993],[-4.8166,55.651],[-4.8233,55.6362],[-4.7527,55.6307],[-4.6957,55.6052],[-4.7099,55.6319],[-4.6549,55.5721],[-4.6594,55.5481],[-4.6862,55.5456],[-4.6583,55.5399],[-4.6194,55.492],[-4.6505,55.4431],[-4.7134,55.4337],[-4.7683,55.4033],[-4.7733,55.362],[-4.8466,55.3244],[-4.8383,55.277],[-4.8611,55.227],[-4.9969,55.1381],[-4.9994,55.1123],[-5.0609,55.0271],[-4.9933,54.9154],[-5.0302,54.9063],[-5.0606,54.9245],[-5.0734,54.9638],[-5.0545,54.9647],[-5.0984,55.0186],[-5.1615,55.0078],[-5.1864,54.9761],[-5.1863,54.9166],[-5.1484,54.8605],[-5.0111,54.7827],[-4.9926,54.7348],[-4.9561,54.7274],[-4.9669,54.7176],[-4.9483,54.7001],[-4.9747,54.6851],[-4.9649,54.664],[-4.8749,54.6333],[-4.8527,54.6372],[-4.8834,54.6534],[-4.8656,54.6819],[-4.9062,54.7018],[-4.9156,54.7425],[-4.9606,54.8052],[-4.9378,54.8305],[-4.8478,54.868],[-4.8094,54.8602],[-4.7815,54.8322],[-4.7149,54.8255],[-4.6027,54.7766],[-4.5726,54.7375],[-4.5176,54.711],[-4.3919,54.6774],[-4.3506,54.7052],[-4.3662,54.7284],[-4.3545,54.768],[-4.3706,54.7738],[-4.3584,54.7776],[-4.3678,54.7935],[-4.3404,54.7992],[-4.4101,54.8281],[-4.4295,54.8646],[-4.3962,54.8931],[-4.3984,54.9144],[-4.4534,54.9382],[-4.3972,54.9163],[-4.3849,54.8772],[-4.3632,54.8627],[-4.3042,54.843],[-4.2597,54.8344],[-4.2088,54.8641],[-4.2205,54.8245],[-4.1591,54.7793],[-4.1238,54.7866],[-4.0918,54.7658],[-4.1045,54.7788],[-4.0891,54.7817],[-4.0895,54.8138],[-4.0461,54.8494],[-4.0733,54.8188],[-4.0472,54.8135],[-4.0638,54.7791],[-3.9669,54.7705],[-3.8242,54.8238],[-3.8601,54.8463],[-3.8346,54.8458],[-3.8399,54.8616],[-3.8068,54.8447],[-3.8245,54.8612],[-3.8195,54.8905],[-3.7886,54.8527],[-3.7045,54.8832],[-3.5941,54.8713],[-3.5617,54.9068],[-3.5862,54.9315],[-3.5762,55.0041],[-3.5281,54.9671],[-3.4647,54.9691],[-3.4373,54.9921],[-3.372,54.9696],[-3.2049,54.9757],[-3.1497,54.9627],[-3.0566,54.9865],[-3.0259,55.0365],[-3.0511,55.0527],[-2.9586,55.0493],[-2.8449,55.1116],[-2.8255,55.1383],[-2.7034,55.1732],[-2.6668,55.2216],[-2.6314,55.2237],[-2.6302,55.2448],[-2.6115,55.2471],[-2.6468,55.26],[-2.559,55.3179],[-2.5203,55.323],[-2.4754,55.3547],[-2.3789,55.3492],[-2.3375,55.3672],[-2.3462,55.3731],[-2.33,55.3812],[-2.3449,55.3993],[-2.3324,55.4099],[-2.2041,55.4384],[-2.1655,55.4684],[-2.2013,55.4753],[-2.2403,55.5556],[-2.2888,55.5803],[-2.2892,55.6038],[-2.3161,55.6205],[-2.3086,55.6289],[-2.3361,55.6322],[-2.3058,55.647],[-2.2344,55.641],[-2.2483,55.6521],[-2.1672,55.706],[-2.1765,55.7188],[-2.1176,55.7388],[-2.1076,55.7599],[-2.0856,55.762],[-2.0861,55.793],[-2.0332,55.8117],[-2.0679,55.8426],[-2.077,55.8735],[-2.1334,55.8923],[-2.1376,55.9172],[-2.3328,55.9315],[-2.443,55.989],[-2.5545,56.0029],[-2.6224,56.0523],[-2.6791,56.0637],[-2.8159,56.064],[-2.866,56.038],[-2.8721,56.0258],[-2.8511,56.0145],[-2.8949,56.0092],[-2.8855,55.9973],[-2.9022,55.9812],[-3.0684,55.9454],[-3.1802,55.9904],[-3.2895,55.9798],[-3.3514,56.0018],[-3.3906,55.9904],[-3.5952,56.0214],[-3.6734,56.0118],[-3.6824,56.037],[-3.7262,56.032],[-3.7304,56.0635],[-3.7464,56.0711],[-3.6815,56.0463],[-3.5936,56.0449],[-3.5761,56.0582],[-3.5465,56.0396],[-3.3901,56.0066],[-3.3984,56.0255],[-3.3198,56.034],[-3.2823,56.056],[-3.173,56.0622],[-3.1501,56.1157],[-2.9578,56.2094],[-2.8078,56.1834],[-2.6001,56.2636],[-2.5846,56.2803],[-2.6585,56.3195],[-2.7778,56.3331],[-2.8186,56.3673],[-2.8366,56.3534],[-2.8889,56.3618],[-2.8123,56.3886],[-2.8125,56.4459],[-2.922,56.4517],[-3.2116,56.3604],[-3.2845,56.3569],[-3.203,56.3788],[-3.0534,56.458],[-2.9886,56.4513],[-2.8028,56.4796],[-2.733,56.4644],[-2.7106,56.4971],[-2.5203,56.5815],[-2.4784,56.6251],[-2.5051,56.6326],[-2.5084,56.6507],[-2.4468,56.6799],[-2.4345,56.7008],[-2.5328,56.7107],[-2.4777,56.7207],[-2.4776,56.7066],[-2.4535,56.7038],[-2.4078,56.7696],[-2.318,56.7972],[-2.2325,56.8623],[-2.1965,56.9088],[-2.1912,56.9519],[-2.2056,56.9677],[-2.1767,56.9798],[-2.1606,57.0177],[-2.0921,57.068],[-2.0473,57.1281],[-2.0784,57.1657],[-2.0367,57.2513],[-1.9728,57.3241],[-1.8593,57.3882],[-1.8617,57.4055],[-1.8273,57.4167],[-1.7712,57.4698],[-1.7944,57.4834],[-1.7801,57.4929],[-1.7907,57.5022],[-1.7662,57.5071],[-1.8062,57.5304],[-1.8007,57.5568],[-1.8273,57.5845],[-1.8212,57.6102],[-1.8856,57.6376],[-1.9211,57.6758],[-1.9912,57.6804],[-2.0038,57.699],[-2.119,57.7012],[-2.1921,57.6718],[-2.298,57.6962],[-2.3473,57.6706],[-2.5145,57.6654],[-2.6669,57.6907],[-2.7473,57.6806],[-2.7579,57.6941],[-2.83,57.6937],[-2.8529,57.7072],[-3.0273,57.6643],[-3.2023,57.6951],[-3.2751,57.7131],[-3.2779,57.7253],[-3.3469,57.7251],[-3.4987,57.7042],[-3.4955,57.6801],[-3.5311,57.6637],[-3.6243,57.6631],[-3.5833,57.6444],[-3.5894,57.6318],[-3.6462,57.6395],[-3.6195,57.6552],[-3.6548,57.6631],[-3.7203,57.654],[-3.6933,57.6571],[-3.8696,57.5895],[-4.0067,57.6034],[-3.9801,57.5931],[-4.0583,57.5925],[-4.0774,57.5826],[-4.0413,57.5609],[-4.1032,57.5359],[-4.114,57.5162],[-4.1481,57.5184],[-4.149,57.5018],[-4.1812,57.4854],[-4.2219,57.497],[-4.3754,57.4801],[-4.4136,57.4987],[-4.4443,57.4834],[-4.3765,57.5116],[-4.2341,57.5005],[-4.1932,57.5389],[-4.2487,57.5482],[-4.1877,57.545],[-4.1399,57.5771],[-4.0904,57.5739],[-4.1115,57.5881],[-4.1006,57.6074],[-3.9933,57.6774],[-4.0369,57.6843],[-4.1601,57.6576],[-4.1662,57.6764],[-4.2154,57.6742],[-4.4221,57.5841],[-4.4054,57.5923],[-4.4137,57.606],[-4.2994,57.658],[-4.2865,57.681],[-4.1682,57.6851],[-4.0837,57.7283],[-4.0193,57.7382],[-4.0107,57.7304],[-4.0363,57.6951],[-3.9737,57.6947],[-3.7715,57.8669],[-3.8133,57.8603],[-3.829,57.8356],[-3.8701,57.8226],[-3.9521,57.8123],[-3.8954,57.8282],[-3.9609,57.8473],[-4.0487,57.8151],[-4.1367,57.8452],[-4.1185,57.8304],[-4.1643,57.8345],[-4.1916,57.8631],[-4.2949,57.852],[-4.3565,57.8784],[-4.3499,57.8955],[-4.2892,57.861],[-4.2301,57.8738],[-4.1118,57.8481],[-4.0671,57.8671],[-4.0145,57.8572],[-4.0126,57.8902],[-3.9905,57.9035],[-4.0015,57.9272],[-4.0682,57.9373],[-4.0815,57.9574],[-4.0135,57.9488],[-4.0318,57.934],[-4.0056,57.9336],[-3.9815,57.9696],[-3.8455,58.0064],[-3.8326,58.0388],[-3.8043,58.0569],[-3.7443,58.0678],[-3.5083,58.1719],[-3.3894,58.2658],[-3.2097,58.31],[-3.1079,58.3712],[-3.068,58.4292],[-3.0849,58.4419],[-3.0521,58.4464],[-3.0484,58.4781],[-3.1111,58.4759],[-3.1326,58.5105],[-3.0665,58.5641],[-3.0596,58.5814],[-3.0724,58.5919],[-3.0436,58.5969],[-3.024,58.6435],[-3.1611,58.6389],[-3.1886,58.6606],[-3.3093,58.644],[-3.3434,58.6472],[-3.3772,58.6726],[-3.409,58.6589],[-3.4137,58.641],[-3.3496,58.6182],[-3.364,58.5959],[-3.459,58.6129],[-3.5237,58.5973],[-3.551,58.6076],[-3.5356,58.6233],[-3.653,58.6237],[-3.7796,58.5634],[-3.801,58.5738],[-3.9143,58.559],[-3.9529,58.5745],[-4.0044,58.5635],[-4.0191,58.6015],[-4.0724,58.5515],[-4.1469,58.5664],[-4.176,58.5411],[-4.2018,58.5529],[-4.2223,58.5407],[-4.2107,58.5312],[-4.2414,58.5376],[-4.2302,58.5215],[-4.3028,58.5442],[-4.3571,58.5367],[-4.4387,58.4926],[-4.4232,58.4739],[-4.4417,58.4747],[-4.4775,58.4408],[-4.4556,58.4938],[-4.4076,58.5215],[-4.4304,58.5301],[-4.4239,58.5498],[-4.4369,58.5564],[-4.4554,58.5477],[-4.4569,58.5617],[-4.5147,58.5793],[-4.5895,58.5778],[-4.6044,58.5548],[-4.5942,58.5347],[-4.6146,58.5143],[-4.6466,58.5183],[-4.67,58.497],[-4.664,58.483],[-4.7393,58.4487],[-4.751,58.4577],[-4.653,58.5327],[-4.6531,58.5511],[-4.7354,58.567],[-4.7676,58.6053],[-4.7923,58.6007],[-4.7668,58.579],[-4.799,58.58],[-4.8068,58.5623],[-4.7797,58.5462],[-4.8129,58.5108],[-4.8105,58.5269],[-4.8268,58.5225],[-4.7921,58.5468],[-4.819,58.5622],[-4.8234,58.5962],[-4.8764,58.6154],[-4.9562,58.6105],[-5.0071,58.6258],[-5.0158,58.5775],[-5.0524,58.5412],[-5.1045,58.5291],[-5.1266,58.4897],[-5.0553,58.4604],[-5.0789,58.4571],[-4.991,58.4403],[-4.9931,58.4231],[-5.0307,58.4482],[-5.0749,58.452],[-5.118,58.4285],[-5.0724,58.4154],[-5.1146,58.4151],[-5.0948,58.4068],[-5.0325,58.4098],[-5.0713,58.4022],[-5.0197,58.3767],[-5.1429,58.4125],[-5.145,58.3859],[-5.1763,58.362],[-5.1554,58.353],[-5.1884,58.3508],[-5.1589,58.3352],[-5.1633,58.3184],[-5.1303,58.3204],[-5.1479,58.312],[-5.1284,58.3104],[-5.1483,58.3004],[-5.1229,58.2934],[-5.1342,58.2777],[-5.1103,58.2821],[-5.0568,58.2574],[-4.9231,58.2564],[-4.9951,58.2508],[-4.9357,58.2144],[-5.0075,58.2549],[-5.057,58.2465],[-5.1091,58.2701],[-5.134,58.2668],[-5.122,58.2503],[-5.1652,58.2592],[-5.1733,58.2416],[-5.1587,58.233],[-5.1807,58.2522],[-5.2417,58.2494],[-5.2401,58.2616],[-5.2623,58.2687],[-5.2802,58.2579],[-5.2427,58.2498],[-5.3063,58.2256],[-5.3757,58.2649],[-5.405,58.2355],[-5.362,58.2174],[-5.3327,58.1804],[-5.3041,58.1757],[-5.3118,58.1615],[-5.2788,58.1669],[-5.3097,58.155],[-5.2408,58.1473],[-5.2996,58.1369],[-5.2622,58.1211],[-5.3029,58.1198],[-5.2678,58.1024],[-5.301,58.0647],[-5.3398,58.0808],[-5.3565,58.0579],[-5.4232,58.1062],[-5.4585,58.0773],[-5.4129,58.0521],[-5.4205,58.033],[-5.3624,58.0281],[-5.3481,58.0145],[-5.3565,58.0064],[-5.3319,58.0065],[-5.3109,57.9787],[-5.1941,57.9572],[-5.1926,57.9442],[-5.1742,57.9562],[-5.1796,57.9409],[-5.2243,57.9254],[-5.1033,57.8719],[-5.0724,57.8198],[-5.127,57.8748],[-5.2397,57.9177],[-5.3287,57.9143],[-5.3613,57.9392],[-5.4068,57.9276],[-5.2213,57.8445],[-5.3176,57.8631],[-5.4223,57.9092],[-5.4318,57.882],[-5.4614,57.863],[-5.4535,57.8523],[-5.4704,57.8537],[-5.5393,57.8693],[-5.5614,57.9178],[-5.6186,57.9244],[-5.6574,57.8893],[-5.644,57.8838],[-5.6562,57.8792],[-5.6432,57.855],[-5.5829,57.8369],[-5.5979,57.802],[-5.5796,57.7909],[-5.6223,57.7898],[-5.6036,57.7652],[-5.6665,57.799],[-5.6604,57.8231],[-5.6915,57.8434],[-5.6821,57.8642],[-5.6968,57.8722],[-5.814,57.8586],[-5.8018,57.7935],[-5.813,57.7499],[-5.6979,57.7299],[-5.6732,57.7014],[-5.6879,57.6992],[-5.6824,57.6895],[-5.7381,57.7084],[-5.79,57.6974],[-5.8189,57.639],[-5.7558,57.6232],[-5.7278,57.5855],[-5.6863,57.5769],[-5.6814,57.5676],[-5.7039,57.5637],[-5.6689,57.5456],[-5.5901,57.5565],[-5.5146,57.5412],[-5.5229,57.5301],[-5.6063,57.5358],[-5.6257,57.5312],[-5.6216,57.5211],[-5.6557,57.5456],[-5.6499,57.5104],[-5.6992,57.5325],[-5.7089,57.5563],[-5.7072,57.5401],[-5.7427,57.544],[-5.8111,57.586],[-5.8379,57.5792],[-5.8735,57.4735],[-5.8545,57.4422],[-5.8068,57.4391],[-5.8257,57.4189],[-5.8078,57.3994],[-5.8318,57.3913],[-5.8229,57.3634],[-5.8074,57.3752],[-5.7889,57.3466],[-5.746,57.3505],[-5.6112,57.4138],[-5.6168,57.3978],[-5.5957,57.3901],[-5.6348,57.3801],[-5.6359,57.3664],[-5.5516,57.358],[-5.4699,57.4158],[-5.4407,57.4141],[-5.534,57.3534],[-5.686,57.3416],[-5.6785,57.3254],[-5.7204,57.3157],[-5.721,57.2846],[-5.734,57.2826],[-5.5197,57.276],[-5.4843,57.3099],[-5.444,57.3163],[-5.4855,57.3067],[-5.5173,57.2742],[-5.4511,57.237],[-5.399,57.2301],[-5.4349,57.2145],[-5.5301,57.2715],[-5.5976,57.2598],[-5.6533,57.2385],[-5.6554,57.2264],[-5.6257,57.2137],[-5.6993,57.1664],[-5.6605,57.1425],[-5.564,57.1338],[-5.5528,57.1125],[-5.5193,57.1001],[-5.389,57.1079],[-5.5121,57.0984],[-5.52,57.0814],[-5.592,57.1193],[-5.7224,57.1184],[-5.7312,57.099],[-5.7976,57.0656],[-5.792,57.053],[-5.7624,57.0502],[-5.7491,57.0292],[-5.6735,57.0333],[-5.6793,57.01],[-5.6362,56.9857],[-5.5118,56.9951],[-5.6354,56.9702],[-5.7093,56.9918],[-5.7274,57.0184],[-5.8309,57.0081],[-5.8479,56.9729],[-5.8201,56.9609],[-5.845,56.9672],[-5.864,56.9265],[-5.8846,56.9199],[-5.8446,56.9073],[-5.8944,56.9045],[-5.9223,56.8815],[-5.8873,56.874],[-5.7372,56.8956],[-5.7227,56.8889],[-5.7891,56.86],[-5.7258,56.8502],[-5.6781,56.8797],[-5.7184,56.844],[-5.8557,56.8335],[-5.8673,56.8109],[-5.8207,56.7992],[-5.8776,56.8115],[-5.888,56.7923],[-5.7546,56.7823],[-5.7946,56.7923],[-5.83,56.785],[-5.8306,56.7711],[-5.893,56.7792],[-5.8457,56.7429],[-5.876,56.7454],[-5.8693,56.756],[-5.8849,56.7633],[-5.9143,56.7532],[-5.966,56.7848],[-5.9824,56.769],[-6.1884,56.755],[-6.1839,56.737],[-6.2276,56.726],[-6.2181,56.7026],[-6.1878,56.6878],[-6.0675,56.6939],[-5.9745,56.6721],[-5.9388,56.6869],[-5.8393,56.6723],[-5.7771,56.716],[-5.718,56.7099],[-5.6639,56.6801],[-5.539,56.6857],[-5.661,56.6765],[-5.7471,56.7015],[-5.8801,56.6527],[-5.8328,56.6235],[-5.9279,56.6695],[-5.9511,56.6584],[-5.909,56.657],[-6.0079,56.6455],[-6.0011,56.6192],[-5.9054,56.5512],[-5.7838,56.5321],[-5.7511,56.5613],[-5.772,56.5326],[-5.6854,56.4971],[-5.5474,56.5535],[-5.4926,56.6059],[-5.5226,56.6169],[-5.4696,56.6147],[-5.3032,56.7116],[-5.2846,56.6996],[-5.2424,56.72],[-5.2558,56.7316],[-5.2315,56.7632],[-5.119,56.8337],[-5.3299,56.8588],[-5.1921,56.8547],[-5.1024,56.8346],[-5.2466,56.7025],[-5.1624,56.6849],[-4.9695,56.7145],[-5.1168,56.6804],[-5.2243,56.6865],[-5.3168,56.6541],[-5.3262,56.6473],[-5.2999,56.637],[-5.3617,56.6037],[-5.3885,56.5768],[-5.3762,56.5659],[-5.4023,56.5647],[-5.4162,56.5389],[-5.3957,56.5435],[-5.3666,56.5235],[-5.2315,56.5639],[-5.3596,56.514],[-5.4211,56.5264],[-5.4745,56.4806],[-5.4529,56.4877],[-5.4558,56.4751],[-5.424,56.5013],[-5.4007,56.4741],[-5.4099,56.4583],[-5.3456,56.4714],[-5.2567,56.4638],[-5.2302,56.4466],[-5.1836,56.4613],[-5.1559,56.5013],[-5.1192,56.5126],[-5.0647,56.5629],[-5.1289,56.4923],[-5.1183,56.4895],[-5.1905,56.4483],[-5.2372,56.4363],[-5.2668,56.4579],[-5.3497,56.46],[-5.4638,56.447],[-5.4844,56.4356],[-5.4732,56.4128],[-5.5145,56.3955],[-5.5387,56.3597],[-5.5203,56.3452],[-5.4446,56.3629],[-5.5776,56.3335],[-5.5965,56.249],[-5.5047,56.2697],[-5.4846,56.2563],[-5.5669,56.2373],[-5.544,56.2165],[-5.6148,56.1316],[-5.504,56.1888],[-5.5689,56.1138],[-5.5301,56.1002],[-5.5457,56.0838],[-5.5285,56.0745],[-5.5851,56.0918],[-5.715,55.9487],[-5.6823,55.9644],[-5.7092,55.9361],[-5.6936,55.9315],[-5.6495,55.9801],[-5.6633,55.9789],[-5.654,55.9978],[-5.6357,56.0129],[-5.6584,55.9836],[-5.6473,55.9831],[-5.6123,56.0166],[-5.6248,56.0247],[-5.5803,56.0527],[-5.6088,56.0244],[-5.5662,56.0413],[-5.5982,56.0159],[-5.5629,56.0299],[-5.5723,56.017],[-5.6646,55.9501],[-5.6911,55.9099],[-5.678,55.8863],[-5.5729,55.9355],[-5.6637,55.8468],[-5.6662,55.8004],[-5.6398,55.7867],[-5.608,55.795],[-5.6156,55.7606],[-5.5388,55.786],[-5.4373,55.857],[-5.4796,55.8043],[-5.5717,55.7667],[-5.6187,55.7113],[-5.6771,55.6825],[-5.664,55.6677],[-5.6729,55.6323],[-5.6935,55.5874],[-5.717,55.574],[-5.7035,55.5362],[-5.7184,55.4351],[-5.7971,55.3907],[-5.8017,55.302],[-5.7443,55.2894],[-5.5616,55.3231],[-5.5173,55.375],[-5.5491,55.4178],[-5.6037,55.4252],[-5.55,55.4342],[-5.5432,55.4682],[-5.5088,55.4892],[-5.4922,55.5467]],[[-5.8815,56.6705],[-5.87,56.6615],[-5.8949,56.6527],[-5.8815,56.6705]]],[[[-5.2579,55.7211],[-5.3655,55.6784],[-5.3958,55.6279],[-5.3958,55.6109],[-5.3483,55.5691],[-5.3565,55.5056],[-5.3261,55.4957],[-5.3153,55.4645],[-5.2503,55.4385],[-5.1001,55.443],[-5.0784,55.4645],[-5.0933,55.4892],[-5.0786,55.5095],[-5.1278,55.531],[-5.0826,55.5525],[-5.1523,55.5815],[-5.1273,55.6106],[-5.1609,55.6788],[-5.2579,55.7211]]],[[[-5.7219,55.7286],[-5.7406,55.7246],[-5.7379,55.7081],[-5.7745,55.6768],[-5.76,55.6674],[-5.7638,55.6458],[-5.7178,55.6851],[-5.7332,55.6843],[-5.7215,55.7002],[-5.7309,55.7108],[-5.7112,55.7228],[-5.7219,55.7286]]],[[[-6.1904,55.629],[-6.0841,55.6391],[-6.0734,55.6632],[-6.0582,55.6571],[-6.0189,55.685],[-6.0359,55.6914],[-6.0288,55.7239],[-6.0525,55.7424],[-6.046,55.7638],[-6.1034,55.8124],[-6.1011,55.8405],[-6.1322,55.892],[-6.1234,55.9381],[-6.1971,55.927],[-6.279,55.8776],[-6.3128,55.8742],[-6.3262,55.8248],[-6.3454,55.836],[-6.3243,55.8912],[-6.3929,55.8584],[-6.456,55.8527],[-6.4573,55.8104],[-6.4875,55.7925],[-6.4562,55.7835],[-6.4618,55.752],[-6.4981,55.7354],[-6.5079,55.7191],[-6.4912,55.7143],[-6.5261,55.6937],[-6.5096,55.6767],[-6.4825,55.6726],[-6.4155,55.7055],[-6.3465,55.7841],[-6.2596,55.7824],[-6.2618,55.7645],[-6.3402,55.7295],[-6.3413,55.7161],[-6.2823,55.6982],[-6.2607,55.6602],[-6.309,55.6455],[-6.3379,55.5897],[-6.2671,55.5789],[-6.2344,55.5966],[-6.2171,55.6294],[-6.1904,55.629]]],[[[-5.9312,55.8694],[-5.9025,55.8665],[-5.896,55.8896],[-5.8823,55.8905],[-5.8869,55.879],[-5.8729,55.8898],[-5.836,55.9705],[-5.6876,56.1113],[-5.6973,56.1439],[-5.7385,56.1414],[-5.9539,56.0358],[-6.0066,55.9728],[-5.9403,55.9603],[-5.8938,55.9813],[-5.8832,55.969],[-5.8567,55.9795],[-5.9173,55.9565],[-6.0427,55.9406],[-6.0968,55.8718],[-6.0651,55.8058],[-5.9703,55.7916],[-5.9394,55.8259],[-5.9509,55.8348],[-5.9312,55.8694]]],[[[-6.2238,56.0285],[-6.2807,56.0159],[-6.2529,56.0149],[-6.2529,56.0005],[-6.206,56.0198],[-6.2238,56.0285]]],[[[-5.6877,56.1999],[-5.7518,56.1679],[-5.6723,56.168],[-5.6877,56.1999]]],[[[-5.6916,56.2294],[-5.7127,56.2074],[-5.6857,56.2027],[-5.6916,56.2294]]],[[[-5.6083,56.2287],[-5.6115,56.1955],[-5.5882,56.2074],[-5.6083,56.2287]]],[[[-5.6366,56.2707],[-5.666,56.2193],[-5.6358,56.1857],[-5.6173,56.2433],[-5.6366,56.2707]]],[[[-6.146,56.1325],[-6.1779,56.1204],[-6.1796,56.1056],[-6.2125,56.1064],[-6.2462,56.0858],[-6.2429,56.0726],[-6.2629,56.0646],[-6.2485,56.0559],[-6.2807,56.0365],[-6.244,56.0444],[-6.2561,56.0348],[-6.2212,56.0394],[-6.2144,56.0277],[-6.1854,56.0417],[-6.1954,56.0613],[-6.1329,56.1213],[-6.146,56.1325]]],[[[-6.4313,56.3356],[-6.4223,56.3268],[-6.4451,56.3138],[-6.4213,56.3068],[-6.3804,56.3493],[-6.4313,56.3356]]],[[[-6.2588,56.4557],[-6.2671,56.4501],[-6.2502,56.4487],[-6.2588,56.4557]]],[[[-7.6314,56.7895],[-7.661,56.7853],[-7.6116,56.784],[-7.6314,56.7895]]],[[[-7.6271,56.8301],[-7.6596,56.8225],[-7.6482,56.8126],[-7.6665,56.7998],[-7.6218,56.8025],[-7.6271,56.8301]]],[[[-7.5745,56.8612],[-7.5985,56.8494],[-7.5481,56.8489],[-7.5745,56.8612]]],[[[-7.5119,56.9019],[-7.5404,56.8981],[-7.5164,56.88],[-7.489,56.8858],[-7.5119,56.9019]]],[[[-7.5663,56.9489],[-7.5827,56.9335],[-7.5424,56.9266],[-7.5626,56.9223],[-7.5493,56.9092],[-7.5038,56.917],[-7.5343,56.922],[-7.5172,56.9337],[-7.4816,56.9312],[-7.5663,56.9489]]],[[[-7.4485,57.0588],[-7.4562,57.0248],[-7.5288,57.013],[-7.5029,57.0038],[-7.5282,56.986],[-7.5138,56.9797],[-7.5524,56.9716],[-7.5625,56.9549],[-7.4551,56.9442],[-7.4049,56.9777],[-7.4212,56.9918],[-7.3783,56.9791],[-7.4028,57.0014],[-7.4299,57.0018],[-7.4055,57.0025],[-7.4286,57.0121],[-7.3907,57.0021],[-7.446,57.0204],[-7.419,57.0389],[-7.4485,57.0588]]],[[[-7.3455,57.0186],[-7.3639,57.0136],[-7.329,57.0066],[-7.3455,57.0186]]],[[[-6.7526,56.5563],[-6.7768,56.537],[-6.8187,56.5434],[-6.8735,56.5184],[-6.9512,56.529],[-7.0001,56.5015],[-6.9751,56.4888],[-6.9804,56.4522],[-6.9501,56.4588],[-6.9096,56.4405],[-6.8888,56.4473],[-6.896,56.4735],[-6.8765,56.4888],[-6.8127,56.4886],[-6.7977,56.5054],[-6.8132,56.5134],[-6.8043,56.5235],[-6.7255,56.5267],[-6.7526,56.5563]]],[[[-6.4656,56.6908],[-6.5339,56.6758],[-6.6129,56.6378],[-6.6562,56.5934],[-6.6782,56.5981],[-6.7106,56.5757],[-6.6888,56.5622],[-6.6715,56.5832],[-6.6431,56.5715],[-6.6243,56.5919],[-6.6144,56.575],[-6.5665,56.5864],[-6.5232,56.612],[-6.5249,56.6277],[-6.5066,56.6163],[-6.4932,56.6269],[-6.4525,56.6746],[-6.4656,56.6908]]],[[[-7.1884,57.4098],[-7.2343,57.3916],[-7.2035,57.3862],[-7.2192,57.3886],[-7.1876,57.3948],[-7.1884,57.4098]]],[[[-7.3249,57.0252],[-7.3479,57.02],[-7.3194,57.0148],[-7.3249,57.0252]]],[[[-7.3875,57.0613],[-7.3994,57.0429],[-7.3715,57.0519],[-7.3875,57.0613]]],[[[-7.2767,57.0905],[-7.314,57.09],[-7.309,57.0589],[-7.2817,57.0573],[-7.2986,57.0669],[-7.2777,57.0671],[-7.2767,57.0905]]],[[[-7.3449,57.2325],[-7.2612,57.2268],[-7.2427,57.2489],[-7.253,57.2602],[-7.1914,57.2984],[-7.2197,57.3019],[-7.2272,57.3239],[-7.2941,57.3371],[-7.2632,57.328],[-7.2201,57.3476],[-7.261,57.3418],[-7.2735,57.3489],[-7.2388,57.3507],[-7.3005,57.3719],[-7.2713,57.3799],[-7.3356,57.4026],[-7.3793,57.397],[-7.3642,57.4187],[-7.3796,57.399],[-7.4321,57.3849],[-7.404,57.3577],[-7.3978,57.3025],[-7.4223,57.2891],[-7.4307,57.2462],[-7.4595,57.241],[-7.4235,57.2163],[-7.4029,57.1374],[-7.4151,57.1299],[-7.3748,57.1035],[-7.2272,57.0958],[-7.2114,57.1176],[-7.241,57.1196],[-7.2457,57.136],[-7.335,57.1366],[-7.3258,57.1448],[-7.3496,57.1505],[-7.2988,57.1484],[-7.3212,57.1641],[-7.2683,57.1496],[-7.2446,57.1637],[-7.2617,57.2084],[-7.3085,57.23],[-7.3498,57.2275],[-7.3607,57.2419],[-7.3449,57.2325]]],[[[-7.2586,57.4009],[-7.2628,57.3879],[-7.2384,57.3939],[-7.2586,57.4009]]],[[[-7.3449,57.4927],[-7.4118,57.4711],[-7.3928,57.422],[-7.3042,57.3969],[-7.2615,57.3974],[-7.3138,57.4178],[-7.2392,57.4013],[-7.1971,57.4135],[-7.2352,57.4137],[-7.2017,57.418],[-7.2194,57.4389],[-7.2754,57.4387],[-7.2649,57.4509],[-7.2503,57.4397],[-7.25,57.454],[-7.218,57.4461],[-7.2411,57.451],[-7.2355,57.4614],[-7.2009,57.4605],[-7.3449,57.4927]]],[[[-6.1991,56.5166],[-6.1474,56.4994],[-6.1502,56.4816],[-6.1304,56.4732],[-6.0127,56.4994],[-5.9962,56.4851],[-6.0551,56.4518],[-6.1295,56.4484],[-6.1521,56.4131],[-6.2051,56.3858],[-6.2006,56.3616],[-6.1013,56.3671],[-6.024,56.3941],[-5.9868,56.3848],[-6.0144,56.3884],[-6.0046,56.3776],[-6.019,56.3656],[-6.1029,56.3431],[-6.2521,56.3419],[-6.2357,56.3162],[-6.2888,56.3223],[-6.2672,56.3254],[-6.2945,56.3442],[-6.3505,56.3476],[-6.3768,56.3096],[-6.3518,56.2995],[-6.3856,56.2877],[-6.354,56.2932],[-6.3238,56.2693],[-6.2675,56.2639],[-6.2443,56.2885],[-6.1421,56.2844],[-6.0784,56.3021],[-6.043,56.2927],[-5.9865,56.3221],[-5.9323,56.3211],[-5.8738,56.3555],[-5.8485,56.3431],[-5.889,56.3214],[-5.833,56.3107],[-5.6889,56.3782],[-5.7921,56.3665],[-5.7315,56.3958],[-5.7438,56.4107],[-5.7107,56.4141],[-5.7183,56.3908],[-5.6791,56.3835],[-5.6522,56.4169],[-5.6854,56.4369],[-5.6474,56.4298],[-5.6524,56.457],[-5.681,56.4529],[-5.7193,56.4862],[-5.7649,56.4893],[-5.7963,56.5155],[-5.9542,56.5216],[-5.9884,56.5792],[-6.0672,56.6197],[-6.0657,56.6384],[-6.1191,56.6548],[-6.1977,56.6431],[-6.2085,56.635],[-6.1946,56.6237],[-6.2289,56.6337],[-6.2249,56.6051],[-6.1896,56.5858],[-6.2579,56.6148],[-6.3251,56.6052],[-6.3132,56.576],[-6.2801,56.577],[-6.3382,56.5533],[-6.3401,56.5361],[-6.1991,56.5166]]],[[[-6.0881,56.4704],[-6.1017,56.4643],[-6.075,56.4656],[-6.0881,56.4704]]],[[[-6.2245,56.5],[-6.3114,56.4963],[-6.3069,56.4797],[-6.2778,56.4719],[-6.2581,56.489],[-6.2698,56.4774],[-6.2423,56.4651],[-6.141,56.4716],[-6.2245,56.5]]],[[[-6.041,56.6237],[-6.0517,56.6205],[-6.0296,56.6111],[-6.041,56.6237]]],[[[-5.6082,56.2781],[-5.5846,56.3301],[-5.6546,56.2975],[-5.6338,56.2907],[-5.6272,56.2656],[-5.6082,56.2781]]],[[[-5.4964,56.4247],[-5.5635,56.4084],[-5.5895,56.3804],[-5.5516,56.3728],[-5.4964,56.4247]]],[[[-5.4266,56.5595],[-5.4704,56.5584],[-5.5223,56.5131],[-5.5946,56.4915],[-5.5723,56.4942],[-5.5991,56.4608],[-5.5072,56.4979],[-5.4266,56.5595]]],[[[-6.5035,57.0704],[-6.6124,57.0509],[-6.5962,57.0414],[-6.516,57.0568],[-6.5112,57.0441],[-6.4654,57.0443],[-6.5043,57.0518],[-6.4845,57.0662],[-6.5035,57.0704]]],[[[-6.2486,56.8325],[-6.2353,56.8227],[-6.214,56.8355],[-6.2675,56.8487],[-6.2779,56.8353],[-6.2486,56.8325]]],[[[-5.8876,56.9265],[-5.9018,56.9203],[-5.8845,56.9163],[-5.8876,56.9265]]],[[[-6.1132,56.9271],[-6.1523,56.942],[-6.1568,56.9165],[-6.2083,56.9072],[-6.2107,56.8884],[-6.1366,56.872],[-6.1155,56.8894],[-6.1132,56.9271]]],[[[-6.2041,57.166],[-6.2564,57.1473],[-6.2184,57.1294],[-6.2017,57.1358],[-6.21,57.1503],[-6.1786,57.1568],[-6.2041,57.166]]],[[[-5.8543,57.2824],[-5.8701,57.2717],[-5.8477,57.2714],[-5.8543,57.2824]]],[[[-6.328,57.0598],[-6.46,57.0075],[-6.3768,56.973],[-6.3701,56.9523],[-6.304,56.9361],[-6.25,56.9712],[-6.2379,57.0047],[-6.2782,57.0129],[-6.247,57.02],[-6.2596,57.037],[-6.328,57.0598]]],[[[-6.4922,57.3453],[-6.5139,57.332],[-6.4922,57.3304],[-6.4922,57.3453]]],[[[-6.3561,57.9027],[-6.3816,57.903],[-6.3526,57.8801],[-6.3561,57.9027]]],[[[-5.8393,57.3513],[-5.8405,57.3382],[-5.8535,57.348],[-5.8456,57.3353],[-5.8194,57.3358],[-5.8393,57.3513]]],[[[-6.0032,57.5163],[-6.0145,57.5144],[-5.9933,57.493],[-6.02,57.4799],[-6.0217,57.4951],[-6.034,57.49],[-6.0178,57.4546],[-6.0554,57.4623],[-6.0853,57.4212],[-6.0747,57.3794],[-6.0886,57.3504],[-6.0645,57.3316],[-6.021,57.3327],[-5.9921,57.3584],[-6.0317,57.4301],[-5.9827,57.4795],[-5.9783,57.4945],[-6.0032,57.5163]]],[[[-6.4068,57.654],[-6.4274,57.6417],[-6.3951,57.6132],[-6.3957,57.5851],[-6.3607,57.5885],[-6.3824,57.5643],[-6.3953,57.5693],[-6.3954,57.5536],[-6.3663,57.5158],[-6.3069,57.4831],[-6.3268,57.4834],[-6.3118,57.4552],[-6.3351,57.4903],[-6.3443,57.4823],[-6.3996,57.5287],[-6.4007,57.509],[-6.4362,57.4915],[-6.4349,57.4726],[-6.4493,57.4846],[-6.4271,57.5183],[-6.4632,57.4998],[-6.5043,57.534],[-6.5643,57.5484],[-6.5878,57.5937],[-6.6348,57.6084],[-6.655,57.5446],[-6.6424,57.5519],[-6.5613,57.508],[-6.5696,57.494],[-6.5985,57.5099],[-6.639,57.5027],[-6.614,57.4671],[-6.6241,57.4589],[-6.5946,57.4538],[-6.584,57.4254],[-6.5983,57.4449],[-6.6232,57.4354],[-6.666,57.4598],[-6.7167,57.5138],[-6.7497,57.496],[-6.7459,57.4679],[-6.7208,57.45],[-6.7817,57.458],[-6.7892,57.4202],[-6.7441,57.4175],[-6.7172,57.3702],[-6.5829,57.3323],[-6.5638,57.3385],[-6.573,57.3885],[-6.5304,57.4032],[-6.5177,57.3929],[-6.5246,57.3688],[-6.4901,57.4032],[-6.4856,57.3803],[-6.4698,57.3772],[-6.4824,57.3672],[-6.4557,57.3596],[-6.4588,57.3388],[-6.3924,57.3599],[-6.4027,57.3397],[-6.3157,57.2993],[-6.4308,57.34],[-6.4279,57.3234],[-6.4829,57.3113],[-6.4824,57.2923],[-6.4039,57.2313],[-6.3446,57.2505],[-6.349,57.2306],[-6.3876,57.2173],[-6.3478,57.1858],[-6.2851,57.2002],[-6.3227,57.16],[-6.1718,57.1744],[-6.165,57.1987],[-6.1103,57.1863],[-6.1135,57.1376],[-6.0829,57.126],[-6.0476,57.1791],[-6.028,57.1851],[-6.0371,57.2244],[-6.0029,57.1985],[-5.9932,57.168],[-5.8412,57.1877],[-5.9964,57.1263],[-6.0062,57.114],[-5.9868,57.1065],[-6.0124,57.079],[-5.9995,57.0739],[-6.0386,57.0566],[-6.0175,57.0176],[-5.924,57.0426],[-5.8549,57.1088],[-5.8043,57.1211],[-5.8049,57.1366],[-5.7798,57.144],[-5.7993,57.1426],[-5.8054,57.1746],[-5.7644,57.1695],[-5.6688,57.2087],[-5.6467,57.2553],[-5.6613,57.2645],[-5.7304,57.2606],[-5.7105,57.2715],[-5.7535,57.2747],[-5.8954,57.2401],[-5.9208,57.2623],[-6.0209,57.2881],[-6.0743,57.2668],[-6.0404,57.2931],[-6.0565,57.314],[-6.1571,57.299],[-6.1033,57.3183],[-6.0946,57.3391],[-6.145,57.3709],[-6.1234,57.3884],[-6.1371,57.4051],[-6.2004,57.3956],[-6.1999,57.4091],[-6.1452,57.4302],[-6.1368,57.588],[-6.1916,57.6339],[-6.2337,57.6376],[-6.2495,57.6734],[-6.3021,57.6918],[-6.2969,57.7078],[-6.3542,57.7079],[-6.3479,57.677],[-6.4068,57.654]],[[-5.9976,57.3249],[-5.926,57.3082],[-5.9249,57.282],[-5.982,57.2735],[-6.0072,57.2883],[-6.0235,57.3077],[-5.9976,57.3249]]],[[[-5.9616,57.5834],[-5.9901,57.5708],[-5.9821,57.5442],[-6.0024,57.5432],[-5.9822,57.5393],[-5.9984,57.5308],[-5.9805,57.5112],[-5.9524,57.5682],[-5.9616,57.5834]]],[[[-6.3345,57.9067],[-6.3435,57.9014],[-6.3242,57.8983],[-6.3345,57.9067]]],[[[-6.6321,58.0823],[-6.4662,58.1031],[-6.4276,58.1208],[-6.4876,58.1416],[-6.3702,58.1315],[-6.3693,58.1429],[-6.4218,58.1392],[-6.3675,58.1527],[-6.3873,58.1798],[-6.3693,58.1924],[-6.3859,58.1906],[-6.3897,58.2113],[-6.3443,58.1869],[-6.2886,58.2053],[-6.2512,58.1798],[-6.1605,58.2138],[-6.1644,58.2289],[-6.1376,58.2615],[-6.1656,58.2627],[-6.2846,58.207],[-6.3465,58.2281],[-6.3158,58.2446],[-6.321,58.2682],[-6.2812,58.2691],[-6.276,58.2927],[-6.242,58.2957],[-6.2331,58.3173],[-6.1621,58.3426],[-6.2165,58.3673],[-6.1682,58.4173],[-6.1945,58.4465],[-6.1806,58.4668],[-6.2265,58.4901],[-6.2232,58.5014],[-6.2701,58.5154],[-6.2844,58.5086],[-6.2718,58.4968],[-6.5201,58.3972],[-6.5471,58.3654],[-6.6392,58.3432],[-6.6513,58.3549],[-6.7557,58.3062],[-6.8044,58.3043],[-6.7957,58.2968],[-6.8258,58.2806],[-6.7768,58.2805],[-6.8197,58.2738],[-6.81,58.2534],[-6.7401,58.212],[-6.7576,58.2091],[-6.7568,58.1946],[-6.7079,58.1844],[-6.7338,58.1665],[-6.7501,58.1926],[-6.8279,58.2046],[-6.8667,58.1919],[-6.8616,58.181],[-6.8768,58.1897],[-6.8692,58.1733],[-6.8866,58.1627],[-6.8618,58.1159],[-6.8888,58.1504],[-6.8932,58.1869],[-6.9628,58.2034],[-6.9101,58.2036],[-6.9144,58.2176],[-6.9604,58.2356],[-6.9754,58.2198],[-7.0264,58.2325],[-7.0243,58.2444],[-7.049,58.2325],[-7.0652,58.1956],[-7.0408,58.1877],[-7.0318,58.1988],[-7.0168,58.1834],[-7.1014,58.1861],[-7.0926,58.1596],[-7.1363,58.127],[-7.1107,58.1098],[-7.1009,58.0702],[-7.0658,58.0599],[-7.0289,58.0807],[-7.0223,58.0709],[-7.0593,58.0552],[-7.0213,58.0539],[-7.0648,58.0443],[-7.0403,58.0333],[-6.9093,58.051],[-7.0294,58.0312],[-7.0568,58.0093],[-7.0838,58.0206],[-7.1145,57.9889],[-7.0903,57.9943],[-7.0803,57.9671],[-7.023,57.9519],[-6.9952,57.9542],[-7.0004,57.9653],[-6.9221,57.9399],[-6.9021,57.9486],[-6.9138,57.936],[-6.8496,57.9341],[-6.8407,57.9281],[-6.8673,57.9242],[-6.8156,57.9008],[-6.9493,57.9051],[-6.9612,57.887],[-6.9074,57.8695],[-6.9924,57.8688],[-7.0174,57.8381],[-7.0763,57.8129],[-7.0811,57.8329],[-7.1052,57.8416],[-7.1339,57.8376],[-7.129,57.8246],[-7.0142,57.7695],[-7.0259,57.7715],[-7.0194,57.755],[-6.9655,57.7277],[-6.9754,57.7421],[-6.9446,57.7387],[-6.9371,57.7583],[-6.899,57.7642],[-6.9229,57.7814],[-6.8813,57.7718],[-6.8831,57.7957],[-6.8554,57.7902],[-6.8708,57.7979],[-6.856,57.7985],[-6.863,57.8126],[-6.8463,57.8027],[-6.8335,57.8148],[-6.8598,57.8341],[-6.7915,57.8045],[-6.7978,57.834],[-6.7363,57.8269],[-6.7739,57.8676],[-6.8038,57.8676],[-6.8124,57.8819],[-6.7869,57.8805],[-6.803,57.8976],[-6.6651,57.8822],[-6.6702,57.9002],[-6.7127,57.9152],[-6.6739,57.9222],[-6.7076,57.9541],[-6.7442,57.9529],[-6.7211,57.9614],[-6.7566,57.9952],[-6.6694,58.0463],[-6.6894,58.0577],[-6.5879,58.0531],[-6.6651,58.0535],[-6.7129,58.0129],[-6.7128,57.9832],[-6.6532,57.9183],[-6.6061,57.9172],[-6.6415,57.9616],[-6.5724,57.9093],[-6.573,57.9243],[-6.5368,57.9195],[-6.5486,57.9565],[-6.5182,57.9268],[-6.4691,57.9392],[-6.4484,57.9783],[-6.472,58.0008],[-6.5721,58.0038],[-6.4601,58.0188],[-6.3883,57.9997],[-6.357,58.0359],[-6.436,58.0479],[-6.3664,58.0563],[-6.3777,58.0916],[-6.3968,58.0847],[-6.3834,58.093],[-6.4004,58.0965],[-6.3849,58.104],[-6.3985,58.1117],[-6.4356,58.1003],[-6.4234,58.0969],[-6.4319,58.0901],[-6.6321,58.0823]]],[[[-7.6035,57.5335],[-7.629,57.5089],[-7.5996,57.5207],[-7.6035,57.5335]]],[[[-7.2654,57.5104],[-7.2873,57.51],[-7.264,57.5032],[-7.2774,57.497],[-7.3,57.5042],[-7.2856,57.4936],[-7.3001,57.4892],[-7.2015,57.4747],[-7.2171,57.5044],[-7.2654,57.5104]]],[[[-7.1711,57.5024],[-7.2079,57.4898],[-7.1766,57.4696],[-7.158,57.4837],[-7.1744,57.4875],[-7.1576,57.4913],[-7.1711,57.5024]]],[[[-7.1499,57.6226],[-7.159,57.6182],[-7.1337,57.6183],[-7.1499,57.6226]]],[[[-7.4001,57.5491],[-7.3539,57.4975],[-7.3576,57.5238],[-7.3361,57.5334],[-7.4001,57.5491]]],[[[-7.6443,57.5357],[-7.6807,57.5234],[-7.6417,57.5247],[-7.6443,57.5357]]],[[[-7.431,57.5694],[-7.4267,57.5519],[-7.401,57.5528],[-7.431,57.5694]]],[[[-7.5494,57.6026],[-7.4957,57.5835],[-7.4889,57.5655],[-7.4427,57.5692],[-7.4282,57.5782],[-7.4362,57.5857],[-7.34,57.5542],[-7.3568,57.5487],[-7.3188,57.5252],[-7.3333,57.5208],[-7.3227,57.5088],[-7.1967,57.5077],[-7.2242,57.5185],[-7.1629,57.5083],[-7.1457,57.5124],[-7.1687,57.5132],[-7.1386,57.5256],[-7.1349,57.554],[-7.2998,57.5533],[-7.2546,57.5706],[-7.2484,57.5591],[-7.2688,57.557],[-7.1365,57.5586],[-7.1026,57.587],[-7.1824,57.593],[-7.1522,57.6078],[-7.1823,57.6115],[-7.1517,57.6143],[-7.2002,57.6201],[-7.1877,57.6307],[-7.2151,57.6418],[-7.1651,57.6438],[-7.1973,57.6372],[-7.1594,57.62],[-7.1663,57.6331],[-7.1138,57.6323],[-7.1335,57.6261],[-7.1002,57.6079],[-7.0622,57.6408],[-7.1154,57.6637],[-7.1245,57.6585],[-7.1005,57.6489],[-7.1851,57.652],[-7.1616,57.6567],[-7.1554,57.6766],[-7.1919,57.6979],[-7.2778,57.6642],[-7.2474,57.6566],[-7.2657,57.6487],[-7.2827,57.667],[-7.3121,57.6617],[-7.2863,57.6583],[-7.2921,57.6449],[-7.3365,57.6604],[-7.3092,57.6866],[-7.317,57.694],[-7.3465,57.6809],[-7.3385,57.6695],[-7.3778,57.6594],[-7.3846,57.6354],[-7.4496,57.6633],[-7.4953,57.6598],[-7.4991,57.6306],[-7.5274,57.6223],[-7.5174,57.604],[-7.5494,57.6026]]],[[[-7.0499,57.6618],[-7.0605,57.6533],[-7.0449,57.6508],[-7.0499,57.6618]]],[[[-7.1604,57.7388],[-7.1989,57.7339],[-7.2301,57.707],[-7.1789,57.7021],[-7.1432,57.7287],[-7.1604,57.7388]]],[[[-7.0882,57.75],[-7.0918,57.7382],[-7.0571,57.7317],[-7.0882,57.75]]],[[[-5.1173,55.258],[-5.1241,55.2487],[-5.1065,55.2516],[-5.1173,55.258]]],[[[-5.0782,55.5372],[-5.087,55.5252],[-5.0613,55.513],[-5.0782,55.5372]]],[[[-5.1584,55.8043],[-5.1582,55.7764],[-5.1475,55.7847],[-5.1584,55.8043]]],[[[-4.9377,55.7333],[-4.968,55.7184],[-4.9487,55.7111],[-4.9377,55.7333]]],[[[-4.9434,55.7657],[-4.9502,55.7444],[-4.9132,55.7446],[-4.8942,55.7639],[-4.898,55.7916],[-4.9221,55.7902],[-4.9434,55.7657]]],[[[-5.1817,55.9247],[-5.2222,55.9012],[-5.1683,55.851],[-5.1277,55.8424],[-5.1436,55.8119],[-5.1272,55.8082],[-5.1207,55.7723],[-5.0961,55.7791],[-5.0633,55.7616],[-5.0334,55.7224],[-5.0034,55.7295],[-5.0323,55.7545],[-5.0012,55.7676],[-5.0244,55.8435],[-5.0584,55.8393],[-5.0613,55.8598],[-5.0901,55.8631],[-5.0784,55.882],[-5.1817,55.9247]]],[[[-5.3834,56.5925],[-5.4043,56.5854],[-5.3934,56.5783],[-5.3834,56.5925]]],[[[-5.6326,57.8471],[-5.638,57.832],[-5.6017,57.8216],[-5.6326,57.8471]]],[[[-2.4258,59.3873],[-2.4511,59.3577],[-2.4227,59.3474],[-2.3967,59.3556],[-2.4117,59.367],[-2.4043,59.3804],[-2.3684,59.3837],[-2.4258,59.3873]]],[[[-1.6075,59.5527],[-1.6399,59.5521],[-1.6556,59.5126],[-1.6088,59.5232],[-1.6157,59.533],[-1.5972,59.5396],[-1.6125,59.5405],[-1.6075,59.5527]]],[[[-2.0641,60.1543],[-2.1166,60.1339],[-2.0614,60.1103],[-2.0412,60.1406],[-2.0641,60.1543]]],[[[-2.9776,58.8507],[-2.9569,58.8605],[-2.9901,58.8534],[-2.9776,58.8507]]],[[[-2.9174,58.9648],[-2.9184,58.983],[-2.8876,58.991],[-2.9145,58.992],[-2.898,59.0092],[-2.9316,59.0157],[-2.9684,58.9818],[-2.969,58.9958],[-3.0009,59.0097],[-3.0375,59.0104],[-3.0539,58.9937],[-3.1232,59.0103],[-3.0607,59.023],[-3.0584,59.048],[-3.0118,59.0371],[-3.0019,59.0545],[-3.0068,59.0773],[-3.0628,59.0965],[-3.0451,59.1053],[-3.0729,59.1237],[-3.2225,59.154],[-3.3406,59.1379],[-3.3192,59.1297],[-3.3578,59.1036],[-3.3499,59.0614],[-3.3349,59.0552],[-3.357,59.0485],[-3.3479,59.0376],[-3.3666,59.0152],[-3.3537,58.9624],[-3.3062,58.9492],[-3.2934,58.9671],[-3.2626,58.9622],[-3.2512,58.9805],[-3.2823,58.9948],[-3.2629,59.0008],[-3.2978,59.0157],[-3.2123,58.9955],[-3.2473,59.0204],[-3.2368,59.032],[-3.2767,59.0429],[-3.2418,59.0463],[-3.2444,59.058],[-3.2261,59.0519],[-3.2199,59.0153],[-3.1972,58.9943],[-3.2498,58.9881],[-3.2514,58.9735],[-3.2316,58.9666],[-3.2372,58.9417],[-3.2029,58.9119],[-3.1298,58.9169],[-2.9777,58.9621],[-2.9356,58.8937],[-2.8973,58.8952],[-2.9244,58.8775],[-2.9094,58.8526],[-2.9379,58.8611],[-2.9658,58.8489],[-2.9065,58.8399],[-2.9568,58.8268],[-3.0149,58.8333],[-3.0367,58.8195],[-2.9749,58.8177],[-2.9977,58.8009],[-3.0108,58.814],[-3.0227,58.8062],[-2.9802,58.7861],[-2.9932,58.7539],[-2.961,58.7294],[-2.9179,58.7362],[-2.9093,58.7547],[-2.9395,58.7673],[-2.9194,58.7857],[-2.9312,58.7932],[-2.8775,58.8191],[-2.905,58.8408],[-2.8562,58.8529],[-2.8884,58.854],[-2.8852,58.8742],[-2.9133,58.8695],[-2.8826,58.8901],[-2.897,58.8953],[-2.8276,58.8733],[-2.785,58.9146],[-2.7124,58.9194],[-2.7173,58.9453],[-2.7031,58.9632],[-2.7155,58.973],[-2.812,58.9445],[-2.7855,58.9413],[-2.7862,58.9165],[-2.8028,58.9299],[-2.8301,58.9234],[-2.8262,58.9452],[-2.8473,58.9556],[-2.7924,58.9633],[-2.7999,58.9926],[-2.8571,58.9859],[-2.8834,58.9609],[-2.9174,58.9648]]],[[[-2.5726,59.0389],[-2.5748,59.0249],[-2.5589,59.0302],[-2.5726,59.0389]]],[[[-2.8025,59.0877],[-2.8411,59.0795],[-2.8555,59.0568],[-2.9029,59.078],[-2.935,59.0313],[-2.8267,59.0182],[-2.8056,59.0284],[-2.8232,59.0471],[-2.8001,59.0695],[-2.8025,59.0877]]],[[[-2.965,59.09],[-2.9933,59.0807],[-2.946,59.0785],[-2.965,59.09]]],[[[-2.9605,59.1274],[-3.0138,59.1131],[-2.9657,59.1104],[-2.9506,59.1176],[-2.9605,59.1274]]],[[[-2.6295,59.161],[-2.676,59.1531],[-2.6199,59.1193],[-2.6715,59.1084],[-2.6883,59.077],[-2.6486,59.0748],[-2.6578,59.1016],[-2.6325,59.1072],[-2.6062,59.0973],[-2.6034,59.0708],[-2.5967,59.0816],[-2.5349,59.0767],[-2.5271,59.0929],[-2.5522,59.107],[-2.5418,59.1217],[-2.5945,59.1154],[-2.6051,59.1368],[-2.5718,59.1414],[-2.625,59.1436],[-2.6351,59.1558],[-2.6143,59.1536],[-2.6295,59.161]]],[[[-2.6657,59.1408],[-2.6832,59.1358],[-2.6632,59.1275],[-2.6657,59.1408]]],[[[-2.9237,59.17],[-2.9415,59.1664],[-2.9427,59.1508],[-2.9199,59.1235],[-2.9078,59.163],[-2.9237,59.17]]],[[[-2.585,59.1574],[-2.6022,59.1509],[-2.5773,59.1481],[-2.585,59.1574]]],[[[-2.963,59.1381],[-2.9779,59.162],[-2.9528,59.1796],[-2.9676,59.1879],[-3.0301,59.1777],[-3.0768,59.2004],[-3.1194,59.1742],[-3.0932,59.1455],[-3.0425,59.1263],[-2.963,59.1381]]],[[[-2.8106,59.1659],[-2.7902,59.1371],[-2.7395,59.1451],[-2.7625,59.1911],[-2.7332,59.223],[-2.7623,59.2318],[-2.7551,59.2503],[-2.7919,59.2352],[-2.7805,59.1901],[-2.8268,59.1935],[-2.8247,59.1699],[-2.8106,59.1659]]],[[[-5.1792,58.3898],[-5.2103,58.3771],[-5.1716,58.3733],[-5.1792,58.3898]]],[[[-3.1159,58.6971],[-3.1401,58.667],[-3.1054,58.6712],[-3.1159,58.6971]]],[[[-3.0662,58.8479],[-3.1483,58.8276],[-3.1299,58.813],[-3.0802,58.8141],[-3.0767,58.8326],[-3.1112,58.836],[-3.0662,58.8479]]],[[[-3.1637,58.8557],[-3.1815,58.8445],[-3.1531,58.8346],[-3.1637,58.8557]]],[[[-3.1817,58.8149],[-3.1706,58.8236],[-3.2034,58.827],[-3.1909,58.836],[-3.2144,58.8405],[-3.1973,58.8526],[-3.2289,58.8698],[-3.212,58.8779],[-3.3156,58.9079],[-3.3434,58.9335],[-3.4049,58.9203],[-3.4366,58.8772],[-3.3799,58.8666],[-3.3705,58.837],[-3.2916,58.7755],[-3.1299,58.7878],[-3.1534,58.787],[-3.1375,58.8007],[-3.1526,58.807],[-3.2589,58.7881],[-3.1817,58.8149]]],[[[-3.1761,58.8872],[-3.1699,58.8718],[-3.1563,58.8762],[-3.1761,58.8872]]],[[[-3.308,58.9409],[-3.3077,58.9248],[-3.2659,58.9232],[-3.273,58.9373],[-3.308,58.9409]]],[[[-4.3564,58.5628],[-4.3456,58.5488],[-4.3263,58.5572],[-4.3564,58.5628]]],[[[-7.3951,57.6701],[-7.4418,57.6604],[-7.3941,57.653],[-7.3749,57.6675],[-7.3951,57.6701]]],[[[-7.2883,57.7197],[-7.3007,57.707],[-7.2743,57.7021],[-7.2883,57.7197]]],[[[-7.2279,57.7848],[-7.2674,57.7707],[-7.2346,57.7588],[-7.1993,57.772],[-7.2279,57.7848]]],[[[-8.6111,57.8278],[-8.6096,57.8093],[-8.551,57.7939],[-8.5736,57.8027],[-8.5496,57.8124],[-8.5648,57.8254],[-8.6111,57.8278]]],[[[-8.4888,57.8766],[-8.4996,57.8668],[-8.4804,57.8665],[-8.4888,57.8766]]],[[[-7.0771,57.7715],[-7.099,57.7674],[-7.0742,57.7512],[-7.0771,57.7715]]],[[[-7.0029,57.9218],[-7.0874,57.8915],[-7.0778,57.8748],[-7.0482,57.8944],[-7.0089,57.8802],[-6.9865,57.9028],[-7.0029,57.9218]]],[[[-6.7013,57.8793],[-6.7143,57.8751],[-6.6837,57.8624],[-6.6908,57.8512],[-6.6412,57.8567],[-6.65,57.8709],[-6.7013,57.8793]]],[[[-7.1308,58.0381],[-7.1718,58.026],[-7.153,58.0084],[-7.0999,58.0051],[-7.1072,58.0289],[-7.1308,58.0381]]],[[[-6.7218,58.0059],[-6.7411,58.0016],[-6.7238,57.9853],[-6.7124,57.9939],[-6.7218,58.0059]]],[[[-7.1306,58.0862],[-7.1363,58.0752],[-7.1178,58.0717],[-7.1306,58.0862]]],[[[-6.7681,58.2047],[-6.7784,58.202],[-6.765,58.193],[-6.7681,58.2047]]],[[[-6.8937,58.2185],[-6.8942,58.2059],[-6.8771,58.2079],[-6.8937,58.2185]]],[[[-5.4743,57.8992],[-5.4785,57.8835],[-5.4588,57.8783],[-5.4743,57.8992]]],[[[-5.5087,57.9679],[-5.5259,57.9607],[-5.4975,57.9573],[-5.5087,57.9679]]],[[[-5.2109,57.9487],[-5.2395,57.9466],[-5.218,57.9365],[-5.2109,57.9487]]],[[[-5.4453,58.0151],[-5.4587,58.012],[-5.4351,58.007],[-5.4453,58.0151]]],[[[-5.4078,58.0233],[-5.4217,58.0054],[-5.383,58.0051],[-5.4078,58.0233]]],[[[-5.4379,58.0529],[-5.4492,58.0398],[-5.4267,58.0411],[-5.4379,58.0529]]],[[[-6.8904,58.2609],[-6.8768,58.2296],[-6.8605,58.2234],[-6.8719,58.2424],[-6.8537,58.2259],[-6.8757,58.2203],[-6.8674,58.2074],[-6.7821,58.2027],[-6.7852,58.2214],[-6.8173,58.2406],[-6.8179,58.2293],[-6.8368,58.2325],[-6.8499,58.2576],[-6.8904,58.2609]]],[[[-5.8251,59.134],[-5.8436,59.1166],[-5.813,59.119],[-5.8251,59.134]]],[[[-2.7362,59.2466],[-2.7468,59.2335],[-2.7162,59.2317],[-2.7362,59.2466]]],[[[-2.4989,59.2586],[-2.4484,59.2835],[-2.3723,59.2807],[-2.4167,59.2865],[-2.4151,59.3115],[-2.4269,59.3134],[-2.4511,59.2901],[-2.5751,59.2618],[-2.5251,59.3042],[-2.6075,59.2896],[-2.6199,59.3097],[-2.6155,59.2826],[-2.594,59.2688],[-2.696,59.222],[-2.7022,59.1963],[-2.6871,59.1848],[-2.6838,59.2038],[-2.6727,59.1912],[-2.6284,59.238],[-2.6044,59.2275],[-2.5765,59.2401],[-2.5716,59.2196],[-2.5684,59.2366],[-2.5299,59.2419],[-2.5048,59.2227],[-2.519,59.255],[-2.5378,59.2505],[-2.5194,59.2571],[-2.5141,59.2435],[-2.4989,59.2586]]],[[[-2.9559,59.3603],[-3.0068,59.3276],[-3.0708,59.3296],[-3.0231,59.3052],[-3.0257,59.2782],[-2.9837,59.2588],[-2.9445,59.2725],[-2.9577,59.2896],[-2.8761,59.2558],[-2.8868,59.228],[-2.8589,59.251],[-2.8373,59.2463],[-2.856,59.2685],[-2.8799,59.2665],[-2.9035,59.3049],[-2.9878,59.3162],[-2.9529,59.3276],[-2.951,59.3395],[-2.9684,59.3406],[-2.9434,59.3483],[-2.9559,59.3603]]],[[[-2.878,59.3858],[-2.9122,59.35],[-2.9065,59.3227],[-2.8762,59.3345],[-2.8874,59.3537],[-2.868,59.3702],[-2.878,59.3858]]],[[[-1.2049,60.1072],[-1.1935,60.1172],[-1.2034,60.1294],[-1.1757,60.1189],[-1.1722,60.1411],[-1.156,60.129],[-1.16,60.1486],[-1.1329,60.1498],[-1.1636,60.1652],[-1.1475,60.1885],[-1.1593,60.1905],[-1.154,60.2044],[-1.2185,60.1725],[-1.1671,60.2226],[-1.2188,60.2007],[-1.1875,60.2327],[-1.2304,60.2302],[-1.1935,60.245],[-1.2008,60.2686],[-1.1945,60.2557],[-1.165,60.26],[-1.1791,60.2528],[-1.1707,60.2382],[-1.1436,60.2594],[-1.0988,60.2605],[-1.1103,60.2752],[-1.1508,60.2655],[-1.1444,60.279],[-1.1594,60.2809],[-1.0856,60.3004],[-1.0798,60.3227],[-1.1359,60.3219],[-1.1558,60.3381],[-1.1681,60.3223],[-1.1876,60.3511],[-1.0753,60.3566],[-1.0744,60.3882],[-1.1106,60.3918],[-1.1293,60.3698],[-1.141,60.3828],[-1.0505,60.4461],[-1.1106,60.4155],[-1.1186,60.4288],[-1.1373,60.4118],[-1.1222,60.4046],[-1.1524,60.4034],[-1.1639,60.3775],[-1.1696,60.4144],[-1.2568,60.4024],[-1.1954,60.4311],[-1.1673,60.42],[-1.1732,60.4338],[-1.1938,60.4317],[-1.1646,60.4397],[-1.1979,60.4453],[-1.1758,60.4576],[-1.2032,60.4632],[-1.2001,60.4808],[-1.229,60.496],[-1.3095,60.4777],[-1.3209,60.5266],[-1.3532,60.5319],[-1.3084,60.5442],[-1.306,60.6377],[-1.3499,60.6204],[-1.3353,60.5999],[-1.4346,60.6207],[-1.4189,60.6131],[-1.4345,60.6043],[-1.4185,60.6032],[-1.4445,60.5896],[-1.4348,60.5738],[-1.4974,60.5417],[-1.4553,60.5111],[-1.3963,60.5121],[-1.4499,60.5046],[-1.5157,60.5298],[-1.5322,60.5562],[-1.5665,60.5378],[-1.5796,60.5091],[-1.5632,60.5041],[-1.6121,60.5095],[-1.6334,60.4872],[-1.6125,60.4748],[-1.5537,60.4903],[-1.4981,60.484],[-1.513,60.4667],[-1.4979,60.4539],[-1.4566,60.4902],[-1.4679,60.4692],[-1.4321,60.4712],[-1.4648,60.4646],[-1.4653,60.4521],[-1.4221,60.4509],[-1.4499,60.4444],[-1.4528,60.416],[-1.399,60.419],[-1.3906,60.4085],[-1.416,60.4044],[-1.3862,60.398],[-1.4097,60.3957],[-1.405,60.3837],[-1.3768,60.3763],[-1.3546,60.3944],[-1.3492,60.3802],[-1.3647,60.3688],[-1.3024,60.3697],[-1.2628,60.3518],[-1.34,60.3596],[-1.3314,60.3372],[-1.3559,60.3451],[-1.3766,60.323],[-1.3642,60.3036],[-1.3463,60.3045],[-1.37,60.2858],[-1.3886,60.3146],[-1.4189,60.3152],[-1.4273,60.3292],[-1.4648,60.311],[-1.4425,60.3086],[-1.4664,60.3054],[-1.4449,60.2973],[-1.4882,60.3067],[-1.4782,60.2888],[-1.4597,60.289],[-1.478,60.2746],[-1.5039,60.319],[-1.5543,60.3019],[-1.5362,60.293],[-1.5818,60.3002],[-1.5722,60.2876],[-1.6098,60.3086],[-1.702,60.29],[-1.6805,60.2779],[-1.6988,60.258],[-1.6859,60.2514],[-1.6927,60.2369],[-1.6374,60.2293],[-1.6523,60.2196],[-1.623,60.2068],[-1.5654,60.2284],[-1.5519,60.2211],[-1.5565,60.2004],[-1.5145,60.2292],[-1.5323,60.247],[-1.4914,60.2308],[-1.5068,60.2149],[-1.4705,60.2207],[-1.5044,60.2086],[-1.4867,60.2045],[-1.5435,60.2038],[-1.5462,60.1875],[-1.512,60.1829],[-1.5106,60.1646],[-1.4626,60.1477],[-1.4363,60.1869],[-1.4278,60.1669],[-1.4014,60.1791],[-1.3983,60.2172],[-1.395,60.2001],[-1.3692,60.2093],[-1.3734,60.19],[-1.3606,60.1936],[-1.376,60.2366],[-1.4307,60.255],[-1.3563,60.2451],[-1.3693,60.2346],[-1.3477,60.2006],[-1.2929,60.2515],[-1.3285,60.164],[-1.2659,60.2331],[-1.3184,60.1718],[-1.3164,60.1586],[-1.2837,60.1953],[-1.3057,60.1336],[-1.267,60.1423],[-1.2742,60.0975],[-1.3176,60.0127],[-1.3469,59.9989],[-1.3306,59.9719],[-1.3547,59.9807],[-1.3615,59.9694],[-1.3319,59.9687],[-1.3299,59.9465],[-1.3649,59.9463],[-1.364,59.9201],[-1.392,59.9152],[-1.3846,59.8906],[-1.3505,59.8831],[-1.3207,59.8977],[-1.3071,59.8826],[-1.3135,59.8552],[-1.2976,59.8756],[-1.2719,59.8538],[-1.2688,59.8757],[-1.2984,59.8837],[-1.2695,59.8889],[-1.2691,59.9081],[-1.2917,59.9221],[-1.2715,59.9203],[-1.2535,59.9546],[-1.254,59.9763],[-1.2769,59.9906],[-1.2534,59.9966],[-1.2341,59.9811],[-1.2207,59.9949],[-1.2047,59.9724],[-1.198,59.991],[-1.2206,60.0014],[-1.2328,60.0335],[-1.1711,60.0404],[-1.2033,60.0477],[-1.2125,60.065],[-1.2083,60.0907],[-1.2245,60.1002],[-1.2049,60.1072]]],[[[-1.1854,60.008],[-1.1815,59.9923],[-1.1569,59.9968],[-1.1854,60.008]]],[[[-1.2991,60.0971],[-1.3327,60.0784],[-1.3245,60.0608],[-1.3401,60.0419],[-1.2991,60.0971]]],[[[-1.3111,60.1167],[-1.3458,60.1057],[-1.3263,60.095],[-1.3541,60.0807],[-1.3433,60.0594],[-1.3728,60.0421],[-1.3407,60.0582],[-1.3111,60.1167]]],[[[-1.2748,60.1318],[-1.3007,60.1249],[-1.311,60.0995],[-1.286,60.1065],[-1.2748,60.1318]]],[[[-1.3476,60.124],[-1.3575,60.1228],[-1.3332,60.1242],[-1.3476,60.124]]],[[[-1.035,60.1541],[-1.0473,60.1495],[-1.0232,60.1339],[-1.0038,60.1393],[-1.035,60.1541]]],[[[-1.3583,60.152],[-1.3686,60.1421],[-1.3523,60.1435],[-1.3583,60.152]]],[[[-1.0797,60.1888],[-1.09,60.1855],[-1.0789,60.1712],[-1.1292,60.1836],[-1.1484,60.1729],[-1.1134,60.1493],[-1.1215,60.1195],[-1.0727,60.1027],[-1.0461,60.1643],[-1.0723,60.1584],[-1.0797,60.1888]]],[[[-1.5808,60.2095],[-1.6057,60.1993],[-1.5631,60.1946],[-1.5808,60.2095]]],[[[-1.472,60.3406],[-1.4859,60.3363],[-1.4661,60.3267],[-1.4769,60.3115],[-1.4378,60.327],[-1.472,60.3406]]],[[[-1.3818,60.3416],[-1.4063,60.3265],[-1.3897,60.3219],[-1.3737,60.334],[-1.3818,60.3416]]],[[[-1.7223,60.344],[-1.7388,60.3369],[-1.719,60.3207],[-1.6608,60.3243],[-1.6761,60.3288],[-1.6685,60.3418],[-1.6865,60.3316],[-1.7223,60.344]]],[[[-1.4273,60.3896],[-1.4757,60.3743],[-1.4431,60.3461],[-1.3808,60.3583],[-1.3807,60.3765],[-1.4273,60.3896]]]]}},{"type":"Feature","properties":{"gid":"GBR.4_1","country":"United Kingdom","name":"威尔士","en":"Wales","engtype":"Constituent Country","type":"Constituent Country","iso":"GB-WLS","capitalZh":"卡迪夫","capitalEn":"Cardiff","pop":3132000,"area":20737,"devolved":true,"nick":"城堡之乡","blurb":"多山、双语（威尔士语为官方语言之一）、城堡密布；1999 年成立威尔士议会（Senedd）。"},"geometry":{"type":"MultiPolygon","coordinates":[[[[-3.1701,51.4125],[-3.1639,51.4416],[-3.1789,51.4621],[-3.1557,51.451],[-3.1201,51.4899],[-2.9924,51.5445],[-2.9033,51.5351],[-2.8405,51.5485],[-2.7121,51.5863],[-2.6567,51.6211],[-2.6836,51.6438],[-2.6659,51.6636],[-2.6847,51.668],[-2.6568,51.6744],[-2.6838,51.7006],[-2.6684,51.7058],[-2.6875,51.7304],[-2.6627,51.7539],[-2.6805,51.7689],[-2.6785,51.8028],[-2.6504,51.8261],[-2.7196,51.8489],[-2.7388,51.8366],[-2.7788,51.8659],[-2.7684,51.8805],[-2.8419,51.9177],[-2.8619,51.914],[-2.8449,51.922],[-2.8778,51.9338],[-2.9718,51.905],[-2.9767,51.9275],[-3.0081,51.9271],[-3.0683,51.9839],[-3.0992,52.0227],[-3.0906,52.0505],[-3.1259,52.0783],[-3.105,52.1167],[-3.1419,52.1279],[-3.0725,52.1558],[-3.1224,52.1634],[-3.0947,52.1837],[-3.1021,52.2027],[-3.0721,52.2131],[-3.0731,52.2358],[-3.0442,52.2379],[-3.0359,52.2568],[-2.9496,52.2695],[-3.0126,52.2792],[-3.0009,52.3218],[-2.9668,52.3294],[-2.9545,52.349],[-3.0607,52.3482],[-3.2195,52.4213],[-3.2355,52.4425],[-3.1972,52.476],[-3.0292,52.5013],[-3.0324,52.5237],[-3.0039,52.5198],[-2.9942,52.5529],[-3.0142,52.5755],[-3.0873,52.5513],[-3.0854,52.5345],[-3.1331,52.5275],[-3.1115,52.5414],[-3.1395,52.5857],[-3.0896,52.5995],[-3.0598,52.6307],[-3.0836,52.6413],[-3.0511,52.6474],[-3.047,52.6913],[-3.0204,52.7251],[-2.9611,52.7165],[-2.9651,52.7323],[-3.0218,52.7519],[-3.0172,52.7677],[-3.0795,52.7715],[-3.0866,52.7956],[-3.1183,52.7836],[-3.1609,52.7957],[-3.1532,52.8064],[-3.1679,52.8193],[-3.1513,52.8426],[-3.163,52.8475],[-3.1277,52.8671],[-3.1524,52.8787],[-3.1355,52.885],[-3.1464,52.8916],[-3.1142,52.894],[-3.096,52.9303],[-3.0351,52.9295],[-2.9751,52.969],[-2.9289,52.9387],[-2.8874,52.9525],[-2.841,52.9426],[-2.8004,52.8955],[-2.7285,52.9252],[-2.7241,52.9569],[-2.7275,52.984],[-2.8263,52.9938],[-2.8587,53.0199],[-2.8701,53.0454],[-2.8592,53.0543],[-2.8726,53.0587],[-2.8615,53.0608],[-2.9021,53.092],[-2.8813,53.1217],[-2.9437,53.1216],[-2.995,53.154],[-2.9203,53.1794],[-2.9495,53.2113],[-3.036,53.2518],[-3.0836,53.2388],[-3.0388,53.2193],[-3.0601,53.222],[-3.2828,53.324],[-3.3152,53.3559],[-3.5077,53.315],[-3.4761,53.2934],[-3.5103,53.3173],[-3.6099,53.2904],[-3.7162,53.2948],[-3.7752,53.3283],[-3.8189,53.3231],[-3.8691,53.3431],[-3.8786,53.3325],[-3.8444,53.3194],[-3.8245,53.2823],[-3.8469,53.297],[-4.0333,53.2373],[-4.1226,53.2379],[-4.1937,53.2134],[-4.2127,53.1829],[-4.3105,53.1293],[-4.3161,53.1001],[-4.3334,53.114],[-4.3185,53.122],[-4.3482,53.1147],[-4.3361,53.0787],[-4.3566,53.032],[-4.4111,52.9976],[-4.4379,52.9984],[-4.5199,52.9404],[-4.5679,52.9484],[-4.6496,52.9064],[-4.6972,52.8593],[-4.7262,52.8535],[-4.7233,52.8354],[-4.7678,52.7975],[-4.7574,52.7882],[-4.7324,52.7818],[-4.7178,52.803],[-4.6444,52.7998],[-4.6027,52.8244],[-4.5399,52.8024],[-4.5279,52.7778],[-4.4865,52.7948],[-4.5028,52.8282],[-4.4698,52.8479],[-4.4767,52.8571],[-4.3951,52.8838],[-4.4178,52.8862],[-4.4084,52.8905],[-4.3267,52.8919],[-4.3167,52.908],[-4.2278,52.9188],[-4.1514,52.906],[-4.1245,52.9288],[-4.1049,52.9271],[-4.1127,52.9118],[-4.1019,52.9088],[-4.0216,52.9391],[-4.0794,52.9006],[-4.1449,52.8945],[-4.1194,52.827],[-4.1544,52.8131],[-4.0526,52.718],[-3.9272,52.7534],[-4.051,52.7153],[-4.0577,52.6879],[-4.0971,52.6692],[-4.1305,52.6112],[-4.0703,52.543],[-3.9268,52.5559],[-3.9798,52.5498],[-4.0205,52.5254],[-4.0571,52.5309],[-4.0527,52.4809],[-4.0794,52.4513],[-4.0872,52.3987],[-4.1411,52.3226],[-4.2333,52.2526],[-4.3261,52.2134],[-4.3776,52.2158],[-4.5177,52.1362],[-4.5681,52.1445],[-4.6862,52.1304],[-4.6805,52.0865],[-4.7315,52.1179],[-4.7595,52.0779],[-4.8456,52.0425],[-4.8266,52.0201],[-4.9101,52.035],[-4.9205,52.0104],[-4.9717,51.9959],[-4.9917,52.0023],[-4.9697,52.0127],[-4.9918,52.026],[-5.0749,52.0308],[-5.0896,52.0153],[-5.0722,52.0046],[-5.0955,51.9938],[-5.0799,51.9853],[-5.0865,51.9685],[-5.1964,51.9506],[-5.2102,51.9322],[-5.3144,51.9027],[-5.2961,51.8943],[-5.3163,51.8846],[-5.3163,51.8596],[-5.2208,51.8735],[-5.1397,51.8638],[-5.1199,51.8474],[-5.1044,51.8124],[-5.1088,51.7751],[-5.2031,51.7556],[-5.2105,51.7345],[-5.2541,51.7381],[-5.2344,51.7174],[-5.1877,51.7085],[-5.1755,51.6799],[-5.1494,51.7027],[-5.1689,51.7174],[-5.1158,51.7102],[-5.1049,51.7235],[-5.0615,51.6996],[-5.0195,51.7135],[-4.9852,51.6991],[-4.8957,51.7099],[-4.8869,51.7308],[-4.9045,51.7445],[-4.899,51.763],[-4.9406,51.7654],[-4.9445,51.7782],[-4.9349,51.7827],[-4.9403,51.7663],[-4.8956,51.7675],[-4.8338,51.7902],[-4.8876,51.7681],[-4.8972,51.7413],[-4.8733,51.7327],[-4.8844,51.7189],[-4.8344,51.723],[-4.8633,51.7197],[-4.8461,51.7015],[-4.8847,51.7173],[-4.9188,51.6991],[-4.9055,51.6945],[-4.9336,51.7048],[-4.9772,51.6883],[-4.9388,51.677],[-5.0275,51.6951],[-5.0515,51.6939],[-5.0488,51.6773],[-5.1047,51.6923],[-5.1254,51.6822],[-5.0638,51.661],[-5.0511,51.6421],[-5.0595,51.6205],[-5.0108,51.609],[-4.926,51.596],[-4.8628,51.6463],[-4.7811,51.6349],[-4.7573,51.6527],[-4.7115,51.6516],[-4.6768,51.6969],[-4.6967,51.7113],[-4.6739,51.7271],[-4.4391,51.7371],[-4.4251,51.748],[-4.4589,51.7668],[-4.4473,51.7805],[-4.4651,51.7888],[-4.4383,51.7794],[-4.4487,51.7683],[-4.4036,51.7563],[-4.3199,51.816],[-4.3238,51.8012],[-4.3682,51.7867],[-4.3783,51.7468],[-4.3172,51.7243],[-4.3788,51.729],[-4.3115,51.673],[-4.2077,51.6846],[-4.1503,51.6544],[-4.108,51.658],[-4.0774,51.6655],[-4.0817,51.6877],[-4.0505,51.7016],[-4.0771,51.6839],[-4.0766,51.657],[-4.1822,51.6265],[-4.2262,51.6284],[-4.2464,51.6473],[-4.2777,51.6151],[-4.3157,51.6099],[-4.2888,51.5802],[-4.307,51.561],[-4.2053,51.5352],[-4.1978,51.5477],[-4.1486,51.542],[-4.1567,51.561],[-4.1134,51.5741],[-4.0664,51.5571],[-3.9698,51.5655],[-3.9989,51.5779],[-3.9817,51.6055],[-3.8322,51.6282],[-3.8466,51.6114],[-3.7977,51.5695],[-3.8173,51.574],[-3.7833,51.5638],[-3.7504,51.5033],[-3.7031,51.4727],[-3.6483,51.4766],[-3.5598,51.4008],[-3.3425,51.3805],[-3.1701,51.4125]]],[[[-4.3226,51.5655],[-4.334,51.565],[-4.3134,51.5609],[-4.3226,51.5655]]],[[[-4.6999,51.6417],[-4.7061,51.6323],[-4.6744,51.6377],[-4.6999,51.6417]]],[[[-5.2997,51.7449],[-5.3133,51.7349],[-5.2687,51.7352],[-5.2997,51.7449]]],[[[-5.3379,51.8786],[-5.3532,51.8633],[-5.333,51.8518],[-5.3379,51.8786]]],[[[-4.7932,52.7685],[-4.802,52.7449],[-4.7802,52.759],[-4.7932,52.7685]]],[[[-4.5579,53.2536],[-4.6017,53.287],[-4.5851,53.302],[-4.6474,53.319],[-4.6192,53.331],[-4.6813,53.3236],[-4.7004,53.3066],[-4.679,53.2989],[-4.6833,53.2818],[-4.6183,53.2788],[-4.6098,53.2445],[-4.5579,53.2536]]],[[[-4.5082,53.2165],[-4.4966,53.207],[-4.5086,53.1876],[-4.4599,53.181],[-4.4436,53.155],[-4.3861,53.1913],[-4.3877,53.1681],[-4.4171,53.1614],[-4.4156,53.1332],[-4.3988,53.1449],[-4.3291,53.1263],[-4.3601,53.1346],[-4.2185,53.1852],[-4.2076,53.2114],[-4.0874,53.2622],[-4.0395,53.3105],[-4.1193,53.3195],[-4.2112,53.297],[-4.2028,53.3138],[-4.2328,53.3404],[-4.2295,53.3575],[-4.2645,53.3604],[-4.2877,53.4172],[-4.426,53.4301],[-4.4511,53.414],[-4.4783,53.4226],[-4.5659,53.4071],[-4.5758,53.4001],[-4.5555,53.3731],[-4.5855,53.3306],[-4.5627,53.3157],[-4.5637,53.2994],[-4.5388,53.3073],[-4.5877,53.2781],[-4.5538,53.2669],[-4.5554,53.2491],[-4.5082,53.2165]]]]}},{"type":"Feature","properties":{"gid":"GBR.1_1","country":"United Kingdom","name":"英格兰","en":"England","engtype":"Constituent Country","type":"Constituent Country","iso":"NA","capitalZh":"伦敦","capitalEn":"London","pop":57106000,"area":130310,"devolved":false,"nick":"人口占全英八成四","blurb":"占全英 84% 人口、最都市化的构成国；伦敦为首都与政府所在地，但英格兰本身不设下放议会（devolution 刻意绕开它）。"},"geometry":{"type":"MultiPolygon","coordinates":[[[[-6.3394,49.8831],[-6.3278,49.895],[-6.3572,49.8978],[-6.3394,49.8831]]],[[[-6.2957,49.937],[-6.3278,49.9114],[-6.28,49.913],[-6.2763,49.9286],[-6.2957,49.937]]],[[[-6.3462,49.9684],[-6.337,49.9389],[-6.3169,49.943],[-6.3462,49.9684]]],[[[-6.3584,49.9667],[-6.3609,49.9419],[-6.3477,49.9548],[-6.3584,49.9667]]],[[[-6.3011,49.9784],[-6.3049,49.9635],[-6.261,49.963],[-6.3011,49.9784]]],[[[-5.1568,50.0066],[-5.1007,50.0038],[-5.0963,50.0258],[-5.0554,50.0525],[-5.0789,50.0684],[-5.0746,50.0861],[-5.1036,50.0945],[-5.1934,50.0893],[-5.1406,50.1062],[-5.0981,50.0998],[-5.0807,50.1097],[-5.0929,50.1253],[-5.0729,50.1343],[-5.0789,50.1441],[-5.0417,50.1441],[-5.0928,50.1668],[-5.0568,50.1606],[-5.0445,50.173],[-5.0923,50.2091],[-5.0585,50.1932],[-5.0276,50.2103],[-5.0139,50.2427],[-5.006,50.2276],[-5.0354,50.2038],[-5.0177,50.1835],[-5.0267,50.1555],[-5.0048,50.1564],[-4.9933,50.176],[-5.0182,50.1488],[-5.0098,50.139],[-4.9815,50.1515],[-4.9734,50.1841],[-4.9478,50.2055],[-4.9189,50.196],[-4.8428,50.2366],[-4.7984,50.2192],[-4.7653,50.2564],[-4.7864,50.2696],[-4.7828,50.2877],[-4.7524,50.2982],[-4.7661,50.3194],[-4.7569,50.331],[-4.6911,50.346],[-4.6715,50.3135],[-4.6343,50.3349],[-4.6384,50.3711],[-4.6606,50.3882],[-4.6233,50.3588],[-4.6366,50.347],[-4.6166,50.3348],[-4.6331,50.3244],[-4.4742,50.3319],[-4.4362,50.3605],[-4.3872,50.3641],[-4.2922,50.3582],[-4.2272,50.3316],[-4.2249,50.3114],[-4.1884,50.3174],[-4.2006,50.3328],[-4.1676,50.3448],[-4.1715,50.3589],[-4.2039,50.3473],[-4.1963,50.3598],[-4.2339,50.3643],[-4.1946,50.3713],[-4.2018,50.3882],[-4.2762,50.3745],[-4.3045,50.3987],[-4.2725,50.376],[-4.2116,50.3993],[-4.2095,50.4264],[-4.2267,50.4291],[-4.1984,50.4372],[-4.2163,50.4645],[-4.2395,50.4609],[-4.2201,50.4746],[-4.236,50.4578],[-4.2177,50.4685],[-4.187,50.4338],[-4.1549,50.4594],[-4.2049,50.3999],[-4.1854,50.3672],[-4.1158,50.361],[-4.0849,50.3866],[-4.1327,50.3596],[-4.1126,50.3158],[-4.0541,50.3113],[-4.0517,50.3382],[-4.0205,50.3407],[-4.0533,50.3186],[-4.0416,50.312],[-4.0761,50.3043],[-4.0355,50.2924],[-3.948,50.3085],[-3.9355,50.3294],[-3.9454,50.2971],[-3.8959,50.2813],[-3.8691,50.2805],[-3.8488,50.306],[-3.8838,50.2767],[-3.8577,50.2605],[-3.8707,50.2411],[-3.823,50.2171],[-3.7867,50.2097],[-3.7587,50.2402],[-3.7856,50.2554],[-3.7667,50.2614],[-3.7734,50.276],[-3.7576,50.2541],[-3.7305,50.2655],[-3.7574,50.2504],[-3.7333,50.2381],[-3.7738,50.2243],[-3.7237,50.2015],[-3.6405,50.221],[-3.6587,50.2396],[-3.6406,50.2932],[-3.5635,50.3355],[-3.5906,50.3606],[-3.58,50.3717],[-3.594,50.3906],[-3.6595,50.3943],[-3.6334,50.4037],[-3.6567,50.411],[-3.5777,50.3916],[-3.5927,50.3823],[-3.5736,50.3479],[-3.5441,50.3354],[-3.5179,50.3465],[-3.5145,50.3732],[-3.4817,50.3992],[-3.5539,50.4059],[-3.5595,50.4262],[-3.5362,50.4621],[-3.4806,50.4617],[-3.5145,50.4826],[-3.4957,50.5386],[-3.5828,50.5394],[-3.4991,50.5402],[-3.4256,50.6077],[-3.4439,50.6048],[-3.4667,50.681],[-3.4172,50.6305],[-3.4266,50.6177],[-3.3586,50.6064],[-3.2321,50.679],[-3.0061,50.6999],[-2.9101,50.7335],[-2.7927,50.7177],[-2.6233,50.658],[-2.4976,50.5927],[-2.4486,50.5589],[-2.4569,50.5129],[-2.4152,50.5501],[-2.4224,50.5692],[-2.4701,50.5848],[-2.4324,50.5962],[-2.4523,50.6132],[-2.4238,50.6357],[-2.1982,50.6229],[-2.0645,50.5936],[-2.056,50.5765],[-1.9597,50.591],[-1.9428,50.6076],[-1.9567,50.6177],[-1.9239,50.6419],[-1.9528,50.6509],[-1.9418,50.673],[-1.9784,50.6618],[-1.9797,50.677],[-1.9956,50.6673],[-2.0114,50.6831],[-2.0462,50.6784],[-2.0245,50.6875],[-2.0264,50.7079],[-2.0795,50.6876],[-2.0662,50.713],[-1.9572,50.7152],[-1.9316,50.696],[-1.9472,50.6824],[-1.8871,50.7134],[-1.7488,50.7119],[-1.7293,50.732],[-1.6899,50.7374],[-1.5503,50.7057],[-1.5751,50.7163],[-1.5557,50.7125],[-1.5201,50.7475],[-1.5278,50.758],[-1.5069,50.7455],[-1.3911,50.7776],[-1.4073,50.7827],[-1.343,50.7855],[-1.3068,50.8153],[-1.4756,50.9196],[-1.3931,50.8821],[-1.3833,50.9205],[-1.3722,50.9112],[-1.3849,50.8903],[-1.3055,50.851],[-1.3043,50.838],[-1.1417,50.7733],[-1.1112,50.79],[-1.1485,50.8362],[-1.1745,50.8402],[-1.113,50.8355],[-1.1038,50.8466],[-1.0905,50.8168],[-1.1133,50.8015],[-1.0889,50.7775],[-1.0273,50.7883],[-1.0428,50.7901],[-1.0484,50.833],[-1.0012,50.8292],[-1.0189,50.843],[-0.9338,50.8435],[-0.9449,50.8181],[-0.9097,50.7974],[-0.9134,50.8391],[-0.8938,50.8371],[-0.8998,50.8049],[-0.8735,50.8133],[-0.8684,50.8388],[-0.8538,50.8281],[-0.8721,50.8128],[-0.8514,50.8049],[-0.8122,50.8302],[-0.8266,50.8051],[-0.8853,50.8081],[-0.9172,50.7798],[-0.7888,50.7221],[-0.7384,50.7666],[-0.7023,50.7772],[-0.2445,50.8302],[0.0683,50.7818],[0.2417,50.7335],[0.3627,50.8152],[0.6512,50.8668],[0.7766,50.9324],[0.9786,50.9125],[0.9644,50.9682],[1.0061,51.0313],[1.0738,51.063],[1.3249,51.1114],[1.3155,51.1221],[1.3971,51.1569],[1.4044,51.234],[1.3627,51.3199],[1.4243,51.3244],[1.4465,51.3834],[1.3908,51.3934],[1.0997,51.3729],[0.8955,51.3359],[0.877,51.3542],[0.7599,51.3615],[0.7643,51.3842],[0.7177,51.412],[0.7281,51.4234],[0.6962,51.4197],[0.7189,51.3887],[0.6869,51.392],[0.6739,51.3762],[0.6492,51.3973],[0.6255,51.3762],[0.636,51.3884],[0.6133,51.379],[0.5299,51.4104],[0.6059,51.4105],[0.6199,51.4346],[0.6615,51.4366],[0.6566,51.4491],[0.6747,51.4321],[0.7153,51.4358],[0.7233,51.4547],[0.7009,51.4729],[0.4814,51.4876],[0.4562,51.4534],[0.4177,51.4445],[0.4116,51.4549],[0.4349,51.4611],[0.4544,51.5052],[0.5399,51.5114],[0.5144,51.5305],[0.5469,51.5066],[0.5461,51.5169],[0.5753,51.5077],[0.6355,51.5215],[0.5711,51.5402],[0.7887,51.5213],[0.9599,51.6186],[0.8997,51.6165],[0.9349,51.6322],[0.9499,51.6829],[0.9505,51.7302],[0.9304,51.7476],[0.8958,51.7442],[0.8589,51.7181],[0.7947,51.7187],[0.7523,51.6887],[0.7383,51.6891],[0.7699,51.7089],[0.7127,51.7154],[0.6944,51.7341],[0.7081,51.7238],[0.7172,51.7363],[0.8526,51.7413],[0.8838,51.758],[0.8499,51.7705],[0.8961,51.7663],[0.8494,51.7844],[0.8936,51.7741],[0.9022,51.7952],[0.8963,51.7827],[0.9372,51.8054],[0.9255,51.8074],[0.9915,51.8069],[0.9511,51.8234],[0.9821,51.8175],[0.9644,51.8516],[1.0097,51.8063],[1.0645,51.8138],[1.0178,51.8013],[1.0458,51.7691],[1.1337,51.7769],[1.2433,51.8234],[1.2916,51.8727],[1.263,51.8851],[1.2655,51.8629],[1.2592,51.884],[1.2122,51.8799],[1.246,51.8889],[1.2918,51.9491],[1.2203,51.9462],[1.2613,51.9541],[1.2364,51.9805],[1.1774,51.9989],[1.1561,52.0377],[1.1885,52.0144],[1.2828,51.9924],[1.2823,51.9684],[1.3151,51.9521],[1.3196,51.9321],[1.3916,51.9901],[1.3411,52.0304],[1.3483,52.0427],[1.3144,52.0768],[1.3188,52.0888],[1.3517,52.0455],[1.344,52.0308],[1.3942,51.9863],[1.4768,52.0519],[1.5799,52.0861],[1.6228,52.1869],[1.6333,52.2769],[1.6831,52.3261],[1.7288,52.4002],[1.7346,52.448],[1.7644,52.4801],[1.7328,52.5569],[1.7433,52.6341],[1.6982,52.7219],[1.6442,52.7658],[1.4259,52.8859],[1.2636,52.9406],[0.9923,52.9783],[0.9767,52.972],[1.0262,52.9668],[0.9133,52.9643],[0.8708,52.9809],[0.8511,52.9576],[0.8431,52.9756],[0.7511,52.9698],[0.6897,52.9884],[0.6568,52.9875],[0.6989,52.9799],[0.6684,52.9684],[0.6525,52.9804],[0.5314,52.9759],[0.4879,52.9486],[0.4406,52.8459],[0.3579,52.8147],[0.3684,52.7894],[0.3314,52.8195],[0.2249,52.8234],[0.1743,52.8784],[0.0672,52.9059],[0.0709,52.9237],[0.0268,52.8987],[0.1533,53.0074],[0.2966,53.0849],[0.3359,53.0919],[0.3455,53.112],[0.3566,53.1849],[0.3388,53.2386],[0.2143,53.4167],[0.1548,53.4764],[0.0344,53.5104],[-0.0596,53.5826],[-0.0945,53.5818],[-0.2017,53.637],[-0.2863,53.7126],[-0.4714,53.6987],[-0.5395,53.6784],[-0.6197,53.7145],[-0.6937,53.6965],[-0.6855,53.6781],[-0.7001,53.6879],[-0.6745,53.7202],[-0.6395,53.728],[-0.5414,53.7082],[-0.2794,53.741],[-0.2449,53.7352],[-0.2276,53.7077],[-0.1081,53.6358],[-0.0541,53.6288],[0.0351,53.6471],[0.1062,53.6307],[0.1456,53.6049],[0.1121,53.573],[0.1483,53.6018],[0.1236,53.657],[-0.1339,53.8765],[-0.2123,54.0051],[-0.2145,54.0474],[-0.1978,54.0771],[-0.1684,54.0974],[-0.075,54.1158],[-0.2451,54.1665],[-0.2845,54.2009],[-0.2778,54.2163],[-0.2562,54.2154],[-0.3639,54.2451],[-0.3956,54.2729],[-0.3847,54.2883],[-0.4062,54.2923],[-0.4161,54.3323],[-0.4631,54.3893],[-0.5234,54.4168],[-0.5207,54.4475],[-0.5735,54.4826],[-0.6628,54.4998],[-0.7124,54.534],[-0.7439,54.5281],[-0.773,54.5573],[-1.0023,54.594],[-1.1223,54.6301],[-1.1373,54.6476],[-1.1372,54.6279],[-1.2001,54.6218],[-1.1606,54.6351],[-1.1984,54.6804],[-1.1939,54.6991],[-1.1757,54.6975],[-1.2395,54.7212],[-1.2962,54.7643],[-1.3601,54.8904],[-1.3594,54.9717],[-1.4139,54.9998],[-1.4073,55.0089],[-1.4329,55.0092],[-1.4034,55.0147],[-1.4938,55.1001],[-1.4916,55.1222],[-1.5249,55.1591],[-1.5449,55.162],[-1.4993,55.1866],[-1.5699,55.2712],[-1.5505,55.3224],[-1.5938,55.3393],[-1.5816,55.3387],[-1.611,55.3851],[-1.5788,55.407],[-1.5777,55.429],[-1.5921,55.4395],[-1.5916,55.4908],[-1.6149,55.4984],[-1.6099,55.521],[-1.6388,55.5384],[-1.6183,55.5522],[-1.6389,55.5789],[-1.7205,55.6166],[-1.7682,55.6043],[-1.7832,55.6166],[-1.7638,55.6271],[-1.79,55.6584],[-1.8085,55.6348],[-1.841,55.6431],[-1.8872,55.6972],[-2.0049,55.7629],[-1.9893,55.7678],[-1.9943,55.7799],[-2.0279,55.8087],[-2.0648,55.8019],[-2.0881,55.7906],[-2.0856,55.762],[-2.176,55.7192],[-2.1672,55.706],[-2.2483,55.6521],[-2.234,55.6413],[-2.3058,55.647],[-2.336,55.6325],[-2.3086,55.6289],[-2.3161,55.6205],[-2.2892,55.6038],[-2.2888,55.5803],[-2.2403,55.5556],[-2.2016,55.4755],[-2.1665,55.4675],[-2.2313,55.4284],[-2.2606,55.4329],[-2.3356,55.4082],[-2.3375,55.3672],[-2.3789,55.3492],[-2.4754,55.3547],[-2.5203,55.323],[-2.559,55.3179],[-2.6468,55.26],[-2.6115,55.2473],[-2.6302,55.2448],[-2.6314,55.2237],[-2.6668,55.2216],[-2.7053,55.1724],[-2.8255,55.1383],[-2.8969,55.0779],[-2.9391,55.0699],[-2.9587,55.0493],[-3.0511,55.0527],[-3.0259,55.0365],[-3.0583,54.9911],[-3.0409,54.9694],[-3.0227,54.9709],[-3.0559,54.9842],[-3.0905,54.9523],[-3.0183,54.947],[-3.1139,54.9273],[-3.2164,54.9545],[-3.2982,54.9247],[-3.3027,54.9122],[-3.2842,54.9024],[-3.2222,54.906],[-3.2486,54.9109],[-3.2627,54.8934],[-3.2904,54.8917],[-3.2805,54.8729],[-3.3364,54.9004],[-3.3699,54.8912],[-3.4388,54.8033],[-3.4377,54.7581],[-3.5099,54.7173],[-3.5238,54.687],[-3.5793,54.6522],[-3.5799,54.572],[-3.6122,54.5265],[-3.6406,54.5154],[-3.4393,54.3463],[-3.4206,54.3513],[-3.4412,54.3666],[-3.4308,54.3555],[-3.4011,54.3641],[-3.4071,54.3392],[-3.3861,54.342],[-3.4233,54.3405],[-3.4205,54.2834],[-3.3226,54.1894],[-3.2463,54.1955],[-3.2528,54.2185],[-3.2245,54.2417],[-3.2284,54.2685],[-3.1993,54.2277],[-3.1855,54.2357],[-3.2244,54.1877],[-3.2177,54.1765],[-3.2583,54.1666],[-3.2372,54.1549],[-3.2461,54.1173],[-3.2282,54.0942],[-3.2022,54.1085],[-3.1667,54.077],[-3.1101,54.1169],[-3.0595,54.1654],[-3.0345,54.212],[-3.0523,54.2316],[-3.0351,54.2444],[-3.0483,54.2292],[-3.0144,54.2046],[-3.0349,54.1959],[-2.979,54.1491],[-2.9306,54.1529],[-2.9144,54.1892],[-2.8046,54.2252],[-2.8001,54.2436],[-2.8139,54.2466],[-2.7883,54.2291],[-2.8661,54.1915],[-2.7916,54.1305],[-2.7977,54.1173],[-2.8183,54.0893],[-2.8804,54.0753],[-2.9238,54.0341],[-2.8743,53.9714],[-2.8533,53.9659],[-2.8966,53.9418],[-2.9983,53.9272],[-2.9921,53.8956],[-2.9644,53.8738],[-2.9727,53.8642],[-2.9383,53.8515],[-2.9767,53.8623],[-2.9695,53.8761],[-3.0056,53.8976],[-3.0057,53.9298],[-3.0516,53.9194],[-3.057,53.8114],[-3.0413,53.8114],[-3.0377,53.7884],[-3.0565,53.7766],[-3.032,53.7455],[-2.9383,53.7226],[-3.0222,53.6546],[-3.1038,53.551],[-3.0649,53.5241],[-3.0416,53.4655],[-3.0138,53.4566],[-2.9815,53.3813],[-2.8781,53.3316],[-2.7633,53.3274],[-2.7327,53.307],[-2.8762,53.2893],[-2.9262,53.3073],[-2.9967,53.369],[-3.0101,53.3992],[-3.0506,53.407],[-3.014,53.4045],[-3.0386,53.4415],[-3.2005,53.3857],[-3.0744,53.2794],[-3.0611,53.2527],[-3.0255,53.2483],[-2.9223,53.1893],[-2.9484,53.1751],[-2.9403,53.1667],[-2.995,53.154],[-2.9437,53.1216],[-2.8811,53.1216],[-2.9021,53.092],[-2.8615,53.0608],[-2.8726,53.0587],[-2.8592,53.0543],[-2.8701,53.0454],[-2.8587,53.0199],[-2.8263,52.9938],[-2.7273,52.9839],[-2.7259,52.93],[-2.8004,52.8955],[-2.841,52.9426],[-2.8874,52.9525],[-2.9289,52.9387],[-2.975,52.969],[-3.0351,52.9295],[-3.096,52.9303],[-3.1142,52.894],[-3.1464,52.8916],[-3.1355,52.885],[-3.1524,52.8787],[-3.1277,52.8671],[-3.163,52.8475],[-3.1513,52.8426],[-3.1679,52.8193],[-3.1532,52.8064],[-3.1609,52.7957],[-3.1183,52.7836],[-3.0866,52.7956],[-3.0795,52.7715],[-3.0172,52.7677],[-3.0218,52.7519],[-2.9651,52.7323],[-2.9611,52.7165],[-3.0204,52.7251],[-3.047,52.6913],[-3.0511,52.6474],[-3.0836,52.6413],[-3.0598,52.6307],[-3.0896,52.5995],[-3.1395,52.5857],[-3.1115,52.5414],[-3.1331,52.5275],[-3.0854,52.5345],[-3.0873,52.5513],[-3.0142,52.5755],[-2.9942,52.5529],[-3.0039,52.5198],[-3.0324,52.5237],[-3.0292,52.5013],[-3.1972,52.476],[-3.2355,52.4425],[-3.2195,52.4213],[-3.0607,52.3482],[-2.9545,52.349],[-2.9668,52.3294],[-3.0009,52.3218],[-3.0126,52.2792],[-2.9496,52.2695],[-3.0359,52.2568],[-3.0442,52.2379],[-3.0731,52.2358],[-3.0721,52.2131],[-3.1021,52.2027],[-3.0947,52.1837],[-3.1224,52.1634],[-3.0725,52.1558],[-3.1419,52.1279],[-3.105,52.1167],[-3.1259,52.0783],[-3.0906,52.0505],[-3.0992,52.0227],[-3.0683,51.9839],[-3.0081,51.9271],[-2.9767,51.9275],[-2.9718,51.905],[-2.8778,51.9338],[-2.8449,51.922],[-2.8619,51.914],[-2.8419,51.9177],[-2.7684,51.8805],[-2.7788,51.8659],[-2.7388,51.8366],[-2.7196,51.8489],[-2.6504,51.8261],[-2.6785,51.8028],[-2.6805,51.7689],[-2.6627,51.7539],[-2.6875,51.7304],[-2.6684,51.7058],[-2.6838,51.7006],[-2.6569,51.6745],[-2.6864,51.6632],[-2.666,51.6645],[-2.6836,51.6438],[-2.6587,51.6091],[-2.6085,51.6726],[-2.5062,51.7126],[-2.403,51.78],[-2.3857,51.7587],[-2.4818,51.7242],[-2.4849,51.7065],[-2.5574,51.6669],[-2.5883,51.6243],[-2.6618,51.5754],[-2.7099,51.4979],[-2.8017,51.4857],[-2.9066,51.4009],[-2.9805,51.3888],[-2.9622,51.3745],[-2.996,51.3564],[-2.9822,51.348],[-2.9905,51.322],[-3.0355,51.3274],[-3.0111,51.3213],[-3.0168,51.2602],[-2.9803,51.2592],[-2.9771,51.2439],[-3.0543,51.1845],[-3.0449,51.1662],[-3.0595,51.1805],[-3.0312,51.1939],[-3.0223,51.2184],[-3.052,51.2035],[-3.1548,51.2092],[-3.3139,51.1793],[-3.4095,51.1837],[-3.4463,51.2092],[-3.5441,51.2331],[-3.6219,51.2171],[-3.7858,51.2465],[-3.8083,51.2323],[-3.9261,51.2321],[-4.0422,51.2079],[-4.0875,51.2176],[-4.2304,51.1887],[-4.2099,51.1721],[-4.2161,51.1504],[-4.2625,51.1431],[-4.2216,51.1166],[-4.2115,51.0738],[-4.1886,51.0652],[-4.1189,51.0944],[-4.0655,51.0795],[-4.1142,51.0904],[-4.1543,51.0803],[-4.181,51.0653],[-4.2016,51.0184],[-4.1895,51.0547],[-4.222,51.0654],[-4.2999,51.0001],[-4.3433,50.9893],[-4.5261,51.0228],[-4.5466,50.929],[-4.5699,50.9044],[-4.5522,50.8305],[-4.5622,50.782],[-4.6543,50.74],[-4.6555,50.7162],[-4.6822,50.6962],[-4.7635,50.6707],[-4.7616,50.6448],[-4.7955,50.599],[-4.936,50.587],[-4.9155,50.5749],[-4.9316,50.564],[-4.9154,50.5369],[-4.8499,50.5276],[-4.9378,50.5251],[-4.9451,50.5692],[-4.9844,50.5429],[-5.0366,50.5494],[-5.0255,50.527],[-5.0466,50.4977],[-5.0322,50.4674],[-5.0427,50.4437],[-5.0738,50.4193],[-5.0998,50.426],[-5.1199,50.4059],[-5.1477,50.4054],[-5.1544,50.3493],[-5.2005,50.3209],[-5.2355,50.3184],[-5.2511,50.282],[-5.3361,50.2401],[-5.3959,50.2403],[-5.4344,50.1773],[-5.4301,50.1884],[-5.4678,50.1998],[-5.4757,50.2189],[-5.5392,50.2162],[-5.6285,50.1685],[-5.6731,50.1663],[-5.7105,50.1277],[-5.6894,50.0887],[-5.716,50.0648],[-5.6796,50.0349],[-5.5545,50.0599],[-5.5325,50.0882],[-5.5456,50.1091],[-5.4916,50.1282],[-5.4295,50.0969],[-5.3894,50.103],[-5.2984,50.0707],[-5.2844,50.0846],[-5.2927,50.0665],[-5.2566,50.023],[-5.2669,50.0005],[-5.2168,49.9592],[-5.1853,49.963],[-5.1568,50.0066]],[[0.7231,51.7301],[0.7293,51.7177],[0.7079,51.7192],[0.7231,51.7301]]],[[[-1.2395,50.7445],[-1.2893,50.7628],[-1.2783,50.731],[-1.2889,50.7115],[-1.2923,50.7594],[-1.3138,50.7675],[-1.4098,50.7253],[-1.3944,50.717],[-1.4255,50.7269],[-1.5222,50.7073],[-1.5865,50.6631],[-1.4854,50.6666],[-1.2961,50.5747],[-1.1823,50.5976],[-1.1596,50.6492],[-1.0695,50.683],[-1.1056,50.6937],[-1.0967,50.7041],[-1.1102,50.7222],[-1.2395,50.7445]]],[[[-0.9674,50.8355],[-1.0244,50.7873],[-0.9368,50.7775],[-0.9578,50.7831],[-0.9451,50.7972],[-0.9667,50.8102],[-0.9456,50.8063],[-0.9674,50.8355]]],[[[-1.9751,50.6973],[-1.9883,50.6911],[-1.9551,50.6884],[-1.9751,50.6973]]],[[[-4.6766,51.202],[-4.6792,51.169],[-4.6518,51.1622],[-4.6766,51.202]]],[[[0.6086,51.4023],[0.5951,51.399],[0.6171,51.3958],[0.6086,51.4023]]],[[[0.5714,51.4079],[0.5601,51.4023],[0.5827,51.4025],[0.5714,51.4079]]],[[[0.7513,51.3913],[0.7719,51.3677],[0.8947,51.3538],[0.9505,51.3723],[0.902,51.4173],[0.7423,51.4476],[0.7423,51.4126],[0.7212,51.4134],[0.7513,51.3913]]],[[[0.6814,51.4234],[0.6595,51.4176],[0.6882,51.4144],[0.6814,51.4234]]],[[[0.6869,51.4123],[0.6684,51.3992],[0.6954,51.3966],[0.6869,51.4123]]],[[[0.7745,51.7268],[0.7545,51.7237],[0.7888,51.722],[0.7745,51.7268]]],[[[0.9708,51.8084],[0.9257,51.802],[0.899,51.7753],[0.9475,51.7744],[1.0066,51.7978],[0.9708,51.8084]]],[[[-1.7999,55.689],[-1.8557,55.6846],[-1.7766,55.6675],[-1.7778,55.6866],[-1.7999,55.689]]],[[[-3.2451,54.1069],[-3.2656,54.1434],[-3.2518,54.1522],[-3.2743,54.147],[-3.2733,54.1159],[-3.2438,54.0778],[-3.2065,54.0452],[-3.1723,54.0472],[-3.2056,54.0526],[-3.2451,54.1069]]]]}}]}