{"type":"FeatureCollection","features":[{"type":"Feature","properties":{"gid":"SAU.1_1","name":"阿西尔省","nameEn":"'Asir","nameLocal":"عَسِيرٌ","type":"Province","typeEn":"Province","groupZh":"省","area":77211.8,"iso":"SA-14","engtype":"Province","capital":"艾卜哈","pop":2240000,"blurb":"西南高地，气候宜人，艾卜哈与阿斯尔梯田。"},"geometry":{"type":"Polygon","coordinates":[[[43.33589,17.53983],[43.41961,17.56583],[43.48464,17.54511],[43.68333,17.36667],[43.72044,17.37],[43.68397,17.4309],[43.72378,17.45389],[43.6376,17.54855],[43.61527,17.64896],[43.59586,17.65926],[43.61152,17.75135],[43.59671,17.77943],[43.62468,17.82882],[43.61335,17.90011],[43.66797,17.93908],[43.66953,17.9735],[43.70862,18.01803],[43.68681,18.0707],[43.73127,18.15845],[43.77547,18.18217],[43.73513,18.23139],[43.76443,18.25755],[43.81905,18.24922],[43.8492,18.27504],[43.8454,18.31908],[43.91466,18.44177],[43.93914,18.4411],[43.94231,18.4003],[44.00128,18.44293],[43.99694,18.45876],[43.91383,18.47641],[43.94464,18.50456],[43.95547,18.54987],[44.00177,18.56119],[43.97347,18.5965],[43.98928,18.6508],[44.08738,18.74891],[44.13469,18.76207],[44.0639,18.8142],[44.12802,18.8645],[44.14019,18.89915],[44.18832,18.89015],[44.31108,18.95295],[44.37421,18.93513],[44.36787,19.09169],[44.40452,19.11635],[44.43933,19.20163],[44.47148,19.16598],[44.4873,19.20879],[44.44916,19.22977],[44.44533,19.25859],[44.47964,19.31222],[44.3872,19.31822],[44.3902,19.41716],[44.34739,19.49677],[44.28143,19.46063],[44.18699,19.45913],[44.11887,19.51326],[44.164,19.56257],[44.21714,19.57173],[44.25395,19.6122],[44.2168,19.64335],[44.23713,19.73679],[44.18832,19.77409],[44.21714,19.8244],[44.17067,19.89602],[44.174,19.939],[44.08089,20.07175],[44.08255,20.16119],[44.03442,20.43669],[44.07223,20.50314],[43.96829,20.51863],[43.89351,20.60924],[43.82166,20.62045],[43.78984,20.68065],[43.68132,20.69265],[43.56592,20.75736],[43.20677,20.80266],[43.14647,20.74466],[43.04304,20.58476],[42.96307,20.59097],[42.89366,20.5077],[42.7803,20.50095],[42.75419,20.51606],[42.71159,20.49339],[42.71915,20.38414],[42.6283,20.37372],[42.51187,20.2538],[42.37812,20.32459],[42.30157,20.31665],[42.2517,20.28745],[42.15959,20.3056],[42.14227,20.39155],[42.12023,20.41026],[42.00838,20.35953],[41.99471,20.28609],[41.88149,20.155],[41.87096,20.07585],[41.84593,20.09868],[41.84421,19.92015],[41.78297,19.85505],[41.79209,19.80493],[41.77043,19.75748],[41.70246,19.69808],[41.74936,19.68421],[41.82393,19.76563],[41.82075,19.5378],[41.85983,19.44671],[41.9173,19.43741],[41.95269,19.36957],[41.91395,19.36709],[41.91182,19.20303],[41.88822,19.18986],[41.87644,19.20334],[41.8684,19.14124],[41.7962,19.10172],[41.75592,19.18102],[41.71829,19.21101],[41.6053,19.22145],[41.64582,19.19929],[41.58803,19.15505],[41.57938,19.05045],[41.50724,19.06011],[41.43929,19.00266],[41.49408,18.98288],[41.48441,18.95318],[41.57074,18.87939],[41.58326,18.82247],[41.6222,18.79107],[41.58922,18.77374],[41.62427,18.6984],[41.39155,18.65348],[41.36572,18.56467],[41.41849,18.51451],[41.41589,18.47362],[41.4384,18.48234],[41.47281,18.29425],[41.51561,18.27284],[41.4913,18.23306],[41.50335,18.25357],[41.52764,18.23845],[41.52448,18.20184],[41.57155,18.16502],[41.6022,18.06152],[41.6429,18.05129],[41.63853,17.99743],[41.67399,18.00577],[41.66315,17.97807],[41.77885,17.86065],[41.77466,17.83801],[41.8912,17.80646],[41.87544,17.79209],[41.90885,17.76755],[41.99493,17.78837],[42.03858,17.84166],[42.07164,17.89853],[42.07535,18.04166],[42.21051,18.03941],[42.21634,18.05861],[42.25542,17.89934],[42.37095,17.83124],[42.37996,17.78017],[42.4307,17.72309],[42.45555,17.74],[42.45185,17.81876],[42.4714,17.80026],[42.60274,17.80602],[42.62844,17.7845],[42.76788,17.76355],[42.85047,17.79783],[42.87308,17.72351],[42.94148,17.72595],[42.96507,17.67252],[42.99857,17.66847],[43.00258,17.63051],[43.05459,17.58024],[43.066,17.60115],[43.1708,17.6001],[43.18771,17.5616],[43.15439,17.51344],[43.16509,17.49363],[43.22665,17.48553],[43.24627,17.49493],[43.22356,17.50114],[43.23171,17.5332],[43.25019,17.53837],[43.27126,17.51032],[43.33589,17.53983]]]}},{"type":"Feature","properties":{"gid":"SAU.2_1","name":"巴哈省","nameEn":"Al Bahah","nameLocal":"ٱلْبَاحَة‎","type":"Province","typeEn":"Province","groupZh":"省","area":10537.2,"iso":"SA-11","engtype":"Province","capital":"巴哈","pop":500000,"blurb":"西南山地省，森林与凉爽夏季胜地。"},"geometry":{"type":"Polygon","coordinates":[[[41.6365,19.77034],[41.6474,19.78627],[41.66043,19.73887],[41.70247,19.69809],[41.77043,19.75748],[41.79209,19.80493],[41.78297,19.85505],[41.84421,19.92015],[41.84593,20.09868],[41.87096,20.07585],[41.88149,20.155],[41.99471,20.28609],[42.00838,20.35953],[42.13005,20.41327],[42.11756,20.51487],[42.09971,20.52631],[42.1296,20.57634],[42.08264,20.59024],[41.97961,20.57397],[41.94576,20.60888],[41.95809,20.65612],[41.93413,20.68821],[41.84422,20.62968],[41.73572,20.64597],[41.74233,20.60529],[41.72589,20.60799],[41.59738,20.74713],[41.505,20.76153],[41.44236,20.82307],[41.41165,20.82938],[41.33545,20.78382],[41.33829,20.67305],[41.29245,20.61363],[41.28669,20.52815],[41.24767,20.47279],[41.20073,20.45375],[41.19257,20.34175],[41.14325,20.32627],[41.1339,20.38029],[41.02163,20.35848],[41.02218,20.31226],[40.978,20.27881],[40.9889,20.24538],[40.838,20.1308],[40.86498,20.10761],[40.84824,20.05347],[40.89758,19.96298],[40.88877,19.92525],[40.93707,19.90692],[40.99771,19.81349],[41.046,19.83429],[41.00512,19.73698],[41.20227,19.62671],[41.168,19.56705],[41.09676,19.53311],[41.10983,19.51063],[41.27277,19.52951],[41.30646,19.54961],[41.35464,19.59672],[41.38426,19.69073],[41.45244,19.74284],[41.51785,19.76627],[41.52825,19.74109],[41.49584,19.72255],[41.50805,19.70792],[41.60454,19.73099],[41.6365,19.77034]]]}},{"type":"Feature","properties":{"gid":"SAU.3_1","name":"北部边境省","nameEn":"Al Hudud ash Shamaliyah","nameLocal":"الحدود الشمالية","type":"Province","typeEn":"Province","groupZh":"省","area":103649.9,"iso":"SA-08","engtype":"Province","capital":"阿尔阿尔","pop":350000,"blurb":"西北部与伊拉克约旦交界，荒漠边境。"},"geometry":{"type":"Polygon","coordinates":[[[43.85173,29.84416],[42.0856,31.11166],[41.44073,31.37321],[40.41325,31.94808],[39.20092,32.15434],[39.00631,32.00063],[38.03978,31.76349],[37.98459,31.74472],[37.96717,31.71512],[37.98887,31.6879],[37.96451,31.6584],[37.96977,31.59026],[38.20158,31.47243],[38.22807,31.28715],[38.24412,31.25332],[38.29574,31.2364],[38.29382,31.19053],[38.26225,31.15705],[38.219,31.15252],[38.18301,31.08627],[38.17961,30.85814],[38.58393,30.94341],[38.72232,30.9417],[38.80512,30.89411],[38.80627,30.91086],[38.85785,30.90744],[38.93171,30.96075],[38.97054,30.95446],[39.00481,30.97616],[39.21001,30.98149],[39.34575,30.96093],[39.43349,30.9063],[39.53399,30.95759],[39.61217,30.96315],[39.661,30.95176],[39.76395,30.86366],[39.88787,30.90915],[40.11744,30.76619],[40.2151,30.77324],[40.30304,30.85776],[40.39594,30.8471],[40.65806,30.76239],[40.88401,30.79722],[41.04277,30.79284],[41.11472,30.76124],[41.13623,30.67996],[41.12138,30.60724],[41.15055,30.54741],[41.17843,30.54881],[41.20259,30.59306],[41.25863,30.61372],[41.38826,30.61162],[41.44555,30.63066],[41.45603,30.58935],[41.53446,30.59487],[41.6502,30.5528],[41.62774,30.50826],[41.57977,30.47438],[41.59119,30.41308],[41.67286,30.36587],[41.7568,30.38034],[41.89385,30.22444],[41.98979,30.15439],[41.99474,30.12907],[41.96181,30.10527],[41.82133,30.07558],[41.76133,30.01946],[41.74385,29.95565],[41.60775,29.94271],[41.58795,29.89168],[41.54493,29.85857],[41.43262,29.82945],[40.93477,29.52884],[40.8803,29.44605],[40.82284,29.1151],[40.71857,29.00966],[40.68908,28.91897],[41.42786,28.91897],[41.40425,29.01301],[41.43872,29.07487],[41.44956,29.14645],[41.50286,29.18128],[41.61404,29.20788],[41.66942,29.16781],[41.73908,29.14922],[41.86762,29.13794],[41.98833,29.09632],[42.09873,29.09659],[42.19346,29.05122],[42.21194,29.00022],[42.33284,28.88687],[42.37264,28.82041],[42.55701,28.80393],[42.59961,28.76563],[42.5889,28.73112],[42.66956,28.65617],[42.73285,28.67758],[42.76355,28.64023],[42.84255,28.62167],[42.85587,28.57574],[42.83303,28.51197],[42.90275,28.45939],[42.89466,28.43179],[42.93559,28.45154],[42.98294,28.42917],[43.01315,28.44321],[43.01411,28.42417],[43.13427,28.38943],[43.15569,28.36231],[43.23944,28.42775],[43.28394,28.50341],[43.33961,28.52673],[43.38126,28.52411],[43.41338,28.48461],[43.64679,28.43069],[43.70081,28.39377],[43.78633,28.37325],[43.95705,28.42605],[44.2981,28.43812],[44.36737,28.2508],[44.64599,28.01209],[44.70182,28.02182],[44.77856,27.9308],[44.84102,28.00397],[45.06409,28.68033],[45.06773,28.74552],[45.03583,28.81382],[45.0537,28.85626],[45.02913,28.92661],[45.03806,29.03717],[45.17198,29.15925],[44.71522,29.19603],[43.85173,29.84416]]]}},{"type":"Feature","properties":{"gid":"SAU.4_1","name":"焦夫省","nameEn":"Al Jawf","nameLocal":"منطقة الجوف","type":"Province","typeEn":"Province","groupZh":"省","area":82335.3,"iso":"SA-12","engtype":"Province","capital":"塞卡卡","pop":600000,"blurb":"北部绿洲省，橄榄与古迹。"},"geometry":{"type":"Polygon","coordinates":[[[40.92728,29.52067],[41.43262,29.82945],[41.54493,29.85857],[41.58795,29.89168],[41.60775,29.94271],[41.74385,29.95565],[41.76133,30.01946],[41.82133,30.07558],[41.99284,30.12621],[41.98979,30.15439],[41.89385,30.22444],[41.7568,30.38034],[41.67286,30.36587],[41.59119,30.41308],[41.57977,30.47438],[41.63173,30.5134],[41.65153,30.54938],[41.63631,30.56365],[41.53446,30.59487],[41.45603,30.58935],[41.44555,30.63066],[41.38826,30.61162],[41.25863,30.61372],[41.20259,30.59306],[41.17843,30.54881],[41.15055,30.54741],[41.12138,30.60724],[41.13623,30.67996],[41.11472,30.76124],[41.04429,30.79246],[40.88401,30.79722],[40.65806,30.76239],[40.39594,30.8471],[40.30304,30.85776],[40.2151,30.77324],[40.11744,30.76619],[39.88787,30.90915],[39.76395,30.86366],[39.661,30.95176],[39.61217,30.96315],[39.53399,30.95759],[39.43349,30.9063],[39.34575,30.96093],[39.21001,30.98149],[39.00481,30.97616],[38.97054,30.95446],[38.93171,30.96075],[38.85785,30.90744],[38.80627,30.91086],[38.80512,30.89411],[38.72232,30.9417],[38.58393,30.94341],[38.17961,30.85814],[38.18301,31.08627],[38.219,31.15252],[38.26225,31.15705],[38.29382,31.19053],[38.29574,31.2364],[38.24412,31.25332],[38.22807,31.28715],[38.20158,31.47243],[37.96977,31.59026],[37.96451,31.6584],[37.98887,31.6879],[37.96717,31.71512],[37.98459,31.74472],[37.00617,31.50064],[37.99715,30.50066],[37.66556,30.33262],[37.5055,30.00077],[37.36603,29.97559],[37.38577,29.94352],[37.417,29.90521],[37.53773,29.92683],[37.60217,29.86547],[37.72686,29.80646],[37.71296,29.74536],[37.73714,29.717],[37.7202,29.56395],[37.93016,29.55786],[37.99659,29.59764],[38.13023,29.54149],[38.18581,29.54528],[38.19076,29.51312],[38.23892,29.46039],[38.2353,29.41944],[38.32302,29.35043],[38.24025,29.22968],[38.19095,29.21103],[38.22445,29.18457],[38.19742,29.12822],[38.20485,29.01686],[38.36474,29.00525],[38.37909,29.08959],[38.42376,29.12099],[38.37997,29.20684],[38.45897,29.20189],[38.56043,29.33],[38.65523,29.27994],[38.76963,29.25728],[38.77135,29.08596],[38.79514,29.01744],[38.77135,28.99954],[38.77687,28.93025],[38.85654,28.93534],[38.98655,28.85231],[39.05579,28.59747],[39.1256,28.62607],[39.1966,28.61369],[39.22268,28.50842],[39.21392,28.36794],[39.6958,28.47925],[39.91814,28.64429],[40.09669,28.69682],[40.50217,28.86795],[40.56269,28.91097],[40.68908,28.91897],[40.71857,29.00966],[40.82284,29.1151],[40.8803,29.44605],[40.92728,29.52067]]]}},{"type":"Feature","properties":{"gid":"SAU.5_1","name":"麦地那省","nameEn":"Al Madinah","nameLocal":"المدينة","type":"Province","typeEn":"Province","groupZh":"省","area":150298.5,"iso":"NA","engtype":"Province","capital":"麦地那","pop":2200000,"blurb":"西部圣城麦地那所在，伊斯兰第二圣城。"},"geometry":{"type":"MultiPolygon","coordinates":[[[[42.10252,24.4904],[42.09205,24.56987],[42.06397,24.59414],[42.13393,24.71733],[42.08427,24.88352],[41.95038,25.15057],[41.85097,25.21747],[41.73342,25.20003],[41.7338,25.18397],[41.61737,25.20077],[41.50007,25.3009],[41.38388,25.46702],[41.30057,25.53409],[41.25651,25.49473],[41.12017,25.53215],[41.05484,25.52634],[40.93163,25.59617],[40.85534,25.59534],[40.85834,25.56985],[40.7729,25.50723],[40.74891,25.42828],[40.602,25.40363],[40.49623,25.44477],[40.48308,25.40279],[40.4486,25.38047],[40.48608,25.33417],[40.47342,25.2767],[40.37864,25.32434],[40.37481,25.34733],[40.32318,25.343],[40.30452,25.31768],[40.32301,25.25439],[40.2842,25.2882],[40.2354,25.29036],[40.21508,25.36215],[40.14079,25.36647],[40.0675,25.33184],[40.02003,25.36965],[39.92818,25.35617],[39.91877,25.38231],[39.96224,25.41928],[39.94592,25.45193],[39.98006,25.68945],[39.97756,25.73793],[39.94376,25.77273],[39.96808,25.84385],[39.94858,25.88183],[39.97206,25.93712],[39.94791,25.99608],[39.97173,26.11701],[39.8693,26.26576],[39.87979,26.3975],[39.78835,26.49361],[39.76603,26.59405],[39.69107,26.59971],[39.66726,26.62136],[39.6576,26.77793],[39.60679,26.79209],[39.54517,26.7646],[39.46122,26.77477],[39.43502,26.79885],[39.35398,26.74772],[39.09896,26.804],[38.95787,26.79126],[38.8761,26.84803],[38.74358,26.77687],[38.62724,26.84955],[38.60769,26.80556],[38.55838,26.85303],[38.49809,26.82155],[38.46644,26.86885],[38.47732,26.89879],[38.44977,26.91545],[38.44004,26.97725],[38.34052,27.00677],[38.25312,27.1116],[38.16805,27.14536],[38.13864,27.18466],[37.97741,27.12919],[37.95309,27.18366],[37.96925,27.23796],[37.94444,27.29525],[37.94444,27.39069],[37.87881,27.46665],[37.81401,27.44749],[37.77921,27.41318],[37.70025,27.46831],[37.65512,27.45615],[37.57367,27.47814],[37.52853,27.43916],[37.45224,27.44349],[37.40277,27.39736],[37.34031,27.40635],[37.31283,27.3842],[37.27602,27.45465],[37.29218,27.49713],[37.2477,27.46165],[37.21223,27.47481],[37.15726,27.45965],[37.11379,27.4878],[37.01768,27.44966],[36.98753,27.47997],[36.94739,27.45798],[36.96938,27.44433],[36.9035,27.39932],[36.79732,27.3752],[36.81198,27.31091],[36.69355,27.33589],[36.69988,27.31541],[36.6634,27.31491],[36.63625,27.28776],[36.70521,27.26709],[36.71687,27.23945],[36.82417,27.24277],[36.95694,27.16555],[37.00083,27.05583],[36.98,26.80167],[37.08698,26.53634],[37.20557,26.47227],[37.19348,26.43939],[37.21236,26.39421],[37.19326,26.38211],[37.19326,26.33014],[37.24545,26.30001],[37.26624,26.32377],[37.3197,26.33396],[37.35386,26.30956],[37.29955,26.27582],[37.29255,26.24762],[37.37331,26.20262],[37.4054,26.10548],[37.47838,26.08236],[37.52221,26.03552],[37.56907,25.95015],[37.54773,25.94458],[37.51602,25.86709],[37.61253,25.79486],[37.77679,25.77584],[37.84716,25.68845],[37.81217,25.6303],[37.73177,25.60633],[37.71119,25.55622],[37.76255,25.49127],[37.7545,25.45522],[37.80663,25.42336],[37.77012,25.29963],[37.82518,25.20342],[37.8719,25.18579],[37.83323,25.0718],[37.91318,25.00746],[37.89154,24.98195],[37.9333,24.90152],[37.9768,24.89502],[38.0013,24.91597],[38.03677,24.861],[38.03243,24.78722],[37.88613,24.81723],[37.78125,24.77206],[37.82813,24.71484],[37.77616,24.67865],[37.78095,24.64895],[37.66679,24.68633],[37.58684,24.66692],[37.51441,24.69358],[37.47331,24.67991],[37.42612,24.60501],[37.3669,24.56184],[37.46136,24.43666],[37.4579,24.40935],[37.43503,24.41786],[37.42692,24.3694],[37.4694,24.34127],[37.50179,24.286],[37.55959,24.26991],[37.57579,24.24631],[37.63274,24.24966],[37.61625,24.29429],[37.69284,24.30063],[37.71599,24.2612],[37.74883,24.26147],[37.78247,24.2077],[37.86125,24.15207],[37.9289,24.14625],[37.91192,24.19735],[37.95194,24.21024],[37.93463,24.16585],[37.97804,24.17542],[37.99109,24.15697],[37.96211,24.1681],[37.93378,24.14501],[38.03887,24.06977],[38.07116,24.08223],[38.05431,24.06669],[38.07558,24.06002],[38.08166,24.0768],[38.16053,24.01922],[38.14951,24.00113],[38.19167,24.00069],[38.18418,23.97978],[38.24912,23.93193],[38.25511,23.95068],[38.28151,23.94162],[38.28045,23.91728],[38.28831,23.93546],[38.30368,23.89923],[38.37149,23.86529],[38.40022,23.80966],[38.43245,23.81179],[38.46317,23.78069],[38.4916,23.66154],[38.49461,23.67777],[38.50475,23.64029],[38.53886,23.63267],[38.51676,23.62386],[38.54395,23.59885],[38.5431,23.54001],[38.59729,23.53141],[38.56152,23.54225],[38.55642,23.56322],[38.60505,23.57121],[38.59889,23.54334],[38.6377,23.50705],[38.65453,23.42214],[38.65924,23.43721],[38.66585,23.41225],[38.73345,23.44048],[38.78092,23.48945],[38.89918,23.49528],[38.89069,23.42749],[38.94548,23.38135],[38.98579,23.38414],[39.03448,23.32265],[39.09145,23.32965],[39.14042,23.24237],[39.12176,23.1899],[39.17473,23.15559],[39.19171,23.11805],[39.28577,23.08979],[39.25412,23.05398],[39.29699,23.02348],[39.3957,23.01567],[39.41969,23.04482],[39.46532,23.04616],[39.49064,23.00085],[39.51562,23.03633],[39.56591,23.02675],[39.53725,23.11436],[39.6342,23.11286],[39.62919,23.08888],[39.65184,23.06656],[39.73762,23.09837],[39.85587,23.05848],[39.86871,23.03541],[39.8314,23.0136],[39.88517,22.92386],[39.81679,22.82542],[39.81934,22.80025],[39.87225,22.8147],[39.97568,22.76206],[40.06879,22.76873],[40.07978,22.72375],[40.10976,22.72559],[40.14113,22.69364],[40.12991,22.63831],[40.16573,22.62881],[40.14391,22.56685],[40.17472,22.53087],[40.33362,22.52005],[40.35894,22.57068],[40.41074,22.58001],[40.5182,22.64698],[40.57148,22.62971],[40.60529,22.57841],[40.73754,22.60872],[40.77535,22.6422],[40.83237,22.86577],[40.9189,22.88849],[41.04335,22.86473],[41.0958,22.94201],[41.08782,22.9725],[41.14197,23.03254],[41.17794,23.0442],[41.24407,23.01888],[41.31286,23.07351],[41.4143,23.07752],[41.46127,23.10865],[41.36916,23.18444],[41.36982,23.23574],[41.39297,23.27005],[41.34467,23.26289],[41.36932,23.39349],[41.34584,23.43678],[41.38884,23.5906],[41.43236,23.63717],[41.51607,23.6733],[41.54535,23.66237],[41.63086,23.6952],[41.69576,23.68145],[41.68996,23.75392],[41.78556,23.79739],[41.80753,23.75563],[41.89888,23.74813],[41.93168,23.78133],[41.92231,23.83103],[42.03689,23.85079],[42.10383,23.90833],[42.10137,23.97334],[42.15873,24.07826],[42.08939,24.10159],[42.14774,24.20647],[42.1566,24.28491],[42.14868,24.35572],[42.11251,24.36762],[42.12727,24.39427],[42.09491,24.39712],[42.13774,24.43329],[42.10252,24.4904]]],[[[37.40265,24.41272],[37.42245,24.40003],[37.41904,24.41913],[37.40265,24.41272]]]]}},{"type":"Feature","properties":{"gid":"SAU.6_1","name":"卡西姆省","nameEn":"Al Qassim","nameLocal":"القصيم‎","type":"Province","typeEn":"Province","groupZh":"省","area":67755.6,"iso":"NA","engtype":"Province","capital":"布赖代","pop":1500000,"blurb":"中部农业省，椰枣与灌溉绿洲。"},"geometry":{"type":"Polygon","coordinates":[[[42.08427,24.88352],[42.13393,24.71733],[42.434,24.7334],[42.56713,24.48395],[42.81742,24.4836],[42.81735,24.53412],[42.95005,24.58393],[43.08342,24.55],[43.15078,24.60032],[43.21675,24.76743],[43.1169,24.76697],[43.1174,24.78427],[43.16758,24.80093],[43.13352,24.86101],[43.21728,24.91477],[43.1986,24.93453],[43.13352,24.91445],[43.1008,24.93432],[43.1669,25.01725],[43.28333,25.0335],[43.40082,25.11732],[43.46722,25.20068],[43.53365,25.23333],[43.56732,25.1836],[43.61672,25.16703],[43.70095,25.1839],[43.71747,25.284],[43.76725,25.33398],[44.00067,25.3336],[44.06713,25.43428],[44.18377,25.48343],[44.23363,25.46748],[44.38368,25.51747],[44.42884,25.57366],[44.42647,25.60081],[44.47876,25.6752],[44.45989,25.73342],[44.47301,25.74092],[44.43365,25.77307],[44.46764,25.79561],[44.44757,25.8363],[44.45934,25.85866],[44.43682,25.86553],[44.44193,25.89054],[44.41828,25.91241],[44.37268,25.91945],[44.35933,25.94125],[44.44719,25.97053],[44.44962,25.98726],[44.40331,26.04554],[44.35754,26.0283],[44.33872,26.0471],[44.2676,26.05063],[44.23371,26.12178],[44.23571,26.18502],[44.15755,26.19504],[44.1321,26.26744],[44.18235,26.28976],[44.2524,26.37181],[44.2311,26.58378],[44.3058,26.55981],[44.393,26.56492],[44.38393,26.63427],[44.41725,26.98363],[44.70042,27.01695],[44.85083,26.91742],[44.90085,27.3339],[44.98947,27.56925],[44.70868,27.72578],[44.6504,27.85215],[44.65023,28.00902],[44.36737,28.2508],[44.31763,28.23858],[44.19062,28.13625],[44.2507,28.05092],[44.05177,27.88363],[43.98367,27.84052],[43.90153,27.83427],[43.90193,27.81752],[43.87178,27.83415],[43.65857,27.7869],[43.3926,27.6203],[43.4175,27.40035],[43.43368,27.40045],[43.45042,27.31742],[43.3505,27.2338],[43.30083,27.217],[43.31698,27.20035],[43.30003,27.13408],[43.2343,27.16675],[43.16732,27.05093],[43.06672,26.95088],[42.9501,26.91736],[42.83388,26.8174],[42.76668,26.8005],[42.73393,26.73745],[42.62127,26.61987],[42.60052,26.54138],[42.36695,26.45027],[42.27637,26.47338],[42.16743,26.3214],[42.21742,26.28682],[42.18438,26.23878],[42.0236,26.13335],[41.98587,26.0344],[41.91877,26.00227],[41.85973,25.89105],[41.78807,25.85681],[41.67162,25.88577],[41.7003,25.78938],[41.58592,25.7682],[41.56913,25.72531],[41.45477,25.73622],[41.31988,25.61668],[41.30057,25.53409],[41.38388,25.46702],[41.50007,25.3009],[41.61737,25.20077],[41.7338,25.18397],[41.73342,25.20003],[41.85097,25.21747],[41.95038,25.15057],[42.08427,24.88352]]]}},{"type":"Feature","properties":{"gid":"SAU.7_1","name":"利雅得省","nameEn":"Ar Riyad","nameLocal":"الرياض‎","type":"Province","typeEn":"Province","groupZh":"省","area":379199.4,"iso":"SA-01","engtype":"Province","capital":"利雅得","pop":8600000,"blurb":"中部首都圈，全国人口政治经济核心。"},"geometry":{"type":"Polygon","coordinates":[[[48.11267,20.78934],[47.87955,21.05473],[47.89866,21.36056],[47.81782,21.40303],[47.86583,21.56614],[47.94167,21.70284],[47.99985,21.71461],[48.09561,21.79502],[48.2582,21.88812],[47.94359,21.88771],[47.8063,21.99998],[47.8821,22.22801],[47.97323,22.3675],[48.02007,22.48123],[48.01407,22.52637],[48.06321,22.72858],[48.09052,22.90148],[48.08225,23.10981],[48.10929,23.25205],[48.09195,23.42369],[48.13985,23.68114],[48.11899,23.77548],[48.13456,23.87805],[48.11282,23.97416],[48.15258,24.08486],[48.10474,24.20193],[48.09702,24.3243],[48.0053,24.46232],[47.97412,24.58232],[47.87988,24.53923],[47.72591,24.5128],[47.7428,24.84938],[47.69703,24.94215],[47.60647,25.01998],[47.64062,25.09443],[47.62273,25.15344],[47.77963,25.26822],[47.7259,25.32926],[47.71859,25.38385],[47.74045,25.40925],[47.6423,25.56469],[47.67384,25.69737],[47.72067,25.72891],[47.67925,25.76324],[47.70127,25.82277],[47.62269,25.88789],[47.62196,25.9868],[47.56971,26.07553],[47.6044,26.09823],[47.60991,26.14005],[47.52269,26.37155],[47.48703,26.42051],[47.40273,26.39036],[47.33399,26.40819],[47.28926,26.38193],[47.14594,26.50902],[47.10995,26.58165],[46.99777,26.58327],[46.8911,26.68184],[46.84343,26.63808],[46.65247,26.67665],[46.63008,26.64747],[46.28713,26.81417],[46.26532,26.78297],[46.20123,26.84404],[46.19116,26.88162],[46.04453,26.8031],[46.0254,26.84001],[45.78382,26.99996],[45.73499,27.05579],[45.54694,27.13778],[45.58175,27.19851],[45.55465,27.23216],[45.43598,27.21791],[45.25236,27.24454],[45.1671,27.31112],[45.12598,27.3945],[45.12902,27.46623],[45.0942,27.49987],[45.10658,27.59168],[45.07085,27.66666],[45.02556,27.7021],[44.99215,27.69901],[44.93983,27.64476],[44.87273,27.626],[44.98947,27.56925],[44.90085,27.3339],[44.85083,26.91742],[44.70042,27.01695],[44.41725,26.98363],[44.38393,26.63427],[44.393,26.56492],[44.3058,26.55981],[44.2311,26.58378],[44.2524,26.37181],[44.18235,26.28976],[44.1321,26.26744],[44.15755,26.19504],[44.23571,26.18502],[44.23371,26.12178],[44.2676,26.05063],[44.33872,26.0471],[44.35754,26.0283],[44.40331,26.04554],[44.44962,25.98726],[44.44719,25.97053],[44.35933,25.94125],[44.37268,25.91945],[44.41828,25.91241],[44.44193,25.89054],[44.43682,25.86553],[44.45904,25.86012],[44.44757,25.8363],[44.46764,25.79561],[44.43365,25.77307],[44.47301,25.74092],[44.45989,25.73342],[44.47984,25.68868],[44.38368,25.51747],[44.23363,25.46748],[44.18377,25.48343],[44.06713,25.43428],[44.00067,25.3336],[43.76725,25.33398],[43.71747,25.284],[43.70095,25.1839],[43.61672,25.16703],[43.56732,25.1836],[43.53365,25.23333],[43.46722,25.20068],[43.40082,25.11732],[43.28333,25.0335],[43.1669,25.01725],[43.1008,24.93432],[43.13352,24.91445],[43.1986,24.93453],[43.21728,24.91477],[43.13352,24.86101],[43.16758,24.80093],[43.1174,24.78427],[43.1169,24.76697],[43.21675,24.76743],[43.15078,24.60032],[43.08342,24.55],[42.95005,24.58393],[42.81735,24.53412],[42.81742,24.4836],[42.56713,24.48395],[42.434,24.7334],[42.13393,24.71733],[42.06397,24.59414],[42.09205,24.56987],[42.09633,24.50515],[42.13774,24.43329],[42.09491,24.39712],[42.12727,24.39427],[42.11251,24.36762],[42.14868,24.35572],[42.1566,24.28491],[42.14774,24.20647],[42.08939,24.10159],[42.15873,24.07826],[42.10137,23.97334],[42.10383,23.90833],[42.03689,23.85079],[41.92231,23.83103],[41.92949,23.77427],[41.89387,23.74625],[41.80753,23.75563],[41.7874,23.79756],[41.75442,23.76991],[41.70411,23.76474],[41.68146,23.72743],[41.70562,23.70794],[41.69576,23.68145],[41.73887,23.68451],[41.74121,23.6549],[41.99211,23.58921],[42.23731,23.61156],[42.27446,23.4908],[42.32559,23.4673],[42.33541,23.443],[42.39954,23.43633],[42.41037,23.28276],[42.469,23.1162],[42.71518,23.07273],[42.74681,22.8978],[42.78316,22.88384],[42.81641,22.91132],[42.8634,22.89957],[42.93053,22.74271],[42.98311,22.72052],[43.19437,22.70654],[43.24176,22.68258],[43.23677,22.64329],[43.16156,22.62331],[43.14744,22.59158],[43.22736,22.49755],[43.24065,22.42191],[43.31491,22.43211],[43.33596,22.38135],[43.37808,22.3563],[43.26991,22.28138],[43.33221,22.20269],[43.37788,22.02261],[43.46396,22.00021],[43.4902,21.96169],[43.49554,21.78963],[43.42441,21.76265],[43.46855,21.71684],[43.48504,21.5218],[43.66635,21.40887],[43.57806,21.19954],[43.57196,21.11668],[43.66512,21.03688],[43.79133,20.86521],[43.83016,20.72393],[43.82166,20.62045],[43.89351,20.60924],[43.96996,20.51763],[44.07323,20.50164],[44.03442,20.43669],[44.08255,20.16119],[44.08089,20.07175],[44.174,19.939],[44.17067,19.89602],[44.21714,19.8244],[44.18832,19.77409],[44.23713,19.73679],[44.2168,19.64335],[44.25395,19.6122],[44.1187,19.51443],[44.18049,19.46045],[44.28143,19.46063],[44.34739,19.49677],[44.3902,19.41716],[45.08889,19.44889],[45.11917,19.20833],[45.36167,19.30389],[47.5244,19.333],[48.1838,20.7075],[48.11267,20.78934]]]}},{"type":"Feature","properties":{"gid":"SAU.8_1","name":"东部省","nameEn":"Ash-Sharqīyah","nameLocal":"الشرقية‎","type":"Province","typeEn":"Province","groupZh":"省","area":523107.6,"iso":"NA","engtype":"Province","capital":"达曼","pop":5200000,"blurb":"波斯湾沿岸，石油中枢与达兰、达曼、胡富夫。"},"geometry":{"type":"MultiPolygon","coordinates":[[[[55.27531,22.60659],[55.20918,22.70879],[55.13734,22.63162],[52.58104,22.9392],[51.59038,24.12697],[51.58899,24.25457],[51.53383,24.25129],[51.48815,24.30686],[51.44539,24.32573],[51.40453,24.32776],[51.355,24.28866],[51.27674,24.29437],[51.27634,24.3335],[51.30418,24.34857],[51.32668,24.43478],[51.41067,24.49592],[51.42285,24.53441],[51.50499,24.57424],[51.47737,24.59711],[51.45241,24.57985],[51.44295,24.62073],[51.40223,24.62581],[51.41388,24.59711],[51.36526,24.52137],[51.31384,24.48536],[51.09853,24.47075],[50.92835,24.54682],[50.81172,24.74455],[50.77232,24.71821],[50.76054,24.7285],[50.72803,24.87123],[50.68273,24.89415],[50.67353,24.94416],[50.58526,25.06671],[50.58655,25.03183],[50.56149,25.04392],[50.57092,25.06424],[50.54535,25.13524],[50.55911,25.18176],[50.52361,25.22983],[50.53204,25.29925],[50.49327,25.40268],[50.39754,25.47171],[50.38088,25.51229],[50.36171,25.50253],[50.41238,25.40446],[50.39825,25.41115],[50.38862,25.44345],[50.31166,25.51487],[50.30936,25.54356],[50.27263,25.55596],[50.21916,25.61996],[50.20934,25.68124],[50.18825,25.66044],[50.13418,25.73161],[50.16412,25.73071],[50.21847,25.67388],[50.23504,25.68367],[50.26471,25.61214],[50.26294,25.67216],[50.10869,25.88343],[50.1058,25.91727],[50.13312,25.93089],[50.11824,25.96816],[50.03814,26.01128],[50.00156,25.98739],[50.01352,26.07998],[49.99515,26.09432],[50.01273,26.085],[49.96332,26.1616],[49.88858,26.13752],[49.95364,26.19793],[49.84363,26.21713],[49.6655,26.41237],[49.58998,26.45034],[49.75606,26.69685],[49.75098,26.66893],[49.91653,26.52368],[49.89549,26.49323],[49.93231,26.5043],[50.00982,26.44866],[50.07712,26.47403],[50.03941,26.50901],[50.02161,26.57007],[50.03927,26.54425],[50.08859,26.53791],[50.09077,26.57072],[50.08226,26.60564],[50.02852,26.59051],[50.02147,26.57077],[50.00673,26.6277],[50.02287,26.65529],[49.98608,26.6604],[49.99459,26.74471],[50.038,26.67024],[50.06571,26.68988],[50.12235,26.6833],[50.16224,26.62666],[50.16307,26.64086],[49.95437,26.85283],[49.86927,26.86043],[49.84611,26.87594],[49.86083,26.90095],[49.84641,26.87687],[49.78223,26.89852],[49.77837,26.91934],[49.76651,26.91077],[49.70008,26.95493],[49.68624,26.9727],[49.70038,26.98208],[49.67223,26.98028],[49.66824,27.01346],[49.70016,27.03089],[49.68371,27.01358],[49.68871,27.03315],[49.64625,27.02345],[49.61574,27.0552],[49.68255,27.08512],[49.70338,27.07082],[49.70215,27.09859],[49.61697,27.06137],[49.63468,27.071],[49.61293,27.06937],[49.61978,27.08885],[49.60969,27.07293],[49.62774,27.11761],[49.60971,27.0731],[49.61239,27.10277],[49.60167,27.0743],[49.58366,27.09215],[49.56772,27.14604],[49.58922,27.20748],[49.61244,27.19156],[49.61446,27.15474],[49.61272,27.19197],[49.5893,27.2085],[49.62683,27.28432],[49.5823,27.18135],[49.55486,27.16351],[49.52717,27.18858],[49.54898,27.1961],[49.54303,27.23308],[49.51428,27.2423],[49.51101,27.22812],[49.50349,27.29595],[49.48768,27.30401],[49.52773,27.33544],[49.5619,27.32165],[49.54702,27.30284],[49.55572,27.28724],[49.57534,27.29516],[49.5653,27.28116],[49.63197,27.31476],[49.70212,27.30077],[49.58081,27.32904],[49.54822,27.35431],[49.48641,27.34465],[49.45429,27.28204],[49.47202,27.25934],[49.4619,27.27312],[49.48546,27.29807],[49.46402,27.23456],[49.53357,27.19565],[49.49551,27.16228],[49.52237,27.11871],[49.47367,27.13066],[49.43406,27.09222],[49.44709,27.13808],[49.433,27.14472],[49.41792,27.095],[49.36101,27.13487],[49.37698,27.15685],[49.40022,27.14402],[49.41223,27.1945],[49.39834,27.17793],[49.39791,27.20089],[49.36403,27.19143],[49.35072,27.14009],[49.3186,27.18122],[49.31986,27.32502],[49.28927,27.35246],[49.21754,27.31124],[49.24045,27.34438],[49.23273,27.36926],[49.27147,27.38853],[49.23334,27.40888],[49.23519,27.38541],[49.2064,27.37393],[49.2031,27.39457],[49.12302,27.40616],[49.14266,27.43984],[49.16378,27.42298],[49.18168,27.44759],[49.19595,27.42352],[49.21548,27.44695],[49.27184,27.43184],[49.2947,27.46064],[49.2963,27.42742],[49.31223,27.42545],[49.30461,27.47432],[49.27646,27.4863],[49.25773,27.52825],[49.22341,27.53379],[49.22079,27.57055],[49.2155,27.54871],[49.18661,27.54532],[49.21416,27.58131],[49.17744,27.57199],[49.16436,27.55487],[49.18288,27.54435],[49.12722,27.53782],[49.03912,27.56101],[48.96805,27.62256],[48.90936,27.59105],[48.90348,27.57784],[48.91987,27.59545],[48.92609,27.57655],[48.8996,27.56204],[48.91539,27.62488],[48.89692,27.63002],[48.87492,27.59613],[48.84832,27.60348],[48.84891,27.62767],[48.87381,27.60777],[48.84871,27.63999],[48.86791,27.65298],[48.87719,27.63986],[48.88555,27.6717],[48.84664,27.65863],[48.85602,27.69014],[48.84406,27.70721],[48.82583,27.6818],[48.81559,27.74343],[48.80296,27.71137],[48.7837,27.71151],[48.82783,27.83122],[48.82988,27.78999],[48.80199,27.75638],[48.83785,27.7651],[48.83284,27.79845],[48.85078,27.81663],[48.87009,27.79166],[48.84193,27.76421],[48.86126,27.76541],[48.84024,27.72439],[48.87665,27.74572],[48.88384,27.83389],[48.82584,27.86656],[48.8232,27.90144],[48.79419,27.90403],[48.74785,27.95239],[48.74843,27.98065],[48.7933,27.99909],[48.69461,28.01582],[48.62252,28.08532],[48.61595,28.10648],[48.63514,28.10616],[48.61059,28.11146],[48.6101,28.16304],[48.6354,28.19508],[48.54095,28.28135],[48.51418,28.33271],[48.54326,28.40766],[48.52965,28.41693],[48.50449,28.38518],[48.46783,28.38426],[48.50628,28.38987],[48.52951,28.4187],[48.50013,28.43865],[48.50102,28.49431],[48.43036,28.5343],[47.70446,28.52436],[47.70904,28.54309],[47.60537,28.65489],[47.5847,28.83561],[47.46517,28.99992],[46.56312,29.10004],[46.42454,29.05857],[45.17198,29.15925],[45.04811,29.06174],[45.02801,28.95118],[45.0537,28.86854],[45.03583,28.81382],[45.06773,28.74552],[45.06409,28.68033],[44.84102,28.00397],[44.77856,27.9308],[44.70182,28.02182],[44.64599,28.01209],[44.6504,27.85215],[44.70868,27.72578],[44.87273,27.626],[44.93263,27.64092],[44.98591,27.69564],[45.02556,27.7021],[45.07085,27.66666],[45.10658,27.59168],[45.0942,27.49987],[45.12902,27.46623],[45.12598,27.3945],[45.1671,27.31112],[45.25236,27.24454],[45.43598,27.21791],[45.55465,27.23216],[45.58175,27.19851],[45.54694,27.13778],[45.73499,27.05579],[45.78382,26.99996],[46.0254,26.84001],[46.04453,26.8031],[46.19116,26.88162],[46.20123,26.84404],[46.26532,26.78297],[46.28713,26.81417],[46.63008,26.64747],[46.65247,26.67665],[46.84343,26.63808],[46.89369,26.68086],[46.99777,26.58327],[47.10995,26.58165],[47.14594,26.50902],[47.28926,26.38193],[47.33399,26.40819],[47.40273,26.39036],[47.49578,26.41338],[47.60991,26.14005],[47.6044,26.09823],[47.56971,26.07553],[47.62196,25.9868],[47.62269,25.88789],[47.70127,25.82277],[47.67925,25.76324],[47.72067,25.72891],[47.67384,25.69737],[47.6423,25.56469],[47.74045,25.40925],[47.71859,25.38385],[47.7259,25.32926],[47.77963,25.26822],[47.62273,25.15344],[47.64062,25.09443],[47.60647,25.01998],[47.69703,24.94215],[47.7428,24.84938],[47.72591,24.5128],[47.87988,24.53923],[47.97192,24.58403],[48.0053,24.46232],[48.09702,24.3243],[48.10474,24.20193],[48.142,24.1424],[48.15413,24.06546],[48.11253,23.96975],[48.13456,23.87805],[48.11899,23.77548],[48.13985,23.68114],[48.09195,23.42369],[48.10988,23.27703],[48.08194,23.1051],[48.09019,22.89614],[48.01407,22.52637],[48.02173,22.48623],[47.97323,22.3675],[47.8821,22.22801],[47.8063,21.99998],[47.94359,21.88771],[48.2582,21.88812],[48.09561,21.79502],[47.99985,21.71461],[47.94167,21.70284],[47.86583,21.56614],[47.81747,21.4],[47.89866,21.36056],[47.87955,21.05473],[48.1838,20.7075],[47.5244,19.333],[51.99754,19.3333],[52.00151,19.0005],[55.0,20.0],[55.66669,22.00001],[55.27531,22.60659]]],[[[50.23464,26.36271],[50.17867,26.3702],[50.16505,26.29778],[50.19688,26.24172],[50.17308,26.21331],[50.12003,26.21853],[50.10822,26.15038],[50.07443,26.14447],[50.11986,26.08877],[50.11855,26.05429],[50.1416,26.05684],[50.13221,26.02978],[50.15596,26.03932],[50.16929,26.17939],[50.19184,26.15348],[50.21998,26.18216],[50.22022,26.21861],[50.24001,26.21792],[50.21397,26.22328],[50.23464,26.36271]]],[[[49.31715,27.38116],[49.28378,27.36159],[49.3133,27.3621],[49.31715,27.38116]]],[[[49.22676,27.41439],[49.21041,27.41804],[49.21167,27.39361],[49.22676,27.41439]]],[[[49.49534,27.14053],[49.48332,27.15723],[49.50394,27.12529],[49.49534,27.14053]]],[[[48.65024,28.18122],[48.63031,28.18297],[48.6445,28.17905],[48.6177,28.15159],[48.65024,28.18122]]]]}},{"type":"Feature","properties":{"gid":"SAU.9_1","name":"哈伊勒省","nameEn":"Ḥaʼil","nameLocal":"حَائِل‎","type":"Province","typeEn":"Province","groupZh":"省","area":120296.3,"iso":"NA","engtype":"Province","capital":"哈伊勒","pop":730000,"blurb":"北部高原省，历史城堡与沙漠。"},"geometry":{"type":"Polygon","coordinates":[[[41.22078,25.5019],[41.25651,25.49473],[41.30069,25.53421],[41.31988,25.61668],[41.45477,25.73622],[41.56913,25.72531],[41.58592,25.7682],[41.7003,25.78938],[41.67162,25.88577],[41.78807,25.85681],[41.85973,25.89105],[41.91877,26.00227],[41.98587,26.0344],[42.0236,26.13335],[42.18438,26.23878],[42.21742,26.28682],[42.16743,26.3214],[42.27637,26.47338],[42.36695,26.45027],[42.60052,26.54138],[42.62127,26.61987],[42.73393,26.73745],[42.76668,26.8005],[42.83388,26.8174],[42.9501,26.91736],[43.06672,26.95088],[43.16732,27.05093],[43.2343,27.16675],[43.30003,27.13408],[43.31698,27.20035],[43.30083,27.217],[43.3505,27.2338],[43.45042,27.31742],[43.43368,27.40045],[43.4175,27.40035],[43.3926,27.6203],[43.65857,27.7869],[43.98367,27.84052],[44.13508,27.9432],[44.2507,28.05092],[44.19062,28.13625],[44.31763,28.23858],[44.36737,28.2508],[44.2981,28.43812],[43.95705,28.42605],[43.78633,28.37325],[43.70081,28.39377],[43.64679,28.43069],[43.41338,28.48461],[43.38126,28.52411],[43.33961,28.52673],[43.28394,28.50341],[43.23944,28.42775],[43.15569,28.36231],[43.13427,28.38943],[43.01411,28.42417],[43.01315,28.44321],[42.98294,28.42917],[42.93559,28.45154],[42.89466,28.43179],[42.90275,28.45939],[42.83303,28.51197],[42.85587,28.57574],[42.84255,28.62167],[42.76355,28.64023],[42.73285,28.67758],[42.66956,28.65617],[42.5889,28.73112],[42.59961,28.76563],[42.55701,28.80393],[42.37264,28.82041],[42.33284,28.88687],[42.21194,29.00022],[42.18012,29.0636],[42.09873,29.09659],[41.98833,29.09632],[41.86762,29.13794],[41.73908,29.14922],[41.66942,29.16781],[41.61404,29.20788],[41.50286,29.18128],[41.44956,29.14645],[41.43872,29.07487],[41.40425,29.01301],[41.42786,28.91897],[40.58115,28.9165],[40.08794,28.69321],[39.91319,28.642],[39.6958,28.47925],[39.52201,28.44936],[39.39466,28.40101],[39.29586,28.39968],[39.21392,28.36794],[39.13482,28.29612],[39.11656,28.26132],[39.40805,28.11069],[39.36807,28.04763],[39.12917,27.99767],[39.51797,27.97268],[39.79185,27.79993],[39.91749,27.61386],[39.91558,27.463],[39.94176,27.41398],[39.68675,27.35804],[39.64598,27.29896],[39.66429,27.07181],[39.68269,27.04559],[39.63124,26.99757],[39.60863,26.92404],[39.56747,26.89764],[39.5563,26.8541],[39.57104,26.84291],[39.52535,26.7789],[39.55199,26.76411],[39.60679,26.79209],[39.6591,26.7771],[39.66726,26.62136],[39.69107,26.59971],[39.76603,26.59405],[39.78835,26.49361],[39.87979,26.3975],[39.8693,26.26576],[39.97123,26.11884],[39.94791,25.99608],[39.97206,25.93712],[39.94858,25.88183],[39.96808,25.84385],[39.94376,25.77273],[39.97756,25.73793],[39.98006,25.68945],[39.94592,25.45193],[39.96224,25.41928],[39.91877,25.38231],[39.92818,25.35617],[40.02003,25.36965],[40.0675,25.33184],[40.14079,25.36647],[40.21508,25.36215],[40.2354,25.29036],[40.2842,25.2882],[40.32301,25.25439],[40.30452,25.31768],[40.32318,25.343],[40.37481,25.34733],[40.37864,25.32434],[40.47342,25.2767],[40.48608,25.33417],[40.4486,25.38047],[40.48308,25.40279],[40.49623,25.44477],[40.602,25.40363],[40.74891,25.42828],[40.7729,25.50723],[40.85834,25.56985],[40.85534,25.59534],[40.93163,25.59617],[41.05484,25.52634],[41.11673,25.53268],[41.22078,25.5019]]]}},{"type":"Feature","properties":{"gid":"SAU.10_1","name":"吉赞省","nameEn":"Jizan","nameLocal":"جيزان‎","type":"Province","typeEn":"Province","groupZh":"省","area":13035.8,"iso":"NA","engtype":"Province","capital":"吉赞","pop":1800000,"blurb":"西南红海沿岸，热带农业与费拉桑群岛。"},"geometry":{"type":"MultiPolygon","coordinates":[[[[42.0566,16.56407],[42.0366,16.55414],[42.04653,16.52429],[42.07342,16.5544],[42.05377,16.53945],[42.0566,16.56407]]],[[[42.03942,16.64888],[42.01068,16.65168],[41.99803,16.63259],[42.01649,16.60403],[42.035,16.6326],[42.03205,16.59885],[42.03942,16.64888]]],[[[41.91813,16.63026],[41.90674,16.62455],[41.92707,16.61328],[41.91813,16.63026]]],[[[41.73856,16.54656],[41.7091,16.55686],[41.69261,16.54264],[41.73856,16.54656]]],[[[41.66005,16.57191],[41.66953,16.56181],[41.67777,16.58283],[41.66005,16.57191]]],[[[41.86022,16.66232],[41.84279,16.66708],[41.88542,16.63942],[41.86022,16.66232]]],[[[41.768,16.89105],[41.75963,16.86501],[41.7885,16.84017],[41.77259,16.80738],[41.81502,16.80501],[41.87172,16.7267],[41.97626,16.6674],[41.98506,16.68541],[42.10234,16.6853],[42.1131,16.65369],[42.07383,16.63046],[42.18704,16.58637],[42.1741,16.66624],[42.19721,16.71031],[42.16121,16.69022],[42.1805,16.7224],[42.15493,16.71793],[42.12408,16.74504],[42.08744,16.81923],[42.05036,16.80077],[42.03264,16.75095],[42.06871,16.73281],[42.06463,16.75475],[42.08169,16.72231],[42.03382,16.70915],[42.00071,16.74931],[41.97336,16.73285],[41.89154,16.75616],[41.85456,16.84293],[41.768,16.89105]]],[[[41.9327,16.95277],[41.91497,16.95765],[41.89361,16.92336],[41.84349,16.91539],[41.83696,16.89856],[41.88061,16.81985],[41.98486,16.78294],[41.99844,16.75148],[42.01187,16.76352],[41.99432,16.79285],[41.92328,16.84095],[41.98273,16.84968],[41.99043,16.86974],[41.93497,16.90314],[41.94706,16.93266],[41.9327,16.95277]]],[[[42.0107,16.78717],[42.00516,16.7997],[42.01474,16.76806],[42.0107,16.78717]]],[[[41.51869,16.76747],[41.52034,16.7823],[41.49582,16.75984],[41.51869,16.76747]]],[[[41.75677,16.73457],[41.72178,16.7272],[41.83271,16.67927],[41.78906,16.71977],[41.80749,16.71902],[41.75677,16.73457]]],[[[41.74597,16.80438],[41.72842,16.79163],[41.754,16.78753],[41.74597,16.80438]]],[[[41.54156,16.84886],[41.53909,16.83609],[41.54527,16.86329],[41.54156,16.84886]]],[[[41.57285,16.89534],[41.58284,16.83042],[41.63523,16.81328],[41.57285,16.89534]]],[[[41.48469,16.87503],[41.48881,16.89276],[41.45975,16.87957],[41.48469,16.84989],[41.5395,16.85505],[41.48469,16.87503]]],[[[41.40576,16.90615],[41.42946,16.90038],[41.41235,16.92428],[41.40576,16.90615]]],[[[41.69361,16.95765],[41.65169,16.92494],[41.67955,16.89066],[41.72736,16.9308],[41.69361,16.95765]]],[[[41.79675,16.98429],[41.80145,16.9514],[41.82176,16.96805],[41.79675,16.98429]]],[[[41.8651,17.014],[41.84688,17.01207],[41.94219,16.9524],[41.93734,16.9796],[41.8651,17.014]]],[[[41.75507,17.06301],[41.73912,17.05139],[41.77231,17.05222],[41.75507,17.06301]]],[[[42.27094,16.42735],[42.23643,16.43462],[42.2696,16.40855],[42.27094,16.42735]]],[[[43.07617,16.52836],[43.12072,16.52858],[43.14633,16.63642],[43.12861,16.67153],[43.23472,16.64283],[43.21167,16.70969],[43.22631,16.74589],[43.27547,16.74686],[43.25306,16.76972],[43.26164,16.80086],[43.23256,16.80694],[43.1993,16.8533],[43.17997,16.84906],[43.1375,16.91058],[43.19467,16.94453],[43.17806,16.96333],[43.18094,17.03211],[43.20272,17.01008],[43.23094,17.02953],[43.24864,17.01526],[43.22722,17.07536],[43.18528,17.09861],[43.16017,17.08697],[43.17083,17.17267],[43.21631,17.21036],[43.20172,17.25881],[43.3365,17.304],[43.326,17.32836],[43.22803,17.38553],[43.24706,17.4015],[43.2255,17.42617],[43.2565,17.45783],[43.24075,17.48053],[43.30034,17.53514],[43.27126,17.51032],[43.25019,17.53837],[43.22679,17.53061],[43.22356,17.50114],[43.24627,17.49493],[43.22665,17.48553],[43.16509,17.49363],[43.15439,17.51344],[43.18771,17.5616],[43.1708,17.6001],[43.066,17.60115],[43.05459,17.58024],[43.00258,17.63051],[42.99857,17.66847],[42.96507,17.67252],[42.94148,17.72595],[42.87308,17.72351],[42.85047,17.79783],[42.76788,17.76355],[42.62844,17.7845],[42.60274,17.80602],[42.4714,17.80026],[42.45185,17.81876],[42.45555,17.74],[42.4307,17.72309],[42.37996,17.78017],[42.37095,17.83124],[42.25542,17.89934],[42.22448,18.05239],[42.07535,18.04166],[42.07164,17.89853],[41.99493,17.78837],[41.94197,17.78346],[41.92812,17.76031],[42.04339,17.68368],[42.06136,17.65171],[42.08039,17.65435],[42.09872,17.63649],[42.08667,17.617],[42.11413,17.62641],[42.14016,17.56211],[42.18018,17.55934],[42.22726,17.51996],[42.27521,17.44768],[42.28355,17.46401],[42.31815,17.43643],[42.3098,17.33825],[42.32332,17.34796],[42.32406,17.29109],[42.34199,17.28569],[42.32788,17.27604],[42.37185,17.01476],[42.36916,17.10172],[42.39653,17.11598],[42.3591,17.19014],[42.42485,17.15907],[42.41515,17.10515],[42.45222,17.05581],[42.52612,17.03252],[42.55595,17.00264],[42.53353,16.97022],[42.54708,16.92706],[42.52495,16.88282],[42.57626,16.85794],[42.57674,16.83237],[42.6325,16.82269],[42.70829,16.73188],[42.68627,16.73957],[42.73678,16.66874],[42.70682,16.67227],[42.73125,16.66224],[42.71486,16.56809],[42.73726,16.5019],[42.77821,16.46861],[42.75441,16.41221],[42.83061,16.37953],[42.94975,16.39947],[42.93728,16.44136],[42.95031,16.49697],[42.99217,16.52169],[43.07617,16.52836]]]]}},{"type":"Feature","properties":{"gid":"SAU.11_1","name":"麦加省","nameEn":"Makkah","nameLocal":"مَكَّة‎","type":"Province","typeEn":"Province","groupZh":"省","area":140976.5,"iso":"NA","engtype":"Province","capital":"麦加","pop":8900000,"blurb":"西部圣城麦加与吉达港，朝觐中枢。"},"geometry":{"type":"MultiPolygon","coordinates":[[[[41.07176,18.59483],[41.04461,18.59333],[41.06759,18.56231],[41.07176,18.59483]]],[[[41.59286,19.15672],[41.64582,19.19929],[41.6053,19.22145],[41.71012,19.21418],[41.75592,19.18102],[41.7962,19.10172],[41.8684,19.14124],[41.87644,19.20334],[41.88822,19.18986],[41.91182,19.20303],[41.91395,19.36709],[41.95269,19.36957],[41.9173,19.43741],[41.85983,19.44671],[41.82075,19.5378],[41.82393,19.76563],[41.74144,19.68223],[41.67958,19.7106],[41.6474,19.78627],[41.60454,19.73099],[41.50805,19.70792],[41.50202,19.73566],[41.52825,19.74109],[41.51785,19.76627],[41.49384,19.75855],[41.38426,19.69073],[41.35464,19.59672],[41.30646,19.54961],[41.27277,19.52951],[41.10983,19.51063],[41.09676,19.53311],[41.168,19.56705],[41.20227,19.62671],[41.00512,19.73698],[41.046,19.83429],[40.99771,19.81349],[40.93707,19.90692],[40.88877,19.92525],[40.89758,19.96298],[40.84824,20.05347],[40.86459,20.10992],[40.83611,20.12224],[40.9889,20.24538],[40.978,20.27881],[41.02218,20.31226],[41.02163,20.35848],[41.1339,20.38029],[41.14325,20.32627],[41.19257,20.34175],[41.20073,20.45375],[41.24767,20.47279],[41.28669,20.52815],[41.29245,20.61363],[41.33829,20.67305],[41.3281,20.76254],[41.36564,20.81308],[41.43677,20.82493],[41.505,20.76153],[41.59738,20.74713],[41.7408,20.60326],[41.73572,20.64597],[41.84422,20.62968],[41.9373,20.68785],[41.95809,20.65612],[41.94576,20.60888],[41.97961,20.57397],[42.08264,20.59024],[42.12886,20.57837],[42.09971,20.52631],[42.11756,20.51487],[42.12232,20.40637],[42.14227,20.39155],[42.15559,20.3081],[42.2517,20.28745],[42.30157,20.31665],[42.37812,20.32459],[42.50472,20.25329],[42.56835,20.29444],[42.6283,20.37372],[42.71915,20.38414],[42.70678,20.48446],[42.74388,20.51331],[42.89366,20.5077],[42.96307,20.59097],[43.04304,20.58476],[43.19922,20.80158],[43.56592,20.75736],[43.68132,20.69265],[43.78984,20.68065],[43.81735,20.6317],[43.83016,20.72393],[43.79133,20.86521],[43.66512,21.03688],[43.56738,21.13081],[43.57806,21.19954],[43.66714,21.40411],[43.48504,21.5218],[43.46855,21.71684],[43.42441,21.76265],[43.49554,21.78963],[43.4902,21.96169],[43.46396,22.00021],[43.37788,22.02261],[43.33221,22.20269],[43.26991,22.28138],[43.37808,22.3563],[43.33596,22.38135],[43.31491,22.43211],[43.24065,22.42191],[43.22736,22.49755],[43.14744,22.59158],[43.16156,22.62331],[43.23677,22.64329],[43.24176,22.68258],[43.19437,22.70654],[42.98311,22.72052],[42.93053,22.74271],[42.8634,22.89957],[42.81641,22.91132],[42.78316,22.88384],[42.74681,22.8978],[42.71518,23.07273],[42.469,23.1162],[42.41037,23.28276],[42.39954,23.43633],[42.33541,23.443],[42.32559,23.4673],[42.27446,23.4908],[42.23731,23.61156],[41.99211,23.58921],[41.74121,23.6549],[41.73887,23.68451],[41.63086,23.6952],[41.43236,23.63717],[41.36213,23.52571],[41.3455,23.42462],[41.36932,23.39349],[41.34467,23.26289],[41.39297,23.27005],[41.36982,23.23574],[41.36916,23.18444],[41.46127,23.10865],[41.4143,23.07752],[41.31286,23.07351],[41.24407,23.01888],[41.17794,23.0442],[41.14197,23.03254],[41.08782,22.9725],[41.0958,22.94201],[41.04335,22.86473],[40.9189,22.88849],[40.83237,22.86577],[40.77535,22.6422],[40.7422,22.61106],[40.60529,22.57841],[40.57148,22.62971],[40.5182,22.64698],[40.41074,22.58001],[40.35894,22.57068],[40.33162,22.51971],[40.17472,22.53087],[40.14391,22.56685],[40.16573,22.62881],[40.12991,22.63831],[40.14113,22.69364],[40.10976,22.72559],[40.07978,22.72375],[40.06546,22.77122],[39.97568,22.76206],[39.87225,22.8147],[39.81934,22.80025],[39.81679,22.82542],[39.88517,22.92386],[39.8314,23.0136],[39.86871,23.03541],[39.85587,23.05848],[39.73762,23.09837],[39.65184,23.06656],[39.62919,23.08888],[39.6342,23.11286],[39.53725,23.11436],[39.56591,23.02675],[39.51562,23.03633],[39.49064,23.00085],[39.46532,23.04616],[39.41969,23.04482],[39.3957,23.01567],[39.30726,23.01984],[39.25412,23.05398],[39.28577,23.08979],[39.19171,23.11805],[39.17473,23.15559],[39.12176,23.1899],[39.14042,23.24237],[39.09145,23.32965],[39.03448,23.32265],[38.98579,23.38414],[38.94548,23.38135],[38.89069,23.42749],[38.89918,23.49528],[38.78092,23.48945],[38.73345,23.44048],[38.67832,23.42349],[38.66683,23.35549],[38.69714,23.33341],[38.68337,23.31897],[38.69556,23.29093],[38.68258,23.30146],[38.76265,23.177],[38.78295,23.19531],[38.80924,23.11424],[38.81042,23.06636],[38.78821,23.0375],[38.79827,23.00868],[38.83252,22.96907],[38.83138,22.99842],[38.83835,22.98079],[38.919,22.95755],[38.97254,22.86308],[38.95823,22.84197],[38.92045,22.85251],[38.88775,22.92277],[38.84941,22.9381],[38.9863,22.74129],[39.01156,22.7601],[38.99074,22.72225],[39.0785,22.58037],[39.0804,22.51984],[39.11327,22.52623],[39.07775,22.50922],[39.07545,22.40369],[39.09807,22.39139],[39.0954,22.36074],[39.1231,22.37823],[39.10789,22.40631],[39.14317,22.40664],[39.11067,22.34369],[39.08906,22.349],[39.10768,22.33704],[39.09757,22.28226],[39.04034,22.20314],[39.04205,22.14551],[39.01786,22.09479],[39.03567,22.09827],[39.0527,22.16482],[39.05366,22.06255],[39.01509,22.06157],[39.00818,21.98548],[38.9647,21.98561],[38.99134,22.03865],[38.93004,22.01212],[38.94403,21.96195],[38.96511,21.96678],[38.97044,21.95057],[38.94732,21.94286],[38.9684,21.91785],[38.94686,21.92377],[38.94941,21.90733],[39.01196,21.81937],[39.03916,21.8387],[39.01323,21.81764],[39.03753,21.80478],[39.08272,21.70962],[39.16117,21.77815],[39.08593,21.70285],[39.11154,21.53401],[39.13124,21.50912],[39.15614,21.5344],[39.15893,21.49937],[39.18481,21.494],[39.14791,21.47424],[39.16219,21.48234],[39.16853,21.44804],[39.15749,21.46352],[39.15477,21.44509],[39.17456,21.44672],[39.15454,21.42877],[39.1687,21.44497],[39.1896,21.41024],[39.1691,21.36352],[39.1322,21.34484],[39.13265,21.36629],[39.13045,21.33652],[39.11153,21.34895],[39.12133,21.33342],[39.0986,21.32358],[39.16174,21.22046],[39.1504,21.18922],[39.16896,21.20207],[39.19022,21.10165],[39.26679,21.03472],[39.28433,20.95744],[39.30771,20.92598],[39.37136,20.90196],[39.36348,20.86716],[39.42253,20.82144],[39.4565,20.82341],[39.45451,20.79883],[39.42361,20.81823],[39.45611,20.74516],[39.49002,20.72933],[39.45228,20.78699],[39.49767,20.7651],[39.50208,20.7329],[39.48645,20.72651],[39.53288,20.6413],[39.58131,20.58458],[39.60621,20.5899],[39.6196,20.55825],[39.58677,20.58263],[39.58369,20.565],[39.612,20.53245],[39.6096,20.54869],[39.62517,20.54528],[39.61295,20.52987],[39.63269,20.51152],[39.65293,20.51376],[39.66552,20.45423],[39.73052,20.39165],[39.94767,20.26005],[39.9179,20.29885],[39.97454,20.28101],[39.99079,20.25247],[40.0103,20.28223],[40.11175,20.27299],[40.16899,20.19073],[40.23609,20.19182],[40.23092,20.15864],[40.25247,20.15913],[40.28634,20.09966],[40.39073,20.06913],[40.53853,19.96723],[40.55187,19.92518],[40.53628,19.9034],[40.57343,19.88891],[40.58698,19.8288],[40.62275,19.81406],[40.64915,19.7631],[40.68441,19.75324],[40.65237,19.77156],[40.65628,19.79496],[40.73575,19.79858],[40.75593,19.77856],[40.79417,19.73261],[40.81084,19.66782],[40.80315,19.59941],[40.77732,19.60997],[40.96273,19.49683],[40.95284,19.35096],[41.01186,19.31943],[41.04505,19.2632],[41.04006,19.19568],[41.07252,19.12016],[41.15976,19.08992],[41.1667,19.04041],[41.12961,18.95563],[41.16047,18.88268],[41.24252,18.8503],[41.20575,18.71585],[41.25914,18.6367],[41.25666,18.61202],[41.29232,18.58378],[41.33437,18.58893],[41.36572,18.56467],[41.39155,18.65348],[41.62427,18.6984],[41.58922,18.77374],[41.6222,18.79107],[41.58326,18.82247],[41.57074,18.87939],[41.48441,18.95318],[41.49408,18.98288],[41.43929,19.00266],[41.50724,19.06011],[41.57938,19.05045],[41.57187,19.09675],[41.59286,19.15672]]],[[[40.00575,20.25354],[40.19637,20.16708],[40.08963,20.23064],[40.00575,20.25354]]],[[[40.61115,19.63415],[40.59377,19.63585],[40.6471,19.61584],[40.61115,19.63415]]],[[[40.75754,19.66449],[40.75619,19.67789],[40.74609,19.64864],[40.75754,19.66449]]],[[[38.86479,22.95236],[38.85116,22.96136],[38.87648,22.94259],[38.86479,22.95236]]]]}},{"type":"Feature","properties":{"gid":"SAU.12_1","name":"奈季兰省","nameEn":"Najran","nameLocal":"نجران‎","type":"Province","typeEn":"Province","groupZh":"省","area":127697.6,"iso":"SA-10","engtype":"Province","capital":"奈季兰","pop":600000,"blurb":"西南边境省，靠近也门，绿洲与要塞。"},"geometry":{"type":"Polygon","coordinates":[[[43.71842,17.37627],[43.78889,17.375],[43.83194,17.33889],[43.96667,17.33056],[44.01136,17.40247],[44.06667,17.40583],[44.11083,17.36639],[44.13806,17.40889],[44.36611,17.43333],[44.46667,17.43333],[44.56667,17.40556],[44.65,17.43333],[45.21667,17.43333],[45.4,17.33333],[46.1,17.25],[46.36667,17.23333],[46.75,17.28333],[47.0,16.95],[47.18333,16.95],[47.46667,17.11667],[47.6,17.45],[48.18333,18.16667],[49.11667,18.61667],[50.78333,18.78889],[52.0,19.0],[51.99754,19.3333],[47.5244,19.333],[45.36167,19.30389],[45.11917,19.20833],[45.08889,19.44889],[44.39236,19.41799],[44.3872,19.31822],[44.47964,19.31222],[44.44533,19.25859],[44.44916,19.22977],[44.4873,19.20879],[44.47148,19.16598],[44.43933,19.20163],[44.40452,19.11635],[44.36787,19.09169],[44.37654,18.93762],[44.31108,18.95295],[44.18832,18.89015],[44.14019,18.89915],[44.12802,18.8645],[44.0639,18.8142],[44.13469,18.76207],[44.08738,18.74891],[43.98928,18.6508],[43.97347,18.5965],[44.00177,18.56119],[43.95547,18.54987],[43.94464,18.50456],[43.91383,18.47641],[43.99694,18.45876],[44.00128,18.44293],[43.94231,18.4003],[43.93914,18.4411],[43.91466,18.44177],[43.8454,18.31908],[43.8492,18.27504],[43.81905,18.24922],[43.74239,18.24552],[43.73634,18.22817],[43.77547,18.18217],[43.72012,18.14328],[43.68434,18.06299],[43.70862,18.01803],[43.66953,17.9735],[43.66797,17.93908],[43.61335,17.90011],[43.62468,17.82882],[43.59671,17.77943],[43.61152,17.75135],[43.59586,17.65926],[43.61527,17.64896],[43.6376,17.54855],[43.72378,17.45389],[43.68397,17.4309],[43.71842,17.37627]]]}},{"type":"Feature","properties":{"gid":"SAU.13_1","name":"塔布克省","nameEn":"Tabuk","nameLocal":"تَبُوْك‎","type":"Province","typeEn":"Province","groupZh":"省","area":130917.0,"iso":"SA-07","engtype":"Province","capital":"塔布克","pop":950000,"blurb":"西北红海省，新未来城 NEOM 所在地。"},"geometry":{"type":"MultiPolygon","coordinates":[[[[37.20791,24.79566],[37.18158,24.79431],[37.19834,24.77521],[37.20791,24.79566]]],[[[37.09866,24.97262],[37.07163,24.98642],[37.0653,24.95752],[37.11033,24.94781],[37.09866,24.97262]]],[[[37.83308,25.71335],[37.77013,25.77909],[37.61253,25.79486],[37.51447,25.86879],[37.54773,25.94458],[37.56876,25.952],[37.50195,26.06522],[37.40392,26.10719],[37.37331,26.20262],[37.29318,26.24634],[37.29955,26.27582],[37.35386,26.30956],[37.3197,26.33396],[37.26624,26.32377],[37.24545,26.30001],[37.19326,26.33014],[37.19326,26.38211],[37.21236,26.39421],[37.19348,26.43939],[37.20557,26.47227],[37.08698,26.53634],[36.98,26.80167],[37.00083,27.05583],[36.95694,27.16555],[36.82417,27.24277],[36.71687,27.23945],[36.70038,27.2696],[36.63492,27.27926],[36.6634,27.31491],[36.69988,27.31541],[36.69588,27.33589],[36.81198,27.31091],[36.79732,27.3752],[36.9035,27.39932],[36.96938,27.44433],[36.94739,27.45798],[36.98753,27.47997],[37.01768,27.44966],[37.11379,27.4878],[37.15726,27.45965],[37.21223,27.47481],[37.2477,27.46165],[37.29218,27.49713],[37.27602,27.45465],[37.31283,27.3842],[37.34031,27.40635],[37.40277,27.39736],[37.45224,27.44349],[37.52853,27.43916],[37.57367,27.47814],[37.65512,27.45615],[37.70025,27.46831],[37.77921,27.41318],[37.81401,27.44749],[37.87881,27.46665],[37.94444,27.39069],[37.94444,27.29525],[37.96925,27.23796],[37.95309,27.18366],[37.97741,27.12919],[38.13864,27.18466],[38.16805,27.14536],[38.25312,27.1116],[38.34052,27.00677],[38.44004,26.97725],[38.44977,26.91545],[38.47732,26.89879],[38.46644,26.86885],[38.49809,26.82155],[38.55838,26.85303],[38.60769,26.80556],[38.62724,26.84955],[38.74358,26.77687],[38.8761,26.84803],[38.95787,26.79126],[39.09896,26.804],[39.35398,26.74772],[39.43502,26.79885],[39.46122,26.77477],[39.53034,26.76877],[39.57104,26.84291],[39.5563,26.8541],[39.56747,26.89764],[39.60863,26.92404],[39.63124,26.99757],[39.68269,27.04559],[39.66429,27.07181],[39.64598,27.29896],[39.68675,27.35804],[39.94176,27.41398],[39.91558,27.463],[39.91487,27.62242],[39.78709,27.80398],[39.50275,27.97863],[39.24719,27.97958],[39.12751,27.99933],[39.36807,28.04763],[39.40805,28.11069],[39.11442,28.2632],[39.21392,28.36794],[39.22268,28.50842],[39.20765,28.59065],[39.16748,28.6293],[39.05579,28.59747],[38.98655,28.85231],[38.85654,28.93534],[38.77687,28.93025],[38.77135,28.99954],[38.79514,29.01744],[38.77135,29.08596],[38.77268,29.25405],[38.65523,29.27994],[38.56043,29.33],[38.45897,29.20189],[38.37997,29.20684],[38.42376,29.12099],[38.37909,29.08959],[38.36474,29.00525],[38.20485,29.01686],[38.19742,29.12822],[38.22445,29.18457],[38.19095,29.21103],[38.24025,29.22968],[38.32302,29.35043],[38.2353,29.41944],[38.23892,29.46039],[38.19076,29.51312],[38.18581,29.54528],[38.13023,29.54149],[37.99659,29.59764],[37.93016,29.55786],[37.7202,29.56395],[37.73714,29.717],[37.71296,29.74536],[37.72686,29.80646],[37.60217,29.86547],[37.53773,29.92683],[37.417,29.90521],[37.36603,29.97559],[36.7849,29.8679],[36.73608,29.78899],[36.68092,29.74941],[36.62446,29.63686],[36.44934,29.43037],[36.34174,29.38011],[36.07281,29.1834],[34.95716,29.35611],[34.95152,29.30224],[34.92858,29.29053],[34.94185,29.24185],[34.91129,29.22531],[34.84711,29.02773],[34.8612,28.99473],[34.82152,28.88392],[34.84009,28.86772],[34.83436,28.81158],[34.77513,28.66213],[34.80545,28.5232],[34.67612,28.26742],[34.66721,28.20743],[34.64558,28.1884],[34.65874,28.16471],[34.63143,28.17378],[34.57357,28.08787],[34.6096,28.09563],[34.62435,28.02402],[34.66897,28.06774],[34.64815,28.09088],[34.68392,28.13379],[34.70437,28.12441],[34.71185,28.13872],[34.71485,28.10858],[34.75624,28.09988],[34.73699,28.05856],[34.77018,28.06245],[34.75635,28.09951],[34.78501,28.08878],[34.81344,28.11139],[34.79575,28.07141],[34.85059,28.1149],[34.86441,28.1093],[34.8382,28.09567],[34.84886,28.0706],[34.92747,28.0758],[34.99802,28.11042],[35.03319,28.08782],[35.01328,28.12137],[35.06264,28.10842],[35.10768,28.06852],[35.22176,28.04666],[35.22432,28.03016],[35.15911,27.99872],[35.26748,27.94998],[35.34898,27.8518],[35.36038,27.79657],[35.42941,27.77378],[35.48603,27.65062],[35.52883,27.62182],[35.53019,27.56423],[35.54844,27.56313],[35.52799,27.56031],[35.53483,27.53145],[35.59207,27.43395],[35.66146,27.36042],[35.74083,27.32285],[35.80728,27.2252],[35.81739,27.19699],[35.78756,27.15969],[35.80004,27.11345],[36.03292,26.90661],[36.0981,26.74084],[36.14458,26.72018],[36.17394,26.66949],[36.24659,26.61272],[36.37335,26.3504],[36.46381,26.227],[36.49613,26.11652],[36.57394,26.06224],[36.65057,26.05829],[36.70579,26.03076],[36.69453,25.92177],[36.64444,25.85152],[36.67217,25.84373],[36.69714,25.78387],[36.71769,25.78821],[36.74743,25.73761],[36.80059,25.70805],[36.8149,25.71774],[36.79887,25.75827],[36.82118,25.75095],[36.87511,25.66986],[36.93882,25.64633],[36.97473,25.55319],[37.00037,25.54634],[36.99971,25.49959],[37.0769,25.44214],[37.11092,25.31343],[37.23908,25.19022],[37.26699,25.10373],[37.24429,25.06378],[37.28598,24.99059],[37.24892,24.90653],[37.26583,24.86736],[37.22259,24.8141],[37.19924,24.81048],[37.19062,24.82169],[37.21627,24.83178],[37.1788,24.83969],[37.15521,24.82383],[37.17556,24.79153],[37.17731,24.80674],[37.23022,24.79309],[37.2314,24.75914],[37.20823,24.76401],[37.2213,24.70679],[37.29354,24.67675],[37.31875,24.62351],[37.33717,24.63581],[37.3669,24.56184],[37.50391,24.69268],[37.58684,24.66692],[37.66679,24.68633],[37.78095,24.64895],[37.77616,24.67865],[37.82813,24.71484],[37.78125,24.77206],[37.88613,24.81723],[38.03182,24.78568],[38.03754,24.85775],[38.0013,24.91597],[37.9768,24.89502],[37.9333,24.90152],[37.89154,24.98195],[37.91318,25.00746],[37.83323,25.0718],[37.8719,25.18579],[37.82518,25.20342],[37.77012,25.29963],[37.80663,25.42336],[37.7545,25.45522],[37.76255,25.49127],[37.71119,25.55622],[37.74429,25.61638],[37.81374,25.63216],[37.81776,25.66],[37.84697,25.67861],[37.83308,25.71335]]],[[[36.89144,25.38557],[36.89087,25.36138],[36.90805,25.35854],[36.89144,25.38557]]],[[[36.98057,25.47506],[36.96689,25.47153],[36.98602,25.46279],[36.98224,25.43444],[37.02354,25.43037],[36.98057,25.47506]]],[[[36.96947,25.50372],[36.95269,25.51507],[36.94024,25.49689],[36.98568,25.49211],[36.96947,25.50372]]],[[[36.85582,25.5659],[36.83361,25.56275],[36.84008,25.53429],[36.86526,25.54546],[36.85582,25.5659]]],[[[36.91359,25.56288],[36.90413,25.54397],[36.93357,25.52252],[36.91359,25.56288]]],[[[36.51159,25.65897],[36.48398,25.64949],[36.4966,25.62244],[36.54484,25.62223],[36.5176,25.64942],[36.50795,25.63627],[36.51159,25.65897]]],[[[36.58149,25.7458],[36.55567,25.7307],[36.58359,25.69837],[36.5631,25.72851],[36.58149,25.7458]]],[[[34.69189,27.95875],[34.65903,27.94702],[34.65253,27.92393],[34.68271,27.94371],[34.70529,27.90399],[34.7353,27.91547],[34.72473,27.94713],[34.69189,27.95875]]],[[[34.52071,28.01372],[34.49441,28.0008],[34.50257,27.94513],[34.55428,27.91157],[34.62029,27.91933],[34.58925,27.96893],[34.50321,27.98099],[34.55168,27.99341],[34.52071,28.01372]]],[[[35.04042,28.06118],[35.02626,28.07116],[35.02618,28.05161],[35.04042,28.06118]]],[[[34.73044,28.07675],[34.70451,28.07836],[34.73381,28.06076],[34.73044,28.07675]]],[[[35.19184,27.9723],[35.19451,27.94642],[35.22504,27.93821],[35.19184,27.9723]]]]}}]}