{"type":"FeatureCollection","features":[{"type":"Feature","properties":{"gid":"CHE.1_1","name":"阿尔高州","nameEn":"Aargau","nameLocal":"","type":"Canton","typeEn":"Canton","groupZh":"州","area":1374.7,"iso":"CH-AG","engtype":"Canton","capital":"阿劳","pop":707000,"blurb":"北部工业与农业州，莱茵河谷与核电站所在地。"},"geometry":{"type":"Polygon","coordinates":[[[8.41048,47.14534],[8.41454,47.15208],[8.41106,47.16142],[8.41597,47.16334],[8.41624,47.16956],[8.4012,47.18948],[8.40633,47.2006],[8.39644,47.23127],[8.41349,47.25023],[8.40401,47.25942],[8.40244,47.27757],[8.39569,47.28329],[8.39249,47.29501],[8.42084,47.29801],[8.43026,47.30537],[8.43483,47.31987],[8.44648,47.32442],[8.45391,47.33551],[8.41504,47.3308],[8.413,47.33324],[8.41865,47.34121],[8.4051,47.35086],[8.40722,47.37211],[8.39721,47.38159],[8.39642,47.39735],[8.36444,47.4061],[8.38225,47.40787],[8.38473,47.41857],[8.38186,47.42083],[8.39194,47.42629],[8.37418,47.43815],[8.38713,47.44075],[8.38133,47.4485],[8.39018,47.45495],[8.36641,47.47155],[8.37476,47.47552],[8.37323,47.48545],[8.36221,47.48515],[8.35893,47.50782],[8.36197,47.51472],[8.37897,47.51796],[8.3852,47.53291],[8.39528,47.53053],[8.40753,47.54702],[8.41652,47.55057],[8.41464,47.55842],[8.41995,47.56959],[8.39866,47.57725],[8.383,47.56559],[8.3284,47.57122],[8.29792,47.58907],[8.29748,47.60567],[8.28896,47.61024],[8.26502,47.60949],[8.25624,47.61516],[8.23854,47.61268],[8.22665,47.60507],[8.21927,47.61782],[8.20608,47.62099],[8.19682,47.61843],[8.18548,47.60548],[8.16491,47.59414],[8.1486,47.59542],[8.13829,47.59034],[8.13524,47.58356],[8.10948,47.58226],[8.10314,47.57636],[8.10021,47.56379],[8.08966,47.55776],[8.06749,47.56449],[8.02177,47.55051],[8.00148,47.55634],[7.95908,47.55827],[7.94321,47.54382],[7.91146,47.5513],[7.90731,47.5593],[7.91086,47.57096],[7.89135,47.58764],[7.8696,47.58877],[7.84167,47.58216],[7.82309,47.58801],[7.81622,47.5831],[7.81058,47.56886],[7.79555,47.55744],[7.75105,47.54451],[7.71627,47.54054],[7.73514,47.53133],[7.78371,47.52448],[7.78489,47.51039],[7.79459,47.50182],[7.80429,47.50283],[7.82695,47.5205],[7.83051,47.53992],[7.85109,47.54072],[7.86051,47.52609],[7.87107,47.52834],[7.87267,47.52023],[7.89224,47.5111],[7.90317,47.49823],[7.90281,47.49203],[7.93051,47.48863],[7.94364,47.49218],[7.93878,47.46822],[7.94856,47.46902],[7.95915,47.45996],[7.97577,47.46715],[7.9772,47.45726],[7.98486,47.45275],[7.98871,47.43292],[7.96744,47.42735],[7.98282,47.4189],[8.0028,47.41484],[8.0099,47.40985],[8.01304,47.40022],[8.02782,47.40026],[8.03087,47.39522],[8.03101,47.37621],[8.02494,47.36875],[8.01525,47.36639],[8.01479,47.3546],[8.00643,47.34894],[8.00668,47.34003],[7.97623,47.32679],[7.95184,47.32175],[7.94964,47.33504],[7.92206,47.33829],[7.90936,47.34421],[7.8908,47.31593],[7.87434,47.31552],[7.86221,47.30967],[7.84222,47.27757],[7.8286,47.27051],[7.82926,47.25039],[7.84195,47.23819],[7.85285,47.2359],[7.9086,47.2471],[7.93261,47.24001],[7.96048,47.25677],[7.94951,47.27751],[7.98504,47.27925],[7.99513,47.28428],[8.01498,47.26426],[8.01737,47.24648],[8.02895,47.24363],[8.05472,47.24729],[8.06267,47.25108],[8.05604,47.25995],[8.07178,47.25801],[8.08899,47.26639],[8.10058,47.26231],[8.10964,47.24807],[8.12572,47.24439],[8.13764,47.25002],[8.17675,47.25624],[8.182,47.24826],[8.1772,47.24347],[8.15675,47.24243],[8.1772,47.22573],[8.18697,47.22528],[8.20668,47.22882],[8.20424,47.23679],[8.20894,47.25088],[8.22037,47.25569],[8.22503,47.24968],[8.23013,47.25087],[8.22765,47.25714],[8.2342,47.26701],[8.22996,47.2771],[8.24417,47.2761],[8.2447,47.28292],[8.25757,47.2907],[8.28376,47.28542],[8.3009,47.2758],[8.29608,47.27051],[8.2981,47.26292],[8.31676,47.24524],[8.3209,47.2219],[8.33006,47.21495],[8.34113,47.18291],[8.35945,47.16317],[8.35762,47.15622],[8.36373,47.15663],[8.36511,47.1516],[8.379,47.14516],[8.41048,47.14534]]]}},{"type":"Feature","properties":{"gid":"CHE.2_1","name":"外罗得阿彭策尔州","nameEn":"Appenzell Ausserrhoden","nameLocal":"","type":"Canton","typeEn":"Canton","groupZh":"州","area":245.6,"iso":"CH-AR","engtype":"Canton","capital":"黑里绍","pop":55000,"blurb":"半州，纺织业与阿尔卑斯牧场景观。"},"geometry":{"type":"Polygon","coordinates":[[[9.30017,47.25905],[9.3104,47.26036],[9.31012,47.25501],[9.32355,47.24725],[9.34288,47.24936],[9.33095,47.27312],[9.31374,47.29176],[9.31725,47.31073],[9.31505,47.32001],[9.30993,47.32266],[9.32765,47.33186],[9.3372,47.34378],[9.34607,47.34626],[9.34492,47.35342],[9.36381,47.35882],[9.35763,47.37103],[9.35907,47.37864],[9.35028,47.38345],[9.37727,47.38683],[9.38689,47.37839],[9.40165,47.37844],[9.4109,47.36958],[9.42979,47.37271],[9.43664,47.35825],[9.46507,47.34636],[9.4875,47.35033],[9.50493,47.34737],[9.49995,47.36401],[9.50881,47.39252],[9.51549,47.39507],[9.5125,47.401],[9.53303,47.40871],[9.52642,47.41286],[9.52848,47.42401],[9.53646,47.42403],[9.54408,47.43087],[9.56655,47.41673],[9.57709,47.41617],[9.57412,47.40637],[9.54685,47.40853],[9.55894,47.39661],[9.58789,47.41236],[9.58512,47.42052],[9.57197,47.42165],[9.57513,47.42739],[9.56157,47.4318],[9.56721,47.4387],[9.5753,47.43436],[9.59724,47.43504],[9.63384,47.44211],[9.63304,47.44601],[9.57849,47.46386],[9.54797,47.46465],[9.54387,47.47031],[9.53269,47.47014],[9.52872,47.4632],[9.53138,47.45513],[9.45282,47.43379],[9.43752,47.43656],[9.43335,47.41367],[9.4048,47.40236],[9.3767,47.40828],[9.30357,47.39665],[9.26661,47.40198],[9.23431,47.39813],[9.2321,47.38947],[9.21938,47.38781],[9.22254,47.379],[9.21292,47.36631],[9.1929,47.36348],[9.19802,47.355],[9.20509,47.35585],[9.19911,47.34916],[9.20731,47.34156],[9.22458,47.34338],[9.23645,47.33386],[9.21036,47.32115],[9.21604,47.31848],[9.224,47.29272],[9.20708,47.27694],[9.23455,47.26572],[9.25861,47.26439],[9.27268,47.26954],[9.30017,47.25905]]]}},{"type":"Feature","properties":{"gid":"CHE.3_1","name":"内罗得阿彭策尔州","nameEn":"Appenzell Innerrhoden","nameLocal":"","type":"Canton","typeEn":"Canton","groupZh":"州","area":171.1,"iso":"CH-AI","engtype":"Canton","capital":"阿彭策尔","pop":16000,"blurb":"人口最少的半州，保守天主教州，直接民主地标。"},"geometry":{"type":"MultiPolygon","coordinates":[[[[9.33944,47.25504],[9.34989,47.24549],[9.38354,47.2352],[9.40242,47.23752],[9.415,47.24735],[9.44706,47.25698],[9.4861,47.28527],[9.49011,47.30267],[9.49763,47.30568],[9.49317,47.31192],[9.50458,47.33217],[9.50493,47.34737],[9.4875,47.35033],[9.46507,47.34636],[9.43664,47.35825],[9.42979,47.37271],[9.4109,47.36958],[9.40165,47.37844],[9.38689,47.37839],[9.37727,47.38683],[9.35028,47.38345],[9.35907,47.37864],[9.35763,47.37103],[9.36381,47.35882],[9.34492,47.35342],[9.34607,47.34626],[9.3372,47.34378],[9.32765,47.33186],[9.30993,47.32266],[9.31505,47.32001],[9.31725,47.31073],[9.31374,47.29176],[9.33095,47.27312],[9.33944,47.25504]]],[[[9.53454,47.42358],[9.5268,47.42059],[9.52642,47.41286],[9.53303,47.40871],[9.5125,47.401],[9.51549,47.39507],[9.54416,47.39921],[9.5533,47.39407],[9.55894,47.39661],[9.54728,47.40896],[9.57574,47.40754],[9.57709,47.41617],[9.5599,47.41975],[9.5465,47.43024],[9.53454,47.42358]]],[[[9.56067,47.43417],[9.56461,47.42891],[9.57513,47.42739],[9.57197,47.42165],[9.58512,47.42052],[9.59061,47.4121],[9.60621,47.41602],[9.59218,47.42178],[9.59273,47.42731],[9.61716,47.43838],[9.57629,47.43431],[9.56721,47.4387],[9.56067,47.43417]]]]}},{"type":"Feature","properties":{"gid":"CHE.4_1","name":"巴塞尔乡村州","nameEn":"Basel-Landschaft","nameLocal":"","type":"Canton","typeEn":"Canton","groupZh":"州","area":506.0,"iso":"CH-BL","engtype":"Canton","capital":"利斯塔尔","pop":295000,"blurb":"巴塞尔都会圈的工业郊区州。"},"geometry":{"type":"MultiPolygon","coordinates":[[[[7.80256,47.36612],[7.83259,47.37032],[7.84043,47.38006],[7.88051,47.38935],[7.87091,47.40052],[7.88737,47.4138],[7.91042,47.40334],[7.93284,47.41006],[7.93965,47.41837],[7.96032,47.42383],[7.96337,47.42736],[7.95296,47.43545],[7.94729,47.44938],[7.95915,47.45996],[7.94856,47.46902],[7.93878,47.46822],[7.94364,47.49218],[7.93051,47.48863],[7.90281,47.49203],[7.90317,47.49823],[7.89224,47.5111],[7.87267,47.52023],[7.87107,47.52834],[7.86051,47.52609],[7.85109,47.54072],[7.83051,47.53992],[7.82695,47.5205],[7.80429,47.50283],[7.79459,47.50182],[7.78489,47.51039],[7.78371,47.52448],[7.73514,47.53133],[7.71764,47.5407],[7.69635,47.53277],[7.67514,47.53368],[7.66648,47.53702],[7.66065,47.54523],[7.64813,47.54898],[7.6356,47.56353],[7.61351,47.5612],[7.61735,47.5444],[7.60864,47.54153],[7.58742,47.52221],[7.58005,47.5347],[7.58076,47.54483],[7.55254,47.54676],[7.56014,47.55833],[7.55516,47.56452],[7.50788,47.54475],[7.49903,47.53523],[7.50245,47.52885],[7.52096,47.53339],[7.52933,47.52973],[7.52345,47.51704],[7.50347,47.51553],[7.4978,47.52122],[7.50963,47.50423],[7.53415,47.50131],[7.54029,47.49015],[7.52992,47.4787],[7.53285,47.4652],[7.49508,47.46361],[7.45858,47.45342],[7.449,47.46225],[7.44981,47.46701],[7.44463,47.46191],[7.43007,47.45928],[7.42522,47.45184],[7.44146,47.4502],[7.45482,47.44156],[7.46043,47.43297],[7.45401,47.42017],[7.42423,47.41634],[7.38339,47.41924],[7.39125,47.40954],[7.41629,47.3989],[7.41868,47.38534],[7.44271,47.38584],[7.44899,47.39442],[7.44853,47.40428],[7.45875,47.40903],[7.48137,47.4051],[7.48414,47.39489],[7.49412,47.39103],[7.52178,47.3927],[7.53378,47.40793],[7.52755,47.41613],[7.58379,47.41895],[7.57148,47.42661],[7.57041,47.44076],[7.57913,47.4396],[7.58519,47.43278],[7.6162,47.43813],[7.62589,47.46656],[7.60542,47.47374],[7.60952,47.49237],[7.64099,47.48678],[7.65268,47.49039],[7.64853,47.49766],[7.66497,47.50011],[7.66987,47.48923],[7.69795,47.48475],[7.71026,47.47366],[7.68652,47.45134],[7.68771,47.43867],[7.68036,47.42005],[7.66222,47.41249],[7.63327,47.41333],[7.63732,47.39277],[7.63465,47.38752],[7.64253,47.38341],[7.64399,47.37049],[7.69621,47.37664],[7.72659,47.3731],[7.75053,47.34827],[7.78966,47.34217],[7.79376,47.34389],[7.80256,47.36612]]],[[[7.38663,47.42897],[7.38709,47.43216],[7.32965,47.43927],[7.36526,47.41939],[7.38339,47.41924],[7.38663,47.42897]]]]}},{"type":"Feature","properties":{"gid":"CHE.5_1","name":"巴塞尔城市州","nameEn":"Basel-Stadt","nameLocal":"","type":"Canton","typeEn":"Canton","groupZh":"州","area":34.5,"iso":"CH-BS","engtype":"Canton","capital":"巴塞尔","pop":201000,"blurb":"化工与医药重镇，三国交界的莱茵河畔城州。"},"geometry":{"type":"Polygon","coordinates":[[[7.58427,47.57571],[7.56099,47.57423],[7.55516,47.56452],[7.56014,47.55833],[7.55254,47.54676],[7.58076,47.54483],[7.58005,47.5347],[7.58742,47.52221],[7.60864,47.54153],[7.61735,47.5444],[7.6144,47.56173],[7.6364,47.56412],[7.64813,47.55989],[7.66424,47.56538],[7.67626,47.56355],[7.68341,47.57126],[7.68594,47.56564],[7.68952,47.57148],[7.67174,47.58736],[7.6936,47.60053],[7.67502,47.59204],[7.64578,47.59695],[7.64316,47.5913],[7.61927,47.57688],[7.60448,47.57779],[7.60493,47.58483],[7.58919,47.58973],[7.59142,47.59619],[7.58427,47.57571]]]}},{"type":"Feature","properties":{"gid":"CHE.6_1","name":"伯尔尼州","nameEn":"Bern","nameLocal":"","type":"Canton","typeEn":"Canton","groupZh":"州","area":5959.6,"iso":"CH-BE","engtype":"Canton","capital":"伯尔尼","pop":1043000,"blurb":"联邦首都所在州，伯尔尼老城为世界遗产。"},"geometry":{"type":"MultiPolygon","coordinates":[[[[7.55314,46.4113],[7.59222,46.41826],[7.60315,46.41274],[7.60603,46.4216],[7.61671,46.42886],[7.61595,46.43558],[7.63481,46.44567],[7.72088,46.41478],[7.72808,46.42129],[7.74911,46.42637],[7.78327,46.44399],[7.80553,46.4602],[7.82979,46.46671],[7.84657,46.47708],[7.88857,46.47993],[7.92801,46.49205],[7.94238,46.50847],[7.956,46.50936],[7.9738,46.5189],[7.97563,46.52523],[7.96906,46.53838],[7.97428,46.54454],[8.02074,46.56316],[8.06604,46.55281],[8.07956,46.55521],[8.11727,46.54725],[8.12993,46.53746],[8.17566,46.53171],[8.17814,46.52439],[8.18669,46.52042],[8.26101,46.53011],[8.26612,46.53519],[8.28126,46.53828],[8.28964,46.54477],[8.3069,46.54903],[8.31945,46.56173],[8.34224,46.56563],[8.36206,46.58226],[8.37043,46.63158],[8.40119,46.65606],[8.40982,46.65564],[8.4073,46.66871],[8.39875,46.67698],[8.39891,46.69451],[8.43628,46.68947],[8.452,46.69368],[8.4482,46.73355],[8.43964,46.74104],[8.4396,46.75547],[8.44578,46.76115],[8.44599,46.77148],[8.41526,46.77587],[8.39506,46.76797],[8.39124,46.77889],[8.36748,46.78924],[8.33301,46.78165],[8.28445,46.75526],[8.27109,46.75593],[8.25914,46.76521],[8.23942,46.77014],[8.23502,46.76297],[8.2263,46.76153],[8.20942,46.76905],[8.19068,46.76966],[8.14934,46.75584],[8.11605,46.77254],[8.10582,46.77271],[8.09228,46.78812],[8.03126,46.78912],[7.98823,46.77498],[7.95869,46.7898],[7.95246,46.80447],[7.93074,46.81819],[7.88058,46.83906],[7.87412,46.84779],[7.87289,46.86468],[7.86212,46.87231],[7.86038,46.88208],[7.87726,46.89057],[7.88838,46.90772],[7.87461,46.91481],[7.87383,46.91895],[7.88179,46.92898],[7.90074,46.93519],[7.91871,46.93539],[7.92585,46.94758],[7.93481,46.95091],[7.93744,46.96352],[7.9491,46.96947],[7.94975,46.9783],[7.95647,46.98297],[7.95361,46.99426],[7.95985,47.00486],[7.93554,47.00651],[7.92665,47.01226],[7.90488,47.00907],[7.89625,47.03027],[7.87053,47.05152],[7.88249,47.08676],[7.87657,47.11102],[7.86967,47.12192],[7.88839,47.13025],[7.89295,47.14194],[7.87926,47.16064],[7.88537,47.17476],[7.882,47.18191],[7.86457,47.19524],[7.86345,47.2021],[7.83928,47.22813],[7.84195,47.23819],[7.82926,47.25039],[7.8286,47.27051],[7.81606,47.26587],[7.80412,47.27264],[7.78723,47.26111],[7.77583,47.27184],[7.76584,47.27018],[7.76,47.26201],[7.73491,47.26346],[7.72499,47.27504],[7.71266,47.27902],[7.70318,47.29037],[7.68675,47.29799],[7.67724,47.29219],[7.64887,47.28639],[7.60742,47.28523],[7.5793,47.2795],[7.59631,47.26862],[7.59909,47.24801],[7.62687,47.23084],[7.64366,47.23154],[7.64238,47.22725],[7.65213,47.21114],[7.64776,47.20503],[7.66449,47.20309],[7.67677,47.19489],[7.67088,47.18856],[7.67834,47.18601],[7.67822,47.18018],[7.67201,47.17288],[7.65742,47.16805],[7.65365,47.16001],[7.65638,47.1524],[7.62625,47.15416],[7.61875,47.15868],[7.58949,47.15294],[7.58856,47.14978],[7.58117,47.16342],[7.57654,47.16705],[7.56867,47.1651],[7.56287,47.17041],[7.54545,47.16194],[7.54035,47.16719],[7.52393,47.16368],[7.53079,47.1522],[7.51712,47.13924],[7.51326,47.12954],[7.46416,47.11076],[7.46816,47.0971],[7.47609,47.08961],[7.46976,47.08097],[7.44387,47.07781],[7.43693,47.08465],[7.43657,47.10262],[7.3929,47.09547],[7.37232,47.1174],[7.37247,47.126],[7.39078,47.12849],[7.39298,47.12415],[7.40871,47.11999],[7.43991,47.12571],[7.43713,47.13216],[7.42585,47.13728],[7.42952,47.1447],[7.44419,47.14681],[7.44132,47.15417],[7.45167,47.15854],[7.47544,47.15339],[7.4935,47.16518],[7.49823,47.17519],[7.48005,47.17902],[7.47587,47.18557],[7.47861,47.1936],[7.4537,47.19242],[7.44395,47.18234],[7.43538,47.18836],[7.43331,47.17961],[7.42062,47.17447],[7.41255,47.16481],[7.38896,47.16266],[7.3843,47.16787],[7.39299,47.1717],[7.38275,47.18703],[7.36775,47.19761],[7.35611,47.19666],[7.34067,47.22093],[7.36731,47.22416],[7.42138,47.24503],[7.42454,47.24789],[7.41977,47.25691],[7.42266,47.25832],[7.44785,47.26777],[7.47039,47.27021],[7.48027,47.28264],[7.50235,47.29354],[7.54069,47.30121],[7.5504,47.31142],[7.55638,47.32626],[7.56844,47.32676],[7.57671,47.33598],[7.55406,47.35086],[7.55239,47.34565],[7.53764,47.33896],[7.53149,47.32763],[7.55149,47.32455],[7.49965,47.30702],[7.45101,47.31316],[7.42519,47.31138],[7.41316,47.31775],[7.37994,47.31921],[7.35257,47.30964],[7.33987,47.30995],[7.31733,47.29435],[7.28282,47.28913],[7.21345,47.29367],[7.20818,47.30056],[7.16666,47.29822],[7.17183,47.29565],[7.17289,47.27988],[7.1508,47.27267],[7.1476,47.26271],[7.15857,47.25198],[7.10684,47.24672],[7.09733,47.24043],[7.08392,47.25021],[7.06314,47.24578],[7.06218,47.23425],[7.05167,47.23124],[7.03162,47.20239],[7.00089,47.19559],[6.9883,47.1783],[6.98013,47.17828],[6.97405,47.18433],[6.95902,47.18363],[6.9554,47.19152],[6.94562,47.18661],[6.93578,47.1728],[6.89076,47.15344],[6.88074,47.17348],[6.87536,47.17254],[6.86958,47.16693],[6.89376,47.13213],[6.88781,47.11087],[6.87783,47.10362],[6.87334,47.08724],[6.93219,47.11405],[6.94183,47.11136],[7.03888,47.13066],[7.04471,47.12848],[7.02775,47.11644],[7.03119,47.10803],[7.04616,47.11117],[7.05935,47.10346],[7.07809,47.09961],[7.08867,47.09009],[7.09081,47.0862],[7.08185,47.07901],[7.09003,47.06279],[7.0677,47.04759],[7.04694,47.04214],[7.03474,47.0316],[7.03373,47.01405],[7.02618,47.00646],[7.03944,47.00121],[7.05112,46.9877],[7.04107,46.98111],[7.0874,46.9779],[7.11532,46.98151],[7.16456,46.98958],[7.19742,47.00206],[7.20138,47.00753],[7.2207,47.00886],[7.23621,46.98301],[7.20796,46.96679],[7.19774,46.9664],[7.19855,46.96296],[7.21071,46.96252],[7.21208,46.94658],[7.20308,46.94184],[7.21488,46.93195],[7.20802,46.92516],[7.20951,46.91133],[7.19907,46.90462],[7.21319,46.90395],[7.21996,46.89884],[7.23138,46.90665],[7.23793,46.90057],[7.25946,46.90022],[7.28134,46.89185],[7.29079,46.8957],[7.32983,46.89559],[7.35576,46.8892],[7.35495,46.87716],[7.36118,46.86388],[7.35363,46.85563],[7.34191,46.85052],[7.32864,46.85337],[7.32584,46.85629],[7.3319,46.86064],[7.31931,46.86361],[7.30643,46.85349],[7.33341,46.83348],[7.32289,46.82661],[7.32169,46.81652],[7.30519,46.79559],[7.30694,46.78548],[7.29494,46.77519],[7.30723,46.76072],[7.29932,46.73397],[7.30371,46.72382],[7.35012,46.71478],[7.34902,46.70143],[7.38138,46.69324],[7.37176,46.65751],[7.37784,46.65334],[7.36256,46.64165],[7.34998,46.65443],[7.32807,46.65418],[7.33385,46.6411],[7.31713,46.63663],[7.3242,46.59195],[7.30813,46.57967],[7.28529,46.58448],[7.26293,46.564],[7.2422,46.55428],[7.25209,46.51537],[7.24688,46.50066],[7.23892,46.4955],[7.23936,46.48986],[7.2283,46.48609],[7.23456,46.45491],[7.22716,46.44422],[7.19798,46.44262],[7.19699,46.43569],[7.21287,46.41776],[7.21131,46.40587],[7.19715,46.38049],[7.21049,46.38031],[7.21927,46.3653],[7.23246,46.36363],[7.22478,46.35748],[7.22512,46.33088],[7.2373,46.32789],[7.25627,46.33212],[7.26391,46.34039],[7.26529,46.35894],[7.29322,46.36792],[7.3036,46.36712],[7.31483,46.37593],[7.31369,46.35235],[7.32115,46.34526],[7.35765,46.3517],[7.40251,46.37547],[7.44011,46.38576],[7.46211,46.38169],[7.46519,46.3769],[7.48462,46.38378],[7.49121,46.3709],[7.50683,46.36766],[7.51244,46.37523],[7.54028,46.3764],[7.54602,46.38312],[7.56007,46.38795],[7.5348,46.39989],[7.53959,46.40911],[7.55314,46.4113]],[[7.21953,46.92828],[7.22039,46.93582],[7.23593,46.93999],[7.23534,46.93193],[7.21953,46.92828]],[[7.67867,47.16127],[7.69152,47.1692],[7.70379,47.16308],[7.69325,47.15567],[7.68016,47.15714],[7.67867,47.16127]]],[[[7.10272,46.90169],[7.09369,46.90623],[7.08277,46.89655],[7.09284,46.89419],[7.10272,46.90169]]],[[[7.11485,46.91706],[7.12174,46.90328],[7.14218,46.91005],[7.13596,46.92109],[7.11485,46.91706]]]]}},{"type":"Feature","properties":{"gid":"CHE.7_1","name":"弗里堡州","nameEn":"Fribourg","nameLocal":"","type":"Canton","typeEn":"Canton","groupZh":"州","area":1680.0,"iso":"CH-FR","engtype":"Canton","capital":"弗里堡","pop":327000,"blurb":"法语德语双语州，大学城与中世纪老城。"},"geometry":{"type":"MultiPolygon","coordinates":[[[[6.97647,46.47912],[6.98168,46.47754],[6.97775,46.47408],[6.97932,46.46139],[6.99093,46.45105],[6.98302,46.43919],[7.018,46.44886],[7.02221,46.46153],[7.05125,46.48304],[7.06563,46.48898],[7.10474,46.48777],[7.10772,46.49334],[7.13623,46.50853],[7.1491,46.52885],[7.16083,46.52804],[7.19385,46.54627],[7.21177,46.5346],[7.22501,46.54802],[7.26035,46.5622],[7.28529,46.58448],[7.3104,46.58068],[7.32448,46.59256],[7.31713,46.63663],[7.33385,46.6411],[7.32786,46.654],[7.34998,46.65443],[7.36256,46.64165],[7.37784,46.65334],[7.37176,46.65751],[7.38138,46.69324],[7.34902,46.70143],[7.35012,46.71478],[7.30371,46.72382],[7.29932,46.73397],[7.30723,46.76072],[7.29494,46.77519],[7.30694,46.78548],[7.30519,46.79559],[7.32169,46.81652],[7.32289,46.82661],[7.33341,46.83348],[7.30643,46.85349],[7.31931,46.86361],[7.3319,46.86064],[7.32584,46.85629],[7.32864,46.85337],[7.34191,46.85052],[7.35363,46.85563],[7.36118,46.86388],[7.35495,46.87716],[7.35576,46.8892],[7.32983,46.89559],[7.29079,46.8957],[7.28134,46.89185],[7.25946,46.90022],[7.23793,46.90057],[7.23138,46.90665],[7.21996,46.89884],[7.21319,46.90395],[7.19907,46.90462],[7.20951,46.91133],[7.20802,46.92516],[7.21488,46.93195],[7.20308,46.94184],[7.21208,46.94658],[7.21071,46.96252],[7.19855,46.96296],[7.19774,46.9664],[7.20796,46.96679],[7.23621,46.98301],[7.2207,47.00886],[7.20138,47.00753],[7.19742,47.00206],[7.16456,46.98958],[7.09294,46.97811],[7.06204,46.97881],[7.05876,46.93885],[7.10272,46.90169],[7.09284,46.89419],[7.07916,46.89825],[7.06301,46.88575],[7.07012,46.87629],[7.06904,46.87182],[7.03869,46.84692],[7.02992,46.85158],[7.0389,46.86106],[7.03124,46.86669],[7.03435,46.87396],[7.0177,46.87818],[7.00785,46.87322],[6.99924,46.87506],[6.99438,46.87885],[7.00838,46.88936],[6.98461,46.9076],[6.98893,46.91755],[6.96511,46.92463],[6.93016,46.95135],[6.92634,46.95315],[6.89368,46.92696],[6.92989,46.8999],[6.92633,46.89162],[6.93741,46.89058],[6.96317,46.86853],[6.97026,46.86745],[6.96099,46.88122],[6.97323,46.88645],[6.9889,46.87518],[6.98075,46.86796],[6.97598,46.85203],[6.97892,46.84645],[6.99178,46.84966],[6.98555,46.83985],[6.99194,46.8317],[6.98389,46.8243],[6.96411,46.82764],[6.95936,46.82158],[6.96488,46.80435],[6.95852,46.79547],[6.95941,46.78999],[6.95069,46.78332],[6.94186,46.78407],[6.92374,46.76192],[6.91163,46.75996],[6.91231,46.75539],[6.9218,46.7522],[6.93262,46.75433],[6.93954,46.74947],[6.9407,46.74317],[6.93554,46.73307],[6.92092,46.72108],[6.89288,46.70432],[6.89112,46.69554],[6.8657,46.68321],[6.86601,46.67721],[6.87452,46.67558],[6.86723,46.66799],[6.86832,46.66108],[6.85353,46.65539],[6.8375,46.66282],[6.82816,46.66013],[6.81899,46.64925],[6.80355,46.64927],[6.79871,46.63439],[6.80478,46.62361],[6.80485,46.60844],[6.79942,46.60063],[6.80288,46.59328],[6.79789,46.57613],[6.81493,46.58085],[6.81636,46.58564],[6.83584,46.57655],[6.84475,46.58672],[6.86435,46.57852],[6.87234,46.56714],[6.88394,46.56336],[6.89929,46.57103],[6.90201,46.56156],[6.8884,46.55873],[6.86003,46.5325],[6.85476,46.54156],[6.83275,46.53792],[6.82252,46.54195],[6.81263,46.52756],[6.82563,46.51261],[6.83302,46.51375],[6.83411,46.50588],[6.84311,46.49866],[6.86308,46.49517],[6.88113,46.51403],[6.89472,46.51976],[6.89992,46.51242],[6.91071,46.51346],[6.93597,46.5025],[6.95381,46.50286],[6.97073,46.49225],[6.97647,46.47912]],[[7.14091,46.91095],[7.12264,46.90306],[7.11485,46.91706],[7.13596,46.92109],[7.14091,46.91095]]],[[[6.81645,46.73092],[6.83048,46.73732],[6.8486,46.72974],[6.86665,46.72852],[6.88418,46.75158],[6.85262,46.77546],[6.8177,46.73927],[6.79458,46.7363],[6.79338,46.73243],[6.79909,46.72733],[6.81645,46.73092]]],[[[6.78581,46.74974],[6.77336,46.74954],[6.75374,46.73611],[6.75229,46.73033],[6.76394,46.71957],[6.77376,46.72206],[6.78559,46.7354],[6.78581,46.74974]]],[[[6.90766,46.78303],[6.91615,46.78376],[6.9317,46.80605],[6.92105,46.81073],[6.90811,46.80475],[6.91213,46.81397],[6.90581,46.82767],[6.91908,46.84601],[6.93246,46.85384],[6.91458,46.86522],[6.8985,46.86246],[6.89787,46.86542],[6.91541,46.86694],[6.92161,46.87231],[6.89987,46.88289],[6.86322,46.91068],[6.74297,46.83251],[6.77907,46.80352],[6.7897,46.80196],[6.78573,46.79367],[6.82645,46.77652],[6.84708,46.77898],[6.86041,46.78824],[6.88006,46.77605],[6.90766,46.78303]]],[[[7.23277,46.93115],[7.23698,46.93422],[7.23346,46.94163],[7.21734,46.93195],[7.21959,46.92606],[7.23277,46.93115]]]]}},{"type":"Feature","properties":{"gid":"CHE.8_1","name":"日内瓦州","nameEn":"Genève","nameLocal":"","type":"Canton","typeEn":"Canton","groupZh":"州","area":283.8,"iso":"NA","engtype":"Canton","capital":"日内瓦","pop":506000,"blurb":"国际都市，联合国欧洲总部与钟表业，莱蒙湖畔。"},"geometry":{"type":"MultiPolygon","coordinates":[[[[6.04782,46.14094],[6.04907,46.14779],[6.05704,46.15112],[6.09166,46.15078],[6.09782,46.14539],[6.13541,46.14133],[6.15277,46.15191],[6.1753,46.15826],[6.18833,46.1681],[6.18611,46.17822],[6.23384,46.20601],[6.24898,46.2061],[6.29447,46.22493],[6.30915,46.24249],[6.30853,46.25502],[6.29492,46.25781],[6.29488,46.26459],[6.2782,46.25162],[6.2645,46.24975],[6.23882,46.27532],[6.23865,46.2823],[6.2511,46.28822],[6.24838,46.30077],[6.22633,46.3116],[6.22157,46.31298],[6.2016,46.28598],[6.14454,46.3049],[6.12929,46.31942],[6.1424,46.33508],[6.14194,46.33946],[6.16127,46.35082],[6.16051,46.35582],[6.14921,46.34307],[6.14028,46.3399],[6.12438,46.31726],[6.1191,46.30771],[6.11947,46.29528],[6.10237,46.28485],[6.12011,46.26363],[6.12254,46.25334],[6.11588,46.24443],[6.10346,46.23866],[6.08814,46.24704],[6.07048,46.24174],[6.06195,46.24488],[6.04695,46.23194],[6.03451,46.23724],[6.01668,46.23182],[5.99272,46.21717],[5.97441,46.21475],[5.97139,46.20227],[5.9642,46.19803],[5.99324,46.18482],[5.99027,46.17488],[5.98217,46.17221],[5.9647,46.14466],[5.9665,46.13834],[5.95606,46.13209],[5.95729,46.12795],[5.99352,46.14385],[6.01793,46.14229],[6.03535,46.13616],[6.04782,46.14094]]],[[[6.18503,46.34422],[6.18801,46.34543],[6.17776,46.3515],[6.16858,46.34377],[6.17416,46.34287],[6.17675,46.34715],[6.18503,46.34422]]],[[[6.24091,46.34105],[6.24293,46.34534],[6.18319,46.36451],[6.17349,46.35755],[6.19569,46.34841],[6.19463,46.34468],[6.19936,46.34211],[6.2344,46.33147],[6.24091,46.34105]]]]}},{"type":"Feature","properties":{"gid":"CHE.9_1","name":"格拉鲁斯州","nameEn":"Glarus","nameLocal":"","type":"Canton","typeEn":"Canton","groupZh":"州","area":692.1,"iso":"CH-GL","engtype":"Canton","capital":"格拉鲁斯","pop":41000,"blurb":"阿尔卑斯小州，山地工业与徒步路线。"},"geometry":{"type":"Polygon","coordinates":[[[9.06353,46.87322],[9.09304,46.87176],[9.10674,46.85383],[9.11302,46.85148],[9.14088,46.86222],[9.15694,46.87447],[9.15616,46.8804],[9.18957,46.87793],[9.20443,46.88322],[9.22773,46.90574],[9.2412,46.9095],[9.25074,46.91799],[9.25233,46.93317],[9.23921,46.94291],[9.23716,46.95568],[9.24706,46.96007],[9.24407,46.96875],[9.24931,47.00051],[9.23787,47.02359],[9.22145,47.03338],[9.20291,47.03674],[9.18334,47.02838],[9.17029,47.02818],[9.13982,47.04008],[9.17521,47.05434],[9.19153,47.073],[9.19151,47.09234],[9.1869,47.09955],[9.19026,47.12454],[9.106,47.13385],[9.07083,47.1305],[9.00648,47.17887],[8.97034,47.14167],[8.96833,47.1265],[8.97587,47.11962],[8.97414,47.10907],[8.95759,47.09822],[8.97545,47.09009],[8.95486,47.06685],[8.95075,47.05368],[8.92333,47.04268],[8.90599,47.04269],[8.90611,47.03232],[8.89565,47.02493],[8.91469,47.02026],[8.92261,47.0057],[8.94564,46.99083],[8.93866,46.98565],[8.94756,46.9724],[8.97454,46.96266],[8.96641,46.95707],[8.96,46.94396],[8.96894,46.93148],[8.9312,46.92295],[8.9407,46.90746],[8.94861,46.90315],[8.95256,46.88318],[8.86876,46.84581],[8.87796,46.83182],[8.87186,46.81213],[8.89295,46.81413],[8.90771,46.8086],[8.9162,46.81057],[8.91712,46.79995],[8.92768,46.79647],[8.95676,46.80505],[9.01575,46.81316],[9.04683,46.85012],[9.04879,46.86606],[9.06353,46.87322]]]}},{"type":"Feature","properties":{"gid":"CHE.10_1","name":"格劳宾登州","nameEn":"Graubünden","nameLocal":"","type":"Canton","typeEn":"Canton","groupZh":"州","area":7043.8,"iso":"NA","engtype":"Canton","capital":"库尔","pop":202000,"blurb":"最大州，三语（德意罗曼什），圣莫里茨与冰川列车。"},"geometry":{"type":"Polygon","coordinates":[[[9.15837,46.16719],[9.16488,46.16919],[9.18106,46.16175],[9.193,46.16794],[9.20256,46.19946],[9.21733,46.20701],[9.22062,46.22079],[9.24539,46.22795],[9.24434,46.24293],[9.25115,46.26185],[9.25876,46.27372],[9.28391,46.29361],[9.2855,46.3092],[9.2971,46.31581],[9.29992,46.32465],[9.29446,46.33416],[9.30069,46.34122],[9.29853,46.35199],[9.28646,46.35728],[9.28006,46.36554],[9.28537,46.38522],[9.27769,46.3951],[9.28352,46.40095],[9.28348,46.41158],[9.27781,46.41977],[9.251,46.43396],[9.24953,46.44786],[9.2705,46.45654],[9.27792,46.46407],[9.27633,46.48943],[9.28523,46.50425],[9.31108,46.50775],[9.35369,46.50415],[9.36125,46.5086],[9.37287,46.50261],[9.36798,46.49443],[9.37425,46.48718],[9.38466,46.48301],[9.39037,46.47477],[9.40877,46.47041],[9.42304,46.48011],[9.42618,46.49425],[9.46439,46.51435],[9.46358,46.49408],[9.45055,46.48833],[9.4309,46.43512],[9.431,46.42569],[9.43712,46.42315],[9.44787,46.46351],[9.45901,46.48828],[9.4629,46.48674],[9.46469,46.47473],[9.45391,46.42835],[9.46872,46.39499],[9.46436,46.38451],[9.47104,46.37856],[9.49758,46.37094],[9.50858,46.35746],[9.51849,46.33434],[9.54928,46.31031],[9.56036,46.31369],[9.58056,46.30256],[9.60901,46.30191],[9.62073,46.29503],[9.64294,46.29513],[9.67867,46.30995],[9.68737,46.30167],[9.70847,46.2983],[9.71459,46.30109],[9.72476,46.31887],[9.72491,46.32505],[9.71868,46.33122],[9.72613,46.33794],[9.72637,46.34784],[9.73841,46.35566],[9.7776,46.34059],[9.82062,46.35601],[9.8307,46.36671],[9.86876,46.36814],[9.9024,46.38556],[9.92292,46.37157],[9.9305,46.37931],[9.95469,46.38182],[9.9518,46.37659],[9.95909,46.36881],[9.98177,46.35612],[9.99193,46.3551],[9.99174,46.34734],[9.97929,46.3289],[9.99746,46.31766],[9.99903,46.30671],[9.99029,46.30078],[9.9947,46.29064],[10.02921,46.28262],[10.05476,46.27037],[10.05939,46.25521],[10.04547,46.23458],[10.06891,46.22314],[10.09164,46.23383],[10.12283,46.22934],[10.14551,46.23658],[10.15117,46.24483],[10.17493,46.26015],[10.17506,46.26653],[10.16285,46.27803],[10.15366,46.2971],[10.11535,46.32],[10.10328,46.33862],[10.10869,46.35624],[10.12767,46.36539],[10.12843,46.38264],[10.14029,46.38953],[10.16276,46.39276],[10.16552,46.41286],[10.15934,46.41961],[10.14834,46.41822],[10.14165,46.43262],[10.1288,46.43485],[10.09841,46.42553],[10.08061,46.4259],[10.07367,46.43237],[10.05904,46.43277],[10.05518,46.44404],[10.03888,46.44614],[10.03853,46.45411],[10.04984,46.46687],[10.04134,46.48523],[10.04486,46.49081],[10.04119,46.49823],[10.04543,46.5041],[10.03963,46.51142],[10.04958,46.51982],[10.04937,46.53592],[10.0425,46.54467],[10.06,46.54974],[10.0709,46.56316],[10.07976,46.56677],[10.07839,46.57907],[10.09491,46.58174],[10.10037,46.6146],[10.12895,46.61076],[10.19039,46.62894],[10.17593,46.61365],[10.16386,46.57904],[10.15275,46.57191],[10.15391,46.56673],[10.16502,46.5748],[10.18814,46.62169],[10.19734,46.62592],[10.21678,46.62221],[10.2242,46.63276],[10.2384,46.63806],[10.25876,46.61462],[10.2427,46.59619],[10.24724,46.57961],[10.26977,46.58212],[10.29554,46.56389],[10.29633,46.5557],[10.31253,46.55144],[10.32602,46.55581],[10.33961,46.54742],[10.35452,46.5605],[10.39868,46.54921],[10.41756,46.55474],[10.45309,46.53558],[10.46195,46.54528],[10.47324,46.54712],[10.47935,46.56043],[10.47654,46.5689],[10.48723,46.58057],[10.48487,46.584],[10.49086,46.59177],[10.48759,46.60839],[10.4948,46.61727],[10.44894,46.64278],[10.40396,46.63848],[10.40335,46.64778],[10.3946,46.66291],[10.39267,46.68084],[10.38678,46.68914],[10.39668,46.69237],[10.40629,46.70459],[10.41991,46.71087],[10.42074,46.71835],[10.40531,46.73145],[10.43189,46.74944],[10.44414,46.75296],[10.44369,46.772],[10.42631,46.78617],[10.43211,46.79568],[10.45131,46.80113],[10.45841,46.81384],[10.45937,46.82927],[10.4686,46.83528],[10.46706,46.84076],[10.47422,46.85093],[10.46832,46.86264],[10.46954,46.88164],[10.46501,46.88481],[10.4754,46.89482],[10.47886,46.91113],[10.48653,46.91599],[10.48561,46.93198],[10.48967,46.93833],[10.45579,46.95342],[10.4267,46.95786],[10.42233,46.96132],[10.4269,46.97623],[10.41281,46.98319],[10.39863,46.99769],[10.38493,47.00052],[10.37236,46.99122],[10.34682,46.99014],[10.3298,46.96482],[10.32813,46.95452],[10.30966,46.95075],[10.30642,46.94085],[10.31747,46.9315],[10.31636,46.92572],[10.3011,46.9252],[10.29717,46.9205],[10.26718,46.92938],[10.24088,46.93192],[10.24231,46.91938],[10.23733,46.91625],[10.2336,46.90219],[10.22601,46.89648],[10.23513,46.88523],[10.23296,46.86683],[10.19395,46.86698],[10.18229,46.85605],[10.16935,46.8512],[10.12337,46.84903],[10.10572,46.8414],[10.09223,46.85197],[10.09293,46.85859],[10.0877,46.86174],[10.05147,46.86449],[10.0522,46.87729],[10.01809,46.90217],[10.00618,46.89935],[9.99038,46.90296],[9.9827,46.90675],[9.97813,46.91644],[9.96683,46.91278],[9.95933,46.91658],[9.93749,46.91387],[9.91257,46.92661],[9.87638,46.93519],[9.88096,46.94067],[9.87682,46.94127],[9.87513,46.95095],[9.87897,46.95763],[9.87099,46.96377],[9.88507,46.98603],[9.89256,46.99092],[9.88904,47.00129],[9.87095,47.01022],[9.88061,47.01779],[9.8765,47.0218],[9.86,47.02378],[9.85298,47.01698],[9.83637,47.0131],[9.80781,47.02413],[9.78516,47.03906],[9.74832,47.0375],[9.74209,47.04325],[9.71845,47.04395],[9.70725,47.04862],[9.70783,47.05438],[9.68843,47.0558],[9.68208,47.06267],[9.64529,47.06035],[9.6329,47.05183],[9.61743,47.0542],[9.60772,47.0617],[9.5616,47.04738],[9.55495,47.05837],[9.5413,47.06369],[9.5147,47.05553],[9.49376,47.05424],[9.48791,47.04863],[9.4778,47.05272],[9.51258,47.00818],[9.54791,46.97618],[9.52473,46.97309],[9.52022,46.96894],[9.51914,46.95692],[9.50808,46.9549],[9.49848,46.94725],[9.48082,46.92493],[9.48009,46.91769],[9.48565,46.91146],[9.47039,46.90247],[9.46872,46.88906],[9.45623,46.88679],[9.45082,46.87524],[9.42591,46.88961],[9.38486,46.89951],[9.343,46.90081],[9.2792,46.90999],[9.26754,46.90609],[9.25074,46.91799],[9.2412,46.9095],[9.22773,46.90574],[9.20384,46.88282],[9.18957,46.87793],[9.15616,46.8804],[9.15694,46.87447],[9.14088,46.86222],[9.11394,46.85157],[9.10674,46.85383],[9.09382,46.87141],[9.06608,46.87472],[9.04879,46.86606],[9.04683,46.85012],[9.02168,46.81635],[9.01125,46.81189],[8.95676,46.80505],[8.92768,46.79647],[8.91712,46.79995],[8.9162,46.81057],[8.90771,46.8086],[8.89037,46.81411],[8.85728,46.80992],[8.84365,46.79838],[8.82643,46.79575],[8.82787,46.77716],[8.83237,46.77092],[8.81779,46.7668],[8.80848,46.74103],[8.78224,46.73281],[8.76378,46.74831],[8.74677,46.73721],[8.74782,46.72536],[8.74435,46.72139],[8.71464,46.70512],[8.69321,46.70678],[8.688,46.69962],[8.67624,46.69677],[8.675,46.67772],[8.6797,46.66856],[8.65869,46.65565],[8.65906,46.64754],[8.65348,46.63952],[8.66709,46.6269],[8.67877,46.62296],[8.67919,46.60377],[8.68403,46.59484],[8.68037,46.58418],[8.70045,46.58531],[8.71918,46.57687],[8.73085,46.58129],[8.74617,46.57742],[8.75326,46.5819],[8.80424,46.56931],[8.82899,46.57615],[8.83381,46.56916],[8.84465,46.56926],[8.90635,46.59114],[8.91565,46.59975],[8.90774,46.61337],[8.90837,46.621],[8.92405,46.62806],[8.94454,46.62496],[8.95447,46.63746],[8.96279,46.62646],[8.96348,46.60955],[9.00381,46.61772],[9.03401,46.60513],[9.03496,46.59883],[9.04482,46.59078],[9.03714,46.58779],[9.03072,46.57835],[9.02111,46.55416],[9.02155,46.5414],[9.01763,46.53712],[9.02367,46.51616],[9.04847,46.49352],[9.04961,46.4874],[9.06279,46.48404],[9.07676,46.48658],[9.08678,46.48173],[9.08728,46.47561],[9.09678,46.46568],[9.08862,46.4469],[9.10414,46.41309],[9.09266,46.40663],[9.09714,46.40098],[9.08945,46.38981],[9.09554,46.3742],[9.09326,46.358],[9.08752,46.34774],[9.06962,46.34091],[9.06967,46.32923],[9.06296,46.32093],[9.06956,46.31826],[9.07316,46.30756],[9.05365,46.29242],[9.06299,46.2706],[9.07786,46.25924],[9.0785,46.23999],[9.07415,46.23387],[9.08134,46.23114],[9.08803,46.21519],[9.11765,46.20139],[9.13014,46.18638],[9.15837,46.16719]]]}},{"type":"Feature","properties":{"gid":"CHE.11_1","name":"汝拉州","nameEn":"Jura","nameLocal":"","type":"Canton","typeEn":"Canton","groupZh":"州","area":831.5,"iso":"CH-JU","engtype":"Canton","capital":"德莱蒙","pop":74000,"blurb":"1979 年从伯尔尼分出的最年轻州，法语与制表。"},"geometry":{"type":"Polygon","coordinates":[[[6.94448,47.18467],[6.9554,47.19152],[6.95902,47.18363],[6.97405,47.18433],[6.98013,47.17828],[6.9883,47.1783],[7.00089,47.19559],[7.03162,47.20239],[7.05167,47.23124],[7.06218,47.23425],[7.06314,47.24578],[7.08392,47.25021],[7.09733,47.24043],[7.10684,47.24672],[7.15801,47.25168],[7.1476,47.26271],[7.1508,47.27267],[7.17289,47.27988],[7.17183,47.29565],[7.16666,47.29822],[7.20818,47.30056],[7.21345,47.29367],[7.28282,47.28913],[7.31733,47.29435],[7.33987,47.30995],[7.35257,47.30964],[7.37994,47.31921],[7.41316,47.31775],[7.42519,47.31138],[7.45101,47.31316],[7.49965,47.30702],[7.55149,47.32455],[7.53149,47.32763],[7.53764,47.33896],[7.55239,47.34565],[7.55406,47.35086],[7.53828,47.3545],[7.54303,47.36384],[7.52487,47.37007],[7.52619,47.37578],[7.52087,47.37864],[7.47116,47.37502],[7.44344,47.38445],[7.41768,47.38555],[7.41629,47.3989],[7.39125,47.40954],[7.38339,47.41924],[7.36526,47.41939],[7.32973,47.43954],[7.30398,47.43826],[7.24714,47.42113],[7.2359,47.43688],[7.22333,47.43951],[7.20622,47.43489],[7.17473,47.44267],[7.17216,47.4455],[7.17825,47.45814],[7.17799,47.46811],[7.19331,47.48898],[7.20231,47.4917],[7.19816,47.49358],[7.15913,47.49086],[7.13035,47.50303],[7.0788,47.48906],[7.02439,47.50422],[6.9829,47.49426],[6.98858,47.48559],[6.99176,47.46642],[7.00004,47.46435],[6.99821,47.45164],[6.97028,47.44705],[6.96257,47.43532],[6.93918,47.4337],[6.94,47.40971],[6.91729,47.40546],[6.90953,47.39618],[6.91215,47.38663],[6.89496,47.38166],[6.88379,47.37134],[6.8798,47.35244],[6.90102,47.35876],[6.92049,47.35556],[6.99934,47.36487],[7.01135,47.37155],[7.03134,47.36856],[7.04819,47.36053],[7.06026,47.34188],[7.04393,47.32696],[7.00973,47.32436],[7.01548,47.31559],[7.00841,47.30273],[6.99578,47.29681],[6.94714,47.29088],[6.94092,47.28663],[6.951,47.26786],[6.94722,47.25163],[6.95512,47.24316],[6.88216,47.20096],[6.87197,47.18562],[6.84341,47.1687],[6.85159,47.16473],[6.85746,47.16864],[6.86958,47.16693],[6.87952,47.17417],[6.88673,47.1564],[6.89203,47.15356],[6.93578,47.1728],[6.94448,47.18467]]]}},{"type":"Feature","properties":{"gid":"CHE.12_1","name":"卢塞恩州","nameEn":"Lucerne","nameLocal":"","type":"Canton","typeEn":"Canton","groupZh":"州","area":1521.1,"iso":"NA","engtype":"Canton","capital":"卢塞恩","pop":416000,"blurb":"中部旅游州，卡佩尔桥与皮拉图斯山。"},"geometry":{"type":"MultiPolygon","coordinates":[[[[8.0364,46.78911],[8.05491,46.78819],[8.05949,46.80009],[8.06789,46.80519],[8.04612,46.83764],[8.0603,46.85128],[8.06181,46.85789],[8.07008,46.862],[8.07244,46.89641],[8.08417,46.89895],[8.09828,46.91173],[8.11088,46.90836],[8.1102,46.897],[8.11555,46.89484],[8.1359,46.92188],[8.16564,46.93913],[8.15382,46.95468],[8.15426,46.95909],[8.16342,46.96392],[8.19096,46.97159],[8.20866,46.96758],[8.2333,46.97031],[8.23528,46.97281],[8.22309,46.98092],[8.23332,46.99266],[8.24924,46.98667],[8.27011,46.99854],[8.29265,46.99556],[8.31827,46.99885],[8.32237,46.99232],[8.31768,46.98175],[8.33493,46.98074],[8.33712,46.97567],[8.30175,46.96711],[8.28543,46.95597],[8.30491,46.9507],[8.3181,46.95918],[8.34136,46.96532],[8.34338,46.97376],[8.33827,46.9789],[8.35544,46.98512],[8.37523,47.00455],[8.39082,47.00476],[8.39001,46.99874],[8.45586,47.00339],[8.47556,47.00137],[8.47424,46.99718],[8.48025,46.9973],[8.51892,47.00893],[8.51971,47.02396],[8.5093,47.02682],[8.44853,47.06551],[8.42042,47.06653],[8.40809,47.06191],[8.39638,47.06442],[8.39501,47.07213],[8.41381,47.08313],[8.41602,47.09626],[8.43145,47.10677],[8.45858,47.11671],[8.45564,47.13248],[8.42062,47.12279],[8.41923,47.13645],[8.41333,47.14411],[8.379,47.14516],[8.36511,47.1516],[8.36373,47.15663],[8.35762,47.15622],[8.35945,47.16317],[8.34113,47.18291],[8.33006,47.21495],[8.3209,47.2219],[8.31676,47.24524],[8.2981,47.26292],[8.29608,47.27051],[8.3009,47.2758],[8.28925,47.28309],[8.2527,47.29029],[8.24414,47.28213],[8.24417,47.2761],[8.22996,47.2771],[8.2342,47.26701],[8.22765,47.25714],[8.22907,47.24978],[8.22037,47.25569],[8.20894,47.25088],[8.20424,47.23679],[8.20668,47.22882],[8.18697,47.22528],[8.1772,47.22573],[8.15675,47.24243],[8.1772,47.24347],[8.182,47.24826],[8.17675,47.25624],[8.13764,47.25002],[8.12572,47.24439],[8.10964,47.24807],[8.10058,47.26231],[8.08899,47.26639],[8.07178,47.25801],[8.05604,47.25995],[8.06267,47.25108],[8.05472,47.24729],[8.02895,47.24363],[8.01737,47.24648],[8.01498,47.26426],[7.99513,47.28428],[7.98504,47.27925],[7.94951,47.27751],[7.96048,47.25677],[7.93261,47.24001],[7.9086,47.2471],[7.85285,47.2359],[7.84195,47.23819],[7.83997,47.23473],[7.83928,47.22813],[7.86345,47.2021],[7.86457,47.19524],[7.88388,47.17883],[7.87926,47.16064],[7.89295,47.14194],[7.88839,47.13025],[7.86967,47.12192],[7.87657,47.11102],[7.88249,47.08676],[7.87053,47.05152],[7.89625,47.03027],[7.90488,47.00907],[7.92665,47.01226],[7.93554,47.00651],[7.95985,47.00486],[7.95361,46.99426],[7.95647,46.98297],[7.94975,46.9783],[7.9491,46.96947],[7.93744,46.96352],[7.93481,46.95091],[7.92585,46.94758],[7.91829,46.93518],[7.90074,46.93519],[7.88098,46.92861],[7.87602,46.92301],[7.87402,46.91531],[7.88838,46.90772],[7.87726,46.89057],[7.86085,46.88412],[7.86212,46.87231],[7.87289,46.86468],[7.87412,46.84779],[7.88058,46.83906],[7.93074,46.81819],[7.95166,46.80516],[7.95869,46.7898],[7.97027,46.78581],[7.97585,46.77894],[7.98823,46.77498],[7.99897,46.78134],[8.0364,46.78911]]],[[[8.47897,47.11781],[8.4769,47.1155],[8.48371,47.10929],[8.49853,47.10357],[8.5001,47.11715],[8.4872,47.12838],[8.47362,47.12118],[8.47897,47.11781]]]]}},{"type":"Feature","properties":{"gid":"CHE.13_1","name":"纳沙泰尔州","nameEn":"Neuchâtel","nameLocal":"","type":"Canton","typeEn":"Canton","groupZh":"州","area":809.2,"iso":"NA","engtype":"Canton","capital":"纳沙泰尔","pop":177000,"blurb":"法语州，制表与大学城。"},"geometry":{"type":"Polygon","coordinates":[[[6.64989,46.90778],[6.65487,46.91526],[6.67382,46.92533],[6.72176,46.93549],[6.72444,46.93063],[6.71722,46.90866],[6.73741,46.8938],[6.72866,46.87022],[6.75182,46.87048],[6.77516,46.85286],[6.86322,46.91068],[6.891,46.92425],[6.93134,46.95607],[6.99928,46.98726],[7.04107,46.98111],[7.05112,46.9877],[7.03944,47.00121],[7.02618,47.00646],[7.03373,47.01405],[7.03474,47.0316],[7.04694,47.04214],[7.0677,47.04759],[7.09003,47.06279],[7.08185,47.07901],[7.09081,47.0862],[7.07732,47.09995],[7.05935,47.10346],[7.04577,47.11126],[7.03119,47.10803],[7.02775,47.11644],[7.04471,47.12848],[7.03888,47.13066],[6.94183,47.11136],[6.93219,47.11405],[6.87334,47.08724],[6.87783,47.10362],[6.88825,47.11184],[6.89362,47.13412],[6.86958,47.16693],[6.85525,47.16822],[6.85296,47.15993],[6.81747,47.1375],[6.74413,47.1096],[6.74055,47.10704],[6.74357,47.09372],[6.7109,47.08503],[6.69634,47.06651],[6.71597,47.05103],[6.69795,47.03836],[6.67793,47.03522],[6.65419,47.02237],[6.63391,46.99857],[6.61121,46.99099],[6.59613,46.99252],[6.56245,46.97931],[6.50596,46.96613],[6.49669,46.97419],[6.43301,46.92782],[6.46454,46.88991],[6.45976,46.85159],[6.45186,46.84206],[6.50334,46.85195],[6.53614,46.86847],[6.57631,46.88131],[6.63201,46.8905],[6.64989,46.90778]]]}},{"type":"Feature","properties":{"gid":"CHE.14_1","name":"下瓦尔登州","nameEn":"Nidwalden","nameLocal":"","type":"Canton","typeEn":"Canton","groupZh":"州","area":263.9,"iso":"CH-NW","engtype":"Canton","capital":"施坦斯","pop":44000,"blurb":"半州，琉森湖畔山地，维勒鲁斯缆车。"},"geometry":{"type":"MultiPolygon","coordinates":[[[[8.39124,46.77889],[8.39523,46.77334],[8.42646,46.78168],[8.41922,46.7921],[8.39525,46.79915],[8.38578,46.8068],[8.38815,46.81482],[8.37536,46.8196],[8.37791,46.82807],[8.37158,46.83876],[8.37033,46.8612],[8.36254,46.8634],[8.3651,46.8683],[8.3736,46.87611],[8.38048,46.87469],[8.38314,46.86756],[8.37581,46.86064],[8.37635,46.85369],[8.41076,46.87098],[8.42211,46.85416],[8.47093,46.85754],[8.46727,46.87796],[8.47725,46.88624],[8.46955,46.89747],[8.45799,46.90166],[8.4786,46.91042],[8.48577,46.92015],[8.50448,46.91716],[8.54156,46.92851],[8.54414,46.94059],[8.55391,46.94276],[8.5527,46.9631],[8.5603,46.97484],[8.5711,46.98159],[8.57183,46.99591],[8.54388,46.99005],[8.52582,46.99555],[8.50183,46.99231],[8.45723,47.00331],[8.39001,46.99874],[8.39082,47.00476],[8.37523,47.00455],[8.35544,46.98512],[8.33827,46.9789],[8.34338,46.97376],[8.34136,46.96532],[8.31061,46.9555],[8.2937,46.94164],[8.28783,46.93404],[8.30907,46.92599],[8.33998,46.93056],[8.34271,46.91095],[8.33708,46.90597],[8.33802,46.89166],[8.3287,46.8772],[8.33383,46.86584],[8.32911,46.84612],[8.33625,46.83179],[8.32544,46.82448],[8.3254,46.81879],[8.35041,46.79943],[8.39124,46.77889]]],[[[8.27346,46.99874],[8.26369,46.99685],[8.24997,46.98677],[8.23228,46.99239],[8.22323,46.97999],[8.23528,46.97281],[8.25644,46.9803],[8.30275,46.97769],[8.30978,46.96901],[8.33688,46.97485],[8.33493,46.98074],[8.31768,46.98175],[8.32237,46.99232],[8.31827,46.99885],[8.29265,46.99556],[8.27346,46.99874]]]]}},{"type":"Feature","properties":{"gid":"CHE.15_1","name":"上瓦尔登州","nameEn":"Obwalden","nameLocal":"","type":"Canton","typeEn":"Canton","groupZh":"州","area":482.1,"iso":"CH-OW","engtype":"Canton","capital":"萨尔嫩","pop":38000,"blurb":"半州，布伦迪山与登山铁路。"},"geometry":{"type":"MultiPolygon","coordinates":[[[[8.4461,46.77117],[8.4474,46.76604],[8.4896,46.77507],[8.48875,46.78279],[8.47851,46.79268],[8.48041,46.80011],[8.46743,46.8015],[8.48094,46.80637],[8.47823,46.81674],[8.48345,46.83131],[8.50499,46.84844],[8.47886,46.85873],[8.42173,46.85425],[8.41076,46.87098],[8.37635,46.85369],[8.37581,46.86064],[8.38299,46.86857],[8.37941,46.87565],[8.37145,46.87484],[8.3624,46.86404],[8.37033,46.8612],[8.37158,46.83876],[8.37791,46.82807],[8.37536,46.8196],[8.38815,46.81482],[8.38578,46.8068],[8.39525,46.79915],[8.41922,46.7921],[8.42646,46.78168],[8.39755,46.77484],[8.39506,46.76797],[8.41526,46.77587],[8.4461,46.77117]]],[[[8.29092,46.93347],[8.28783,46.93404],[8.30491,46.9507],[8.28543,46.95597],[8.30978,46.96901],[8.30361,46.97748],[8.25494,46.98013],[8.23239,46.97004],[8.20655,46.96764],[8.19096,46.97159],[8.1547,46.95946],[8.1541,46.95368],[8.16564,46.93913],[8.1359,46.92188],[8.11555,46.89484],[8.1102,46.897],[8.11088,46.90836],[8.09828,46.91173],[8.08417,46.89895],[8.07244,46.89641],[8.07008,46.862],[8.06181,46.85789],[8.0603,46.85128],[8.04612,46.83764],[8.06797,46.80619],[8.05949,46.80009],[8.05491,46.78819],[8.09228,46.78812],[8.10582,46.77271],[8.11605,46.77254],[8.14934,46.75584],[8.19068,46.76966],[8.20942,46.76905],[8.2263,46.76153],[8.23502,46.76297],[8.23942,46.77014],[8.27764,46.75508],[8.30603,46.7645],[8.33301,46.78165],[8.36748,46.78924],[8.32447,46.82086],[8.33625,46.83179],[8.32911,46.84612],[8.33383,46.86584],[8.3287,46.8772],[8.33802,46.89166],[8.33708,46.90597],[8.34271,46.91095],[8.33998,46.93056],[8.31067,46.9258],[8.29092,46.93347]]]]}},{"type":"Feature","properties":{"gid":"CHE.16_1","name":"圣加仑州","nameEn":"Sankt Gallen","nameLocal":"","type":"Canton","typeEn":"Canton","groupZh":"州","area":1983.1,"iso":"CH-SG","engtype":"Canton","capital":"圣加仑","pop":512000,"blurb":"东北纺织与修道院图书馆世界遗产。"},"geometry":{"type":"Polygon","coordinates":[[[9.25296,46.93074],[9.25074,46.91799],[9.26478,46.9067],[9.2792,46.90999],[9.343,46.90081],[9.38382,46.89972],[9.42591,46.88961],[9.44711,46.87439],[9.45483,46.87783],[9.45623,46.88679],[9.46872,46.88906],[9.46901,46.90068],[9.48594,46.912],[9.47992,46.92165],[9.48702,46.93504],[9.50808,46.9549],[9.51914,46.95692],[9.52233,46.97134],[9.54791,46.97618],[9.51258,47.00818],[9.47348,47.05763],[9.47376,47.06641],[9.51437,47.08231],[9.52333,47.09419],[9.51376,47.13478],[9.48908,47.17021],[9.48834,47.19187],[9.50352,47.22321],[9.52944,47.25819],[9.53125,47.27173],[9.54638,47.28063],[9.55679,47.29907],[9.58823,47.31785],[9.60405,47.35073],[9.6247,47.36675],[9.65699,47.36943],[9.67339,47.38168],[9.67336,47.39255],[9.65186,47.40524],[9.64465,47.43462],[9.65883,47.45323],[9.62256,47.45811],[9.60927,47.47117],[9.60365,47.46291],[9.59642,47.46329],[9.58219,47.48361],[9.56057,47.49931],[9.54597,47.48682],[9.53119,47.48224],[9.49552,47.4821],[9.48106,47.48684],[9.4784,47.49179],[9.46949,47.48847],[9.4521,47.4945],[9.45455,47.49968],[9.44866,47.50656],[9.43643,47.50858],[9.4235,47.49834],[9.40895,47.49445],[9.40173,47.47926],[9.3946,47.47602],[9.38148,47.48775],[9.36858,47.48703],[9.37537,47.50186],[9.3372,47.50412],[9.35819,47.52001],[9.34481,47.52275],[9.3427,47.53096],[9.32277,47.53299],[9.3159,47.52972],[9.31515,47.52477],[9.30612,47.52798],[9.28945,47.52353],[9.28182,47.5133],[9.27356,47.51232],[9.28447,47.50754],[9.3069,47.51569],[9.31583,47.51116],[9.30781,47.5042],[9.31981,47.50119],[9.32179,47.49262],[9.3013,47.47879],[9.28446,47.48397],[9.26466,47.47598],[9.25152,47.4763],[9.22884,47.48595],[9.21117,47.48126],[9.20732,47.49007],[9.17397,47.49788],[9.16547,47.50522],[9.156,47.49025],[9.12006,47.48266],[9.10116,47.48772],[9.0901,47.48608],[9.08278,47.49833],[9.05663,47.49077],[9.04138,47.49857],[9.02941,47.49152],[9.01147,47.4923],[9.00629,47.48433],[9.0093,47.47413],[9.02877,47.46534],[9.02873,47.45969],[9.05195,47.45492],[9.05931,47.44838],[9.03115,47.44056],[9.02183,47.44489],[9.01365,47.43745],[8.99069,47.43262],[8.98954,47.41584],[8.97742,47.41325],[8.9711,47.39481],[8.94424,47.3807],[8.9521,47.37698],[8.96258,47.35946],[8.9746,47.35457],[8.98038,47.34089],[8.97933,47.33273],[8.98602,47.32426],[8.97579,47.3108],[8.95994,47.3098],[8.949,47.29656],[8.93754,47.29356],[8.9502,47.2829],[8.93717,47.26353],[8.87769,47.25666],[8.87364,47.24979],[8.86491,47.24844],[8.85276,47.25428],[8.80798,47.25314],[8.80064,47.24603],[8.80999,47.22564],[8.80135,47.21127],[8.82133,47.19979],[8.84968,47.1963],[8.85705,47.20173],[8.85731,47.20763],[8.86657,47.2048],[8.87322,47.21082],[8.91288,47.21063],[8.94527,47.22239],[8.97108,47.22264],[8.97532,47.21769],[8.96841,47.20487],[8.96145,47.20226],[8.96457,47.18721],[8.98619,47.18712],[9.00648,47.17887],[9.06874,47.13124],[9.106,47.13385],[9.19026,47.12454],[9.1869,47.09955],[9.19151,47.09234],[9.19153,47.073],[9.17521,47.05434],[9.13982,47.04008],[9.17029,47.02818],[9.20856,47.03671],[9.23787,47.02359],[9.24936,46.99981],[9.24491,46.98368],[9.24706,46.96007],[9.23716,46.95568],[9.23795,46.94617],[9.25296,46.93074]],[[9.40403,47.23919],[9.38076,47.23537],[9.34288,47.24936],[9.32355,47.24725],[9.31012,47.25501],[9.3104,47.26036],[9.29707,47.25899],[9.27362,47.26939],[9.25861,47.26439],[9.23455,47.26572],[9.20708,47.27694],[9.224,47.29272],[9.21604,47.31848],[9.21036,47.32115],[9.23645,47.33386],[9.22458,47.34338],[9.20731,47.34156],[9.19911,47.34916],[9.20509,47.35585],[9.19802,47.355],[9.1929,47.36348],[9.21292,47.36631],[9.22254,47.379],[9.21938,47.38781],[9.2321,47.38947],[9.23431,47.39813],[9.26661,47.40198],[9.30357,47.39665],[9.3741,47.40822],[9.39682,47.40202],[9.42626,47.40799],[9.43381,47.41419],[9.43752,47.43656],[9.45282,47.43379],[9.53138,47.45513],[9.52872,47.4632],[9.53269,47.47014],[9.54387,47.47031],[9.54797,47.46465],[9.57849,47.46386],[9.63263,47.44647],[9.63384,47.44211],[9.59223,47.42681],[9.59218,47.42178],[9.60621,47.41602],[9.6025,47.41408],[9.58481,47.41211],[9.58546,47.40894],[9.55415,47.39425],[9.5432,47.39924],[9.50881,47.39252],[9.49978,47.36325],[9.50448,47.35209],[9.50458,47.33217],[9.49323,47.31224],[9.49763,47.30568],[9.49011,47.30267],[9.4861,47.28527],[9.44706,47.25698],[9.415,47.24735],[9.40403,47.23919]]]}},{"type":"Feature","properties":{"gid":"CHE.17_1","name":"沙夫豪森州","nameEn":"Schaffhausen","nameLocal":"","type":"Canton","typeEn":"Canton","groupZh":"州","area":281.7,"iso":"CH-SH","engtype":"Canton","capital":"沙夫豪森","pop":85000,"blurb":"最北州，莱茵瀑布与钟表制造。"},"geometry":{"type":"MultiPolygon","coordinates":[[[[8.52818,47.6456],[8.534,47.64959],[8.52701,47.6604],[8.53335,47.66319],[8.54136,47.65711],[8.53995,47.66509],[8.56046,47.67038],[8.57776,47.66157],[8.59385,47.66725],[8.59804,47.67281],[8.60662,47.67212],[8.60894,47.66343],[8.62896,47.65136],[8.6285,47.65755],[8.60995,47.6694],[8.60715,47.67599],[8.61434,47.6824],[8.62736,47.68095],[8.62499,47.69737],[8.6467,47.69852],[8.65926,47.69143],[8.67304,47.6947],[8.67649,47.69794],[8.67381,47.70479],[8.66588,47.70793],[8.66463,47.71343],[8.68636,47.70858],[8.70128,47.71523],[8.71143,47.69668],[8.72643,47.69684],[8.73629,47.71615],[8.71792,47.72162],[8.71126,47.73007],[8.71434,47.7387],[8.72341,47.74553],[8.73956,47.74653],[8.74105,47.75185],[8.72715,47.76228],[8.71416,47.76536],[8.69509,47.75571],[8.68861,47.75834],[8.68348,47.77063],[8.68825,47.77365],[8.68278,47.77716],[8.68089,47.78667],[8.6575,47.79179],[8.66026,47.79626],[8.65697,47.80035],[8.6494,47.79849],[8.64552,47.79019],[8.64993,47.78129],[8.6481,47.77409],[8.65297,47.77343],[8.64454,47.7643],[8.62768,47.75926],[8.61941,47.76767],[8.62333,47.7773],[8.61488,47.78377],[8.62204,47.79466],[8.61858,47.79834],[8.60082,47.80293],[8.59274,47.79874],[8.58764,47.80268],[8.57519,47.79972],[8.56785,47.80848],[8.56351,47.80532],[8.56192,47.79275],[8.575,47.78962],[8.5773,47.78171],[8.56253,47.77785],[8.55265,47.78463],[8.52648,47.77813],[8.52013,47.77049],[8.51022,47.77616],[8.49597,47.7707],[8.48903,47.77327],[8.45618,47.74859],[8.44978,47.73804],[8.45284,47.73043],[8.45694,47.72997],[8.45499,47.72226],[8.44524,47.72296],[8.44155,47.71767],[8.41683,47.71001],[8.40443,47.69806],[8.42064,47.68386],[8.40556,47.67451],[8.41235,47.66628],[8.42368,47.66682],[8.44506,47.65378],[8.45737,47.6527],[8.46543,47.65713],[8.46376,47.64856],[8.47016,47.63911],[8.47783,47.6397],[8.47112,47.64234],[8.47767,47.64467],[8.47291,47.64795],[8.47611,47.65009],[8.49238,47.64209],[8.49336,47.64698],[8.52818,47.6456]]],[[[8.85602,47.6803],[8.85058,47.68116],[8.85758,47.6923],[8.85154,47.69752],[8.86326,47.69849],[8.86623,47.69652],[8.86321,47.69252],[8.87442,47.69437],[8.86968,47.702],[8.87272,47.70417],[8.84833,47.70345],[8.84325,47.71214],[8.81882,47.71286],[8.82616,47.71791],[8.80484,47.7245],[8.81194,47.73035],[8.80644,47.73826],[8.79655,47.73457],[8.79911,47.72713],[8.78502,47.72716],[8.76991,47.71845],[8.7728,47.7132],[8.76935,47.70687],[8.79207,47.70491],[8.79765,47.70287],[8.79772,47.69715],[8.81007,47.69332],[8.80008,47.69173],[8.79341,47.67931],[8.81965,47.68152],[8.8409,47.6755],[8.84361,47.66873],[8.85543,47.66386],[8.85196,47.6543],[8.87608,47.65455],[8.87347,47.67022],[8.85602,47.6803]]]]}},{"type":"Feature","properties":{"gid":"CHE.18_1","name":"施维茨州","nameEn":"Schwyz","nameLocal":"","type":"Canton","typeEn":"Canton","groupZh":"州","area":887.3,"iso":"CH-SZ","engtype":"Canton","capital":"施维茨","pop":166000,"blurb":"建国三州之一，瑞士国名即源于此。"},"geometry":{"type":"Polygon","coordinates":[[[8.72952,46.93113],[8.76604,46.94322],[8.78512,46.93378],[8.81046,46.94221],[8.82544,46.93602],[8.82356,46.92408],[8.83166,46.91304],[8.84674,46.91634],[8.84544,46.89563],[8.84949,46.8916],[8.85717,46.89412],[8.85838,46.89869],[8.87276,46.89869],[8.88101,46.90556],[8.92868,46.92225],[8.96894,46.93148],[8.96,46.94396],[8.96641,46.95707],[8.97454,46.96266],[8.94756,46.9724],[8.93866,46.98565],[8.94564,46.99083],[8.92261,47.0057],[8.91469,47.02026],[8.89565,47.02493],[8.90611,47.03232],[8.90599,47.04269],[8.92333,47.04268],[8.95075,47.05368],[8.95486,47.06685],[8.97526,47.08951],[8.95759,47.09822],[8.97414,47.10907],[8.97587,47.11962],[8.96833,47.1265],[8.97034,47.14167],[9.00648,47.17887],[8.98619,47.18712],[8.96365,47.18819],[8.96145,47.20226],[8.96841,47.20487],[8.97438,47.22009],[8.94688,47.22256],[8.91288,47.21063],[8.87322,47.21082],[8.86657,47.2048],[8.85657,47.20738],[8.85448,47.19833],[8.8473,47.19596],[8.82133,47.19979],[8.80328,47.20935],[8.8013,47.21584],[8.80927,47.22043],[8.80501,47.22599],[8.74059,47.2159],[8.72798,47.20558],[8.70764,47.20603],[8.68369,47.18763],[8.68563,47.17849],[8.69638,47.17246],[8.70292,47.15448],[8.68904,47.14819],[8.68479,47.13037],[8.67374,47.12066],[8.66407,47.11882],[8.64439,47.09819],[8.6146,47.09954],[8.56621,47.08512],[8.56551,47.09861],[8.5225,47.09476],[8.48371,47.10929],[8.48012,47.11474],[8.46225,47.11775],[8.42558,47.10297],[8.41546,47.09558],[8.41381,47.08313],[8.39501,47.07213],[8.39638,47.06442],[8.40565,47.0619],[8.42042,47.06653],[8.44795,47.06575],[8.52029,47.02347],[8.51799,47.00768],[8.48427,46.99776],[8.48589,46.99551],[8.50494,46.99213],[8.52669,46.99548],[8.54571,46.98998],[8.57183,46.99591],[8.57144,46.98944],[8.60226,46.99249],[8.61064,46.98752],[8.61346,46.95504],[8.66486,46.94632],[8.69035,46.94873],[8.6976,46.93877],[8.69692,46.9273],[8.70692,46.92082],[8.71548,46.92154],[8.72952,46.93113]]]}},{"type":"Feature","properties":{"gid":"CHE.19_1","name":"索洛图恩州","nameEn":"Solothurn","nameLocal":"","type":"Canton","typeEn":"Canton","groupZh":"州","area":783.7,"iso":"CH-SO","engtype":"Canton","capital":"索洛图恩","pop":283000,"blurb":"巴洛克之城，钟表与军事博物馆。"},"geometry":{"type":"MultiPolygon","coordinates":[[[[7.4587,47.07928],[7.46976,47.08097],[7.47606,47.08824],[7.46816,47.0971],[7.46416,47.11076],[7.51326,47.12954],[7.51712,47.13924],[7.53079,47.1522],[7.52393,47.16368],[7.54035,47.16719],[7.54545,47.16194],[7.56287,47.17041],[7.56867,47.1651],[7.57654,47.16705],[7.58117,47.16342],[7.58856,47.14978],[7.58949,47.15294],[7.61875,47.15868],[7.64893,47.15171],[7.65638,47.1524],[7.65365,47.16001],[7.65922,47.16978],[7.67584,47.17603],[7.67897,47.18509],[7.67088,47.18856],[7.67677,47.19489],[7.66449,47.20309],[7.64776,47.20503],[7.65213,47.21114],[7.64238,47.22725],[7.64366,47.23154],[7.62687,47.23084],[7.59909,47.24801],[7.59631,47.26862],[7.5793,47.2795],[7.60742,47.28523],[7.64887,47.28639],[7.67724,47.29219],[7.68675,47.29799],[7.70318,47.29037],[7.71266,47.27902],[7.72499,47.27504],[7.73457,47.26354],[7.76,47.26201],[7.76584,47.27018],[7.77583,47.27184],[7.78723,47.26111],[7.80496,47.27273],[7.81935,47.266],[7.84222,47.27757],[7.86265,47.31001],[7.87434,47.31552],[7.8908,47.31593],[7.90864,47.34397],[7.94964,47.33504],[7.95184,47.32175],[7.97623,47.32679],[8.0072,47.34034],[8.00643,47.34894],[8.01479,47.3546],[8.01499,47.366],[8.02494,47.36875],[8.03101,47.37621],[8.03031,47.39626],[8.02782,47.40026],[8.01304,47.40022],[8.0099,47.40985],[8.0028,47.41484],[7.98282,47.4189],[7.96744,47.42735],[7.98871,47.43292],[7.98486,47.45275],[7.9772,47.45726],[7.97577,47.46715],[7.97025,47.46694],[7.94729,47.44938],[7.95296,47.43545],[7.96337,47.42736],[7.96032,47.42383],[7.93965,47.41837],[7.93284,47.41006],[7.91042,47.40334],[7.88737,47.4138],[7.87091,47.40052],[7.88051,47.38935],[7.84043,47.38006],[7.83259,47.37032],[7.80538,47.36785],[7.78966,47.34217],[7.75053,47.34827],[7.72659,47.3731],[7.69621,47.37664],[7.64399,47.37049],[7.64253,47.38341],[7.63465,47.38752],[7.63732,47.39277],[7.63327,47.41333],[7.66222,47.41249],[7.68036,47.42005],[7.68771,47.43867],[7.68652,47.45134],[7.71026,47.47366],[7.69795,47.48475],[7.66987,47.48923],[7.66497,47.50011],[7.64853,47.49766],[7.65268,47.49039],[7.64099,47.48678],[7.60952,47.49237],[7.60542,47.47374],[7.62589,47.46656],[7.61661,47.43892],[7.58519,47.43278],[7.57913,47.4396],[7.57041,47.44076],[7.57148,47.42661],[7.58379,47.41895],[7.52755,47.41613],[7.53334,47.40614],[7.52178,47.3927],[7.50572,47.38971],[7.48414,47.39489],[7.48091,47.40525],[7.45875,47.40903],[7.44913,47.40484],[7.44899,47.39442],[7.44089,47.38483],[7.47116,47.37502],[7.52087,47.37864],[7.52619,47.37578],[7.52487,47.37007],[7.54303,47.36384],[7.53828,47.3545],[7.5643,47.347],[7.57671,47.33598],[7.56844,47.32676],[7.55638,47.32626],[7.5504,47.31142],[7.53892,47.30017],[7.50235,47.29354],[7.48027,47.28264],[7.47039,47.27021],[7.44785,47.26777],[7.42266,47.25832],[7.41977,47.25691],[7.42454,47.24789],[7.42138,47.24503],[7.36731,47.22416],[7.34067,47.22093],[7.35611,47.19666],[7.36775,47.19761],[7.38275,47.18703],[7.39299,47.1717],[7.3843,47.16787],[7.38896,47.16266],[7.41255,47.16481],[7.42062,47.17447],[7.43331,47.17961],[7.43538,47.18836],[7.44395,47.18234],[7.4537,47.19242],[7.47861,47.1936],[7.47587,47.18557],[7.48005,47.17902],[7.49823,47.17519],[7.4935,47.16518],[7.47544,47.15339],[7.45167,47.15854],[7.44132,47.15417],[7.44419,47.14681],[7.42952,47.1447],[7.42585,47.13728],[7.43713,47.13216],[7.43991,47.12571],[7.40871,47.11999],[7.39298,47.12415],[7.39078,47.12849],[7.37247,47.126],[7.37232,47.1174],[7.3929,47.09547],[7.43657,47.10262],[7.4377,47.08316],[7.44558,47.07711],[7.4587,47.07928]]],[[[7.70379,47.16308],[7.69112,47.16917],[7.67773,47.15944],[7.69325,47.15567],[7.70379,47.16308]]],[[[7.42596,47.45121],[7.40034,47.43539],[7.38709,47.43216],[7.38339,47.41924],[7.42423,47.41634],[7.45401,47.42017],[7.46043,47.43297],[7.45482,47.44156],[7.44146,47.4502],[7.42596,47.45121]]],[[[7.49266,47.48611],[7.47552,47.48037],[7.43476,47.49797],[7.42122,47.48017],[7.43116,47.48146],[7.45348,47.47358],[7.44868,47.46302],[7.45858,47.45342],[7.49508,47.46361],[7.53285,47.4652],[7.52992,47.4787],[7.54029,47.49015],[7.53415,47.50131],[7.50963,47.50423],[7.50792,47.49623],[7.49266,47.48611]]]]}},{"type":"Feature","properties":{"gid":"CHE.20_1","name":"图尔高州","nameEn":"Thurgau","nameLocal":"","type":"Canton","typeEn":"Canton","groupZh":"州","area":1016.0,"iso":"CH-TG","engtype":"Canton","capital":"弗劳恩费尔德","pop":288000,"blurb":"博登湖畔，苹果酒与蓟花田。"},"geometry":{"type":"Polygon","coordinates":[[[8.99069,47.43262],[9.01365,47.43745],[9.02183,47.44489],[9.03115,47.44056],[9.05931,47.44838],[9.05195,47.45492],[9.02873,47.45969],[9.02877,47.46534],[9.0093,47.47413],[9.00629,47.48433],[9.01147,47.4923],[9.02941,47.49152],[9.04138,47.49857],[9.05663,47.49077],[9.08278,47.49833],[9.0901,47.48608],[9.10116,47.48772],[9.12006,47.48266],[9.156,47.49025],[9.16547,47.50522],[9.17397,47.49788],[9.20732,47.49007],[9.21117,47.48126],[9.22884,47.48595],[9.25152,47.4763],[9.26466,47.47598],[9.28446,47.48397],[9.3013,47.47879],[9.32179,47.49262],[9.31981,47.50119],[9.30781,47.5042],[9.31583,47.51116],[9.3069,47.51569],[9.28447,47.50754],[9.27356,47.51232],[9.28182,47.5133],[9.28945,47.52353],[9.30612,47.52798],[9.31515,47.52477],[9.3159,47.52972],[9.32277,47.53299],[9.3427,47.53096],[9.34481,47.52275],[9.35819,47.52001],[9.3372,47.50412],[9.37537,47.50186],[9.36858,47.48703],[9.38148,47.48775],[9.3946,47.47602],[9.40173,47.47926],[9.40895,47.49445],[9.4235,47.49834],[9.43643,47.50858],[9.44811,47.50697],[9.45455,47.49968],[9.4521,47.4945],[9.46949,47.48847],[9.4784,47.49179],[9.48106,47.48684],[9.49467,47.48222],[9.53119,47.48224],[9.54597,47.48682],[9.56157,47.49904],[9.56252,47.53988],[9.52445,47.54512],[9.43926,47.58985],[9.2759,47.65614],[9.18576,47.65774],[9.17579,47.65394],[9.15771,47.66601],[9.13933,47.664],[9.09778,47.67869],[9.03222,47.68654],[9.01428,47.68578],[8.94353,47.6565],[8.89845,47.64842],[8.86599,47.65709],[8.85313,47.65377],[8.85479,47.66444],[8.84361,47.66873],[8.8409,47.6755],[8.82205,47.68105],[8.80446,47.68153],[8.79022,47.67511],[8.75731,47.68942],[8.72798,47.69268],[8.72643,47.69684],[8.71746,47.69459],[8.71491,47.68962],[8.69023,47.69538],[8.66793,47.68267],[8.69222,47.65364],[8.70802,47.64629],[8.74246,47.64628],[8.74782,47.64172],[8.76946,47.65351],[8.78183,47.65524],[8.79039,47.66885],[8.80583,47.6699],[8.80788,47.65578],[8.82835,47.64956],[8.82886,47.64063],[8.8139,47.62605],[8.82238,47.61763],[8.80881,47.61745],[8.80643,47.60507],[8.80298,47.60537],[8.79222,47.60721],[8.78905,47.61379],[8.75148,47.62546],[8.74182,47.61344],[8.74947,47.59656],[8.80191,47.58914],[8.81059,47.5736],[8.83997,47.57575],[8.84153,47.57061],[8.85159,47.56579],[8.83247,47.5617],[8.82986,47.55779],[8.84314,47.53683],[8.89802,47.52933],[8.89858,47.51356],[8.89396,47.50673],[8.89787,47.48988],[8.88733,47.48554],[8.88512,47.47787],[8.90908,47.45452],[8.90444,47.4486],[8.90922,47.44288],[8.93431,47.4365],[8.91062,47.43682],[8.91422,47.42164],[8.90494,47.40728],[8.92414,47.40284],[8.94091,47.39288],[8.94424,47.3807],[8.9711,47.39481],[8.97742,47.41325],[8.98954,47.41584],[8.99069,47.43262]]]}},{"type":"Feature","properties":{"gid":"CHE.21_1","name":"提契诺州","nameEn":"Ticino","nameLocal":"","type":"Canton","typeEn":"Canton","groupZh":"州","area":2847.3,"iso":"CH-TI","engtype":"Canton","capital":"贝林佐纳","pop":350000,"blurb":"唯一意大利语州，卢加诺与度假胜地。"},"geometry":{"type":"Polygon","coordinates":[[[9.02543,45.82236],[9.0309,45.82609],[9.0344,45.83865],[9.03081,45.84309],[9.04719,45.85628],[9.05344,45.87776],[9.06471,45.87946],[9.07459,45.88733],[9.07669,45.89548],[9.08731,45.90516],[9.07664,45.90516],[9.07564,45.91496],[9.04163,45.93005],[9.01804,45.93042],[9.02062,45.93918],[9.01284,45.94453],[9.01646,45.95064],[9.01287,45.96173],[8.98927,45.97318],[8.99481,45.98233],[9.00663,45.98235],[9.02689,45.99509],[9.02224,46.0175],[9.00979,46.02869],[9.01018,46.03719],[9.02122,46.05252],[9.0512,46.06294],[9.0771,46.0643],[9.07933,46.07322],[9.09025,46.08573],[9.07349,46.11685],[9.12166,46.13371],[9.1348,46.15281],[9.15657,46.16108],[9.15837,46.16719],[9.13014,46.18638],[9.11765,46.20139],[9.08803,46.21519],[9.08134,46.23114],[9.07415,46.23387],[9.0785,46.23999],[9.07786,46.25924],[9.06299,46.2706],[9.05365,46.29242],[9.07316,46.30756],[9.06956,46.31826],[9.06296,46.32093],[9.06967,46.32923],[9.06962,46.34091],[9.08752,46.34774],[9.09326,46.358],[9.09554,46.3742],[9.08945,46.38981],[9.09714,46.40098],[9.09266,46.40663],[9.10414,46.41309],[9.08862,46.4469],[9.09678,46.46568],[9.08728,46.47561],[9.08678,46.48173],[9.07676,46.48658],[9.06279,46.48404],[9.04961,46.4874],[9.04847,46.49352],[9.02367,46.51616],[9.01763,46.53712],[9.02155,46.5414],[9.02111,46.55416],[9.03072,46.57835],[9.03714,46.58779],[9.04482,46.59078],[9.03496,46.59883],[9.03401,46.60513],[9.00381,46.61772],[8.96348,46.60955],[8.96279,46.62646],[8.95447,46.63746],[8.94454,46.62496],[8.92405,46.62806],[8.90837,46.621],[8.90774,46.61337],[8.91565,46.59975],[8.90635,46.59114],[8.83974,46.56861],[8.83314,46.56949],[8.82985,46.57606],[8.80424,46.56931],[8.75326,46.5819],[8.74617,46.57742],[8.73085,46.58129],[8.71816,46.57694],[8.69953,46.58535],[8.67428,46.58365],[8.65763,46.57373],[8.63945,46.56946],[8.62483,46.58241],[8.59435,46.5784],[8.57734,46.58702],[8.53682,46.58846],[8.52473,46.57959],[8.51756,46.56153],[8.52309,46.54287],[8.48669,46.5346],[8.44784,46.49886],[8.3946,46.49686],[8.39717,46.48724],[8.38999,46.47782],[8.39455,46.47007],[8.38485,46.46046],[8.3912,46.44973],[8.43538,46.46047],[8.46934,46.45197],[8.46894,46.44463],[8.45931,46.43845],[8.46054,46.42953],[8.45615,46.42421],[8.47003,46.41279],[8.46437,46.40328],[8.47171,46.39635],[8.462,46.38695],[8.46854,46.38024],[8.47162,46.36327],[8.46266,46.35371],[8.46561,46.335],[8.44156,46.31817],[8.4402,46.30661],[8.42504,46.29587],[8.45269,46.26194],[8.43787,46.24568],[8.43942,46.24012],[8.46082,46.23839],[8.46393,46.22608],[8.4679,46.22475],[8.4908,46.22593],[8.51402,46.21941],[8.5331,46.21987],[8.54305,46.19673],[8.55682,46.19152],[8.55994,46.18407],[8.57683,46.17386],[8.57732,46.16106],[8.60649,46.15105],[8.59357,46.13827],[8.60877,46.12619],[8.61016,46.11335],[8.64669,46.12033],[8.65693,46.10912],[8.67624,46.10782],[8.68357,46.10032],[8.69851,46.0999],[8.71745,46.10266],[8.74384,46.12489],[8.76232,46.10641],[8.78653,46.09707],[8.80044,46.09653],[8.80816,46.10239],[8.85156,46.07575],[8.85032,46.0581],[8.84367,46.05127],[8.83043,46.05017],[8.83589,46.04555],[8.82817,46.04178],[8.81991,46.02797],[8.80268,46.02193],[8.79148,46.00956],[8.78356,45.99134],[8.7941,45.99378],[8.82947,45.98912],[8.85751,45.96911],[8.85925,45.9636],[8.87349,45.95964],[8.87464,45.95575],[8.88871,45.95537],[8.89385,45.94503],[8.88913,45.94292],[8.88637,45.93234],[8.89725,45.91827],[8.8944,45.90665],[8.90153,45.90482],[8.91615,45.91568],[8.92368,45.90546],[8.92203,45.89632],[8.93036,45.88805],[8.93259,45.8731],[8.94317,45.87022],[8.91592,45.85019],[8.90856,45.83444],[8.95294,45.846],[8.96789,45.83619],[8.98444,45.84204],[8.99505,45.83834],[8.99223,45.82266],[9.01168,45.81706],[9.0194,45.8233],[9.02543,45.82236]]]}},{"type":"Feature","properties":{"gid":"CHE.22_1","name":"乌里州","nameEn":"Uri","nameLocal":"","type":"Canton","typeEn":"Canton","groupZh":"州","area":1068.9,"iso":"CH-UR","engtype":"Canton","capital":"阿尔特多夫","pop":37000,"blurb":"建国三州之一，圣哥达山口与罗伊斯河谷。"},"geometry":{"type":"Polygon","coordinates":[[[8.53166,46.58602],[8.54268,46.58932],[8.55428,46.58559],[8.57734,46.58702],[8.59435,46.5784],[8.62358,46.5826],[8.6415,46.56936],[8.68037,46.58418],[8.68403,46.59484],[8.67919,46.60377],[8.67877,46.62296],[8.66709,46.6269],[8.65348,46.63952],[8.65906,46.64754],[8.65869,46.65565],[8.6797,46.66856],[8.67514,46.67666],[8.67576,46.69627],[8.688,46.69962],[8.69321,46.70678],[8.71549,46.70543],[8.74435,46.72139],[8.74782,46.72536],[8.74677,46.73721],[8.76378,46.74831],[8.78224,46.73281],[8.81012,46.74216],[8.81779,46.7668],[8.83237,46.77092],[8.82787,46.77716],[8.82666,46.79603],[8.84365,46.79838],[8.85728,46.80992],[8.87186,46.81213],[8.87796,46.83182],[8.86876,46.84581],[8.89362,46.85447],[8.90328,46.86335],[8.94996,46.87932],[8.95292,46.88865],[8.94822,46.9038],[8.9407,46.90746],[8.9312,46.92295],[8.88101,46.90556],[8.87276,46.89869],[8.85838,46.89869],[8.85717,46.89412],[8.84949,46.8916],[8.84544,46.89563],[8.84674,46.91634],[8.83166,46.91304],[8.82356,46.92408],[8.82544,46.93602],[8.80703,46.94292],[8.78512,46.93378],[8.76604,46.94322],[8.73625,46.93486],[8.71806,46.92274],[8.70692,46.92082],[8.69692,46.9273],[8.6976,46.93877],[8.69035,46.94873],[8.66486,46.94632],[8.61346,46.95504],[8.61026,46.98829],[8.58971,46.99373],[8.57137,46.98943],[8.5711,46.98159],[8.5603,46.97484],[8.5527,46.9631],[8.55391,46.94276],[8.54414,46.94059],[8.54156,46.92851],[8.50448,46.91716],[8.48577,46.92015],[8.4786,46.91042],[8.462,46.90612],[8.45812,46.90029],[8.46955,46.89747],[8.47725,46.88624],[8.46727,46.87796],[8.47005,46.8587],[8.49621,46.85469],[8.50556,46.84656],[8.4873,46.83774],[8.47823,46.81674],[8.4816,46.80733],[8.46743,46.8015],[8.48041,46.80011],[8.47851,46.79268],[8.48875,46.78279],[8.4896,46.77507],[8.45783,46.77081],[8.4474,46.76604],[8.4396,46.75547],[8.43984,46.74002],[8.44827,46.73323],[8.452,46.69368],[8.43628,46.68947],[8.39852,46.69383],[8.39875,46.67698],[8.4073,46.66871],[8.40982,46.65564],[8.41908,46.65553],[8.42327,46.65042],[8.42257,46.62106],[8.41245,46.60424],[8.40932,46.58904],[8.43264,46.54759],[8.45936,46.53743],[8.46943,46.53836],[8.48248,46.52972],[8.48743,46.53492],[8.52309,46.54287],[8.51756,46.56153],[8.52336,46.56881],[8.52433,46.57891],[8.53166,46.58602]]]}},{"type":"Feature","properties":{"gid":"CHE.23_1","name":"瓦莱州","nameEn":"Valais","nameLocal":"","type":"Canton","typeEn":"Canton","groupZh":"州","area":5192.3,"iso":"CH-VS","engtype":"Canton","capital":"锡永","pop":345000,"blurb":"阿尔卑斯高山州，马特洪峰与采尔马特，葡萄酒梯田。"},"geometry":{"type":"Polygon","coordinates":[[[7.24319,45.89343],[7.25337,45.89583],[7.26265,45.8928],[7.28087,45.90465],[7.29618,45.92568],[7.3263,45.91412],[7.34857,45.91728],[7.35829,45.91404],[7.36468,45.90588],[7.3907,45.89998],[7.4035,45.91186],[7.4151,45.91122],[7.43053,45.91832],[7.44786,45.93425],[7.47585,45.93741],[7.47769,45.95406],[7.50042,45.96536],[7.5438,45.95935],[7.5481,45.96467],[7.54497,45.97881],[7.55028,45.98598],[7.57871,45.99012],[7.58556,45.9852],[7.58782,45.97726],[7.59741,45.97493],[7.66904,45.97713],[7.68509,45.96028],[7.71264,45.95273],[7.71134,45.93953],[7.72281,45.92911],[7.73631,45.92939],[7.75399,45.94418],[7.77144,45.94141],[7.80122,45.92423],[7.8222,45.93265],[7.86379,45.92373],[7.87547,45.93154],[7.86972,45.94754],[7.87823,45.95429],[7.88081,45.97602],[7.89559,45.98034],[7.91048,45.998],[7.99281,45.99802],[8.00283,46.01094],[8.01493,46.01341],[8.01408,46.01953],[8.01908,46.02409],[8.0168,46.0301],[8.03778,46.04226],[8.02679,46.07117],[8.0401,46.09507],[8.11145,46.1088],[8.11837,46.11515],[8.12117,46.12764],[8.13432,46.13372],[8.14796,46.13393],[8.15803,46.1445],[8.15473,46.16179],[8.16891,46.18031],[8.15771,46.18983],[8.14441,46.22201],[8.12086,46.23359],[8.11677,46.24442],[8.09037,46.2514],[8.09445,46.2608],[8.14482,46.29919],[8.17122,46.29419],[8.21596,46.30586],[8.22113,46.31795],[8.2291,46.32367],[8.22975,46.33346],[8.25243,46.34078],[8.25722,46.34642],[8.26428,46.34535],[8.26826,46.36516],[8.27567,46.36804],[8.28564,46.36537],[8.31478,46.38138],[8.31891,46.38859],[8.31721,46.4006],[8.29133,46.41019],[8.30408,46.42366],[8.32626,46.42738],[8.35888,46.44913],[8.38739,46.45239],[8.38497,46.46104],[8.39455,46.47007],[8.38999,46.47782],[8.39717,46.48724],[8.3946,46.49686],[8.44784,46.49886],[8.48222,46.52916],[8.46984,46.53822],[8.45936,46.53743],[8.43264,46.54759],[8.40948,46.58847],[8.41245,46.60424],[8.42257,46.62106],[8.42266,46.65224],[8.40193,46.65635],[8.37223,46.63386],[8.37018,46.61542],[8.3632,46.60358],[8.36396,46.5851],[8.35214,46.57151],[8.33834,46.56412],[8.31945,46.56173],[8.3069,46.54903],[8.26612,46.53519],[8.26101,46.53011],[8.18669,46.52042],[8.17814,46.52439],[8.17566,46.53171],[8.12993,46.53746],[8.11727,46.54725],[8.07956,46.55521],[8.06604,46.55281],[8.02074,46.56316],[7.97428,46.54454],[7.96906,46.53838],[7.97563,46.52523],[7.9738,46.5189],[7.956,46.50936],[7.94238,46.50847],[7.92801,46.49205],[7.88857,46.47993],[7.84657,46.47708],[7.82979,46.46671],[7.80553,46.4602],[7.78327,46.44399],[7.74911,46.42637],[7.72808,46.42129],[7.72088,46.41478],[7.63481,46.44567],[7.61595,46.43558],[7.61671,46.42886],[7.60603,46.4216],[7.60315,46.41274],[7.59222,46.41826],[7.53959,46.40911],[7.53506,46.3995],[7.56007,46.38795],[7.54602,46.38312],[7.54028,46.3764],[7.51244,46.37523],[7.50683,46.36766],[7.49121,46.3709],[7.48462,46.38378],[7.46519,46.3769],[7.46211,46.38169],[7.44011,46.38576],[7.40251,46.37547],[7.35765,46.3517],[7.32115,46.34526],[7.31369,46.35235],[7.31483,46.37593],[7.3036,46.36712],[7.29322,46.36792],[7.26529,46.35894],[7.26391,46.34039],[7.25627,46.33212],[7.2373,46.32789],[7.22512,46.33088],[7.19136,46.30661],[7.18853,46.29825],[7.19597,46.29171],[7.18706,46.2845],[7.1879,46.27233],[7.17671,46.26996],[7.16318,46.25681],[7.15407,46.25364],[7.14806,46.24426],[7.12565,46.2384],[7.12157,46.22588],[7.10662,46.21323],[7.09124,46.20391],[7.07106,46.20379],[7.03539,46.18981],[7.01294,46.20855],[7.01007,46.22273],[7.0028,46.22768],[7.0035,46.23564],[6.99201,46.24532],[6.98893,46.25421],[6.96683,46.27029],[6.96311,46.28509],[6.93664,46.30012],[6.93388,46.32718],[6.92919,46.33466],[6.9206,46.3417],[6.90102,46.34153],[6.88399,46.35467],[6.88818,46.36723],[6.88642,46.37827],[6.82503,46.42619],[6.80954,46.39519],[6.80182,46.38832],[6.80613,46.38004],[6.79187,46.3672],[6.77128,46.36014],[6.77467,46.34728],[6.78692,46.33254],[6.7964,46.33079],[6.80114,46.32103],[6.82267,46.31268],[6.83157,46.30044],[6.85089,46.29025],[6.8627,46.2933],[6.86914,46.28419],[6.85963,46.25639],[6.84495,46.24912],[6.83785,46.2378],[6.82612,46.23338],[6.8275,46.22584],[6.81,46.20679],[6.81944,46.185],[6.79796,46.16555],[6.79616,46.15615],[6.8032,46.13992],[6.82047,46.13294],[6.84386,46.13516],[6.86037,46.12898],[6.90612,46.12699],[6.90077,46.10901],[6.89057,46.09658],[6.89828,46.08613],[6.89732,46.07632],[6.88717,46.07123],[6.8802,46.05367],[6.89335,46.04592],[6.90953,46.052],[6.92944,46.0672],[6.94048,46.06556],[6.94123,46.05659],[6.95381,46.04942],[6.9657,46.03255],[6.98349,46.02042],[6.9914,46.00547],[7.01074,45.99837],[7.02425,45.97792],[7.01466,45.97351],[7.02021,45.9645],[7.04583,45.95652],[7.04287,45.93983],[7.04992,45.92609],[7.06907,45.91335],[7.07022,45.90405],[7.09895,45.87931],[7.09796,45.87454],[7.10584,45.86294],[7.12209,45.86237],[7.14143,45.87712],[7.15753,45.88274],[7.16697,45.88065],[7.1674,45.87398],[7.17733,45.86755],[7.19814,45.8634],[7.20291,45.86631],[7.20429,45.87766],[7.22192,45.89184],[7.24319,45.89343]]]}},{"type":"Feature","properties":{"gid":"CHE.24_1","name":"沃州","nameEn":"Vaud","nameLocal":"","type":"Canton","typeEn":"Canton","groupZh":"州","area":3196.9,"iso":"CH-VD","engtype":"Canton","capital":"洛桑","pop":814000,"blurb":"法语州，洛桑（奥委会总部）与莱蒙湖。"},"geometry":{"type":"MultiPolygon","coordinates":[[[[7.05239,46.19567],[7.07106,46.20379],[7.09124,46.20391],[7.12028,46.22426],[7.12565,46.2384],[7.14806,46.24426],[7.15407,46.25364],[7.16318,46.25681],[7.17671,46.26996],[7.18726,46.27174],[7.18706,46.2845],[7.19597,46.29171],[7.18874,46.2976],[7.19031,46.30573],[7.22512,46.33088],[7.22478,46.35748],[7.23246,46.36363],[7.21927,46.3653],[7.21049,46.38031],[7.19715,46.38049],[7.21131,46.40587],[7.21287,46.41776],[7.19706,46.43631],[7.19798,46.44262],[7.22716,46.44422],[7.2343,46.45444],[7.2283,46.48609],[7.23912,46.48958],[7.23927,46.49606],[7.24845,46.50356],[7.25113,46.5288],[7.2422,46.55428],[7.22501,46.54802],[7.21086,46.53441],[7.19201,46.54589],[7.16083,46.52804],[7.1491,46.52885],[7.13623,46.50853],[7.10772,46.49334],[7.10474,46.48777],[7.06175,46.48772],[7.02735,46.46624],[7.018,46.44886],[6.98302,46.43919],[6.99093,46.45105],[6.97903,46.46199],[6.97775,46.47408],[6.98168,46.47754],[6.97462,46.48038],[6.97014,46.49281],[6.95381,46.50286],[6.93597,46.5025],[6.91071,46.51346],[6.89992,46.51242],[6.89379,46.51973],[6.88113,46.51403],[6.86308,46.49517],[6.85306,46.49437],[6.83596,46.50324],[6.83302,46.51375],[6.82563,46.51261],[6.81867,46.51912],[6.81263,46.52756],[6.82252,46.54195],[6.83275,46.53792],[6.85476,46.54156],[6.86003,46.5325],[6.8884,46.55873],[6.90201,46.56156],[6.8985,46.572],[6.88394,46.56336],[6.87234,46.56714],[6.86435,46.57852],[6.84475,46.58672],[6.83584,46.57655],[6.81636,46.58564],[6.81493,46.58085],[6.79789,46.57613],[6.80288,46.59328],[6.79942,46.60063],[6.80485,46.60844],[6.80478,46.62361],[6.79871,46.63439],[6.80355,46.64927],[6.81899,46.64925],[6.82816,46.66013],[6.8375,46.66282],[6.85353,46.65539],[6.86832,46.66108],[6.86723,46.66799],[6.87452,46.67558],[6.86601,46.67721],[6.8657,46.68321],[6.89112,46.69554],[6.89288,46.70432],[6.92092,46.72108],[6.93554,46.73307],[6.9407,46.74317],[6.93954,46.74947],[6.93262,46.75433],[6.9218,46.7522],[6.91231,46.75539],[6.91163,46.75996],[6.92374,46.76192],[6.94186,46.78407],[6.95069,46.78332],[6.95941,46.78999],[6.95852,46.79547],[6.96488,46.80435],[6.95936,46.82158],[6.96411,46.82764],[6.98389,46.8243],[6.99194,46.8317],[6.98555,46.83985],[6.99178,46.84966],[6.97892,46.84645],[6.97598,46.85203],[6.98075,46.86796],[6.9889,46.87518],[6.97323,46.88645],[6.96099,46.88122],[6.97026,46.86745],[6.96317,46.86853],[6.93741,46.89058],[6.92633,46.89162],[6.92989,46.8999],[6.89368,46.92696],[6.86322,46.91068],[6.89987,46.88289],[6.92161,46.87231],[6.91541,46.86694],[6.89787,46.86542],[6.8985,46.86246],[6.91458,46.86522],[6.93246,46.85384],[6.91908,46.84601],[6.90581,46.82767],[6.91213,46.81397],[6.90811,46.80475],[6.92105,46.81073],[6.9317,46.80605],[6.91245,46.78171],[6.88006,46.77605],[6.86041,46.78824],[6.84708,46.77898],[6.82713,46.77638],[6.78573,46.79367],[6.7897,46.80196],[6.77907,46.80352],[6.74302,46.83182],[6.77516,46.85286],[6.75182,46.87048],[6.72866,46.87022],[6.73741,46.8938],[6.71722,46.90866],[6.72444,46.93063],[6.72176,46.93549],[6.66856,46.92309],[6.65487,46.91526],[6.63201,46.8905],[6.57631,46.88131],[6.53614,46.86847],[6.50334,46.85195],[6.45186,46.84206],[6.44189,46.83005],[6.43981,46.81601],[6.431,46.81232],[6.43449,46.80238],[6.45725,46.78857],[6.45082,46.7752],[6.43613,46.76096],[6.39519,46.74747],[6.38794,46.73456],[6.34265,46.71078],[6.27049,46.68319],[6.2678,46.67675],[6.17514,46.61398],[6.13771,46.59637],[6.1133,46.57862],[6.11295,46.57512],[6.15549,46.54556],[6.14665,46.53031],[6.13718,46.52972],[6.12083,46.51694],[6.09732,46.48246],[6.07378,46.46441],[6.07487,46.45428],[6.08625,46.44315],[6.06401,46.41623],[6.09753,46.40828],[6.1065,46.39984],[6.16098,46.37655],[6.16845,46.36746],[6.16127,46.35082],[6.14194,46.33946],[6.12919,46.31749],[6.14715,46.30342],[6.20099,46.28593],[6.2344,46.33147],[6.20436,46.33998],[6.19463,46.34468],[6.19569,46.34841],[6.17473,46.35496],[6.17995,46.36465],[6.24293,46.34534],[6.25517,46.36324],[6.33618,46.40524],[6.43169,46.41806],[6.52012,46.45673],[6.68675,46.45647],[6.81893,46.43014],[6.88642,46.37827],[6.88818,46.36723],[6.88399,46.35467],[6.90102,46.34153],[6.9206,46.3417],[6.92919,46.33466],[6.93388,46.32718],[6.93664,46.30012],[6.96084,46.28745],[6.96683,46.27029],[6.98893,46.25421],[6.99201,46.24532],[7.00404,46.23467],[7.0028,46.22768],[7.01007,46.22273],[7.01294,46.20855],[7.03539,46.18981],[7.05239,46.19567]],[[6.8613,46.72821],[6.83048,46.73732],[6.80056,46.72733],[6.79338,46.73243],[6.79458,46.7363],[6.8177,46.73927],[6.85308,46.77547],[6.88418,46.75158],[6.87091,46.73815],[6.86835,46.72945],[6.8613,46.72821]],[[6.75311,46.7298],[6.75374,46.73611],[6.77336,46.74954],[6.78779,46.74849],[6.7853,46.73472],[6.77376,46.72206],[6.7645,46.71936],[6.75311,46.7298]],[[6.1689,46.34366],[6.17776,46.3515],[6.18801,46.34543],[6.17675,46.34715],[6.17416,46.34287],[6.1689,46.34366]]],[[[7.03171,46.8544],[7.0302,46.85091],[7.03696,46.8469],[7.04597,46.85076],[7.0701,46.87392],[7.06242,46.88519],[7.09369,46.90623],[7.05876,46.93885],[7.06204,46.97881],[7.00224,46.9879],[6.92634,46.95315],[6.96511,46.92463],[6.98893,46.91755],[6.98461,46.9076],[7.00843,46.8891],[6.99438,46.87885],[7.00655,46.87321],[7.0177,46.87818],[7.03435,46.87396],[7.03124,46.86669],[7.0389,46.86106],[7.03171,46.8544]]]]}},{"type":"Feature","properties":{"gid":"CHE.25_1","name":"楚格州","nameEn":"Zug","nameLocal":"","type":"Canton","typeEn":"Canton","groupZh":"州","area":241.2,"iso":"CH-ZG","engtype":"Canton","capital":"楚格","pop":128000,"blurb":"低税金融州，科技企业与湖景。"},"geometry":{"type":"Polygon","coordinates":[[[8.5668,47.08908],[8.56621,47.08512],[8.57519,47.08576],[8.61653,47.09982],[8.64564,47.09887],[8.66407,47.11882],[8.67374,47.12066],[8.68659,47.13248],[8.68859,47.14769],[8.70292,47.15448],[8.70022,47.16473],[8.69713,47.16768],[8.66821,47.16368],[8.66206,47.17449],[8.6294,47.17627],[8.62986,47.18377],[8.61669,47.20456],[8.6103,47.20843],[8.60022,47.20709],[8.59973,47.21401],[8.58604,47.21481],[8.57863,47.22132],[8.54451,47.22753],[8.47982,47.21226],[8.4497,47.22622],[8.42283,47.22907],[8.4182,47.23177],[8.41512,47.24966],[8.40833,47.24799],[8.39698,47.23363],[8.39667,47.22533],[8.40633,47.2006],[8.4012,47.18948],[8.41624,47.16956],[8.41597,47.16334],[8.41106,47.16142],[8.41454,47.15208],[8.41048,47.14439],[8.41923,47.13645],[8.42062,47.12279],[8.4546,47.13295],[8.45858,47.11671],[8.47147,47.11458],[8.47933,47.11721],[8.47362,47.12118],[8.48673,47.1286],[8.5001,47.11715],[8.49853,47.10357],[8.5274,47.09398],[8.56551,47.09861],[8.5668,47.08908]]]}},{"type":"Feature","properties":{"gid":"CHE.26_1","name":"苏黎世州","nameEn":"Zürich","nameLocal":"","type":"Canton","typeEn":"Canton","groupZh":"州","area":1731.3,"iso":"NA","engtype":"Canton","capital":"苏黎世","pop":1553000,"blurb":"人口最多、经济最强的州，苏黎世金融都会。"},"geometry":{"type":"Polygon","coordinates":[[[8.57064,47.22269],[8.58604,47.21481],[8.59685,47.21583],[8.60022,47.20709],[8.6103,47.20843],[8.61669,47.20456],[8.62986,47.18377],[8.6294,47.17627],[8.66206,47.17449],[8.66821,47.16368],[8.69713,47.16768],[8.68349,47.18383],[8.69666,47.20024],[8.71781,47.20786],[8.72798,47.20558],[8.74059,47.2159],[8.79503,47.22697],[8.80999,47.22564],[8.79964,47.24265],[8.80798,47.25314],[8.85276,47.25428],[8.86491,47.24844],[8.87364,47.24979],[8.87769,47.25666],[8.93717,47.26353],[8.9502,47.2829],[8.93754,47.29356],[8.949,47.29656],[8.95994,47.3098],[8.97579,47.3108],[8.9857,47.32318],[8.97933,47.33273],[8.98038,47.34089],[8.9746,47.35457],[8.96258,47.35946],[8.9521,47.37698],[8.94349,47.38157],[8.94407,47.3906],[8.92414,47.40284],[8.90494,47.40728],[8.91422,47.42164],[8.91062,47.43682],[8.93431,47.4365],[8.90922,47.44288],[8.90444,47.4486],[8.90908,47.45452],[8.88512,47.47787],[8.88733,47.48554],[8.89787,47.48988],[8.89396,47.50673],[8.89858,47.51356],[8.89802,47.52933],[8.84314,47.53683],[8.82986,47.55779],[8.83247,47.5617],[8.85159,47.56579],[8.84153,47.57061],[8.83997,47.57575],[8.81059,47.5736],[8.80191,47.58914],[8.74947,47.59656],[8.74182,47.61344],[8.75148,47.62546],[8.78905,47.61379],[8.79222,47.60721],[8.80298,47.60537],[8.80643,47.60507],[8.80881,47.61745],[8.82238,47.61763],[8.8139,47.62605],[8.82886,47.64063],[8.82835,47.64956],[8.80788,47.65578],[8.80583,47.6699],[8.79039,47.66885],[8.78183,47.65524],[8.76946,47.65351],[8.74782,47.64172],[8.74246,47.64628],[8.70941,47.64603],[8.68581,47.65834],[8.66967,47.68491],[8.65461,47.69456],[8.6436,47.69899],[8.62499,47.69737],[8.62736,47.68095],[8.61434,47.6824],[8.60715,47.67599],[8.60995,47.6694],[8.6285,47.65755],[8.6288,47.64965],[8.62369,47.64128],[8.61559,47.6377],[8.60298,47.63925],[8.61389,47.64406],[8.60771,47.65245],[8.59574,47.64313],[8.59803,47.62698],[8.60509,47.61441],[8.59023,47.6012],[8.57554,47.59488],[8.56648,47.59709],[8.5616,47.60125],[8.56639,47.60987],[8.57445,47.61188],[8.5693,47.61724],[8.5628,47.61677],[8.55731,47.62455],[8.53852,47.62632],[8.53889,47.63093],[8.51559,47.63379],[8.51512,47.62343],[8.50728,47.62383],[8.50825,47.61751],[8.47911,47.61515],[8.46854,47.60387],[8.4566,47.60234],[8.46042,47.58848],[8.46694,47.5842],[8.48872,47.5878],[8.49455,47.5812],[8.43792,47.56718],[8.41764,47.56905],[8.41652,47.55057],[8.40753,47.54702],[8.39528,47.53053],[8.38431,47.53219],[8.37847,47.51749],[8.3614,47.5137],[8.36221,47.48515],[8.37323,47.48545],[8.3749,47.47645],[8.36641,47.47155],[8.39018,47.45495],[8.38133,47.4485],[8.38713,47.44075],[8.37418,47.43815],[8.39194,47.42629],[8.38186,47.42083],[8.38473,47.41857],[8.38225,47.40787],[8.36444,47.4061],[8.39642,47.39735],[8.39721,47.38159],[8.40722,47.37211],[8.4051,47.35086],[8.41865,47.34121],[8.413,47.33324],[8.41504,47.3308],[8.43642,47.33074],[8.45368,47.33662],[8.44648,47.32442],[8.43483,47.31987],[8.43026,47.30537],[8.42084,47.29801],[8.39249,47.29501],[8.39569,47.28329],[8.40244,47.27757],[8.40401,47.25942],[8.41701,47.24652],[8.4182,47.23177],[8.4497,47.22622],[8.47982,47.21226],[8.54451,47.22753],[8.57064,47.22269]]]}}]}