{"type":"FeatureCollection","features":[{"type":"Feature","properties":{"gid":"ESP.1_1","name":"安达卢西亚","nameEn":"Andalucía","type":"自治区","typeEn":"Autonomous Community","groupZh":"安达卢西亚 · 南部","groupEn":"Andalusia","capital":"塞维利亚","pop":8590000,"area":87574,"blurb":"西班牙人口第二多的自治区：塞维利亚、格拉纳达（阿尔罕布拉宫）、科尔多瓦，斗牛与弗拉门戈之乡。"},"geometry":{"type":"MultiPolygon","coordinates":[[[[-2.9421,36.7507],[-2.8996,36.7396],[-2.8488,36.6949],[-2.8187,36.7062],[-2.7721,36.6815],[-2.6996,36.6824],[-2.626,36.7212],[-2.5651,36.814],[-2.4812,36.834],[-2.464,36.8254],[-2.4712,36.8354],[-2.4257,36.8104],[-2.3607,36.8415],[-2.2921,36.821],[-2.191,36.7196],[-2.1207,36.7326],[-2.1057,36.7635],[-2.0601,36.7774],[-2.061,36.8085],[-2.0243,36.8351],[-2.0021,36.8363],[-2.0035,36.8818],[-1.9918,36.8937],[-1.9676,36.8982],[-1.9413,36.9357],[-1.9065,36.936],[-1.8954,36.9482],[-1.9012,36.9876],[-1.8493,37.0693],[-1.8032,37.2232],[-1.7071,37.3051],[-1.6765,37.3537],[-1.6537,37.3537],[-1.646,37.371],[-1.6304,37.3729],[-1.737,37.4427],[-1.8117,37.4516],[-1.8089,37.4335],[-1.8452,37.4549],[-1.9767,37.6188],[-2.0118,37.6735],[-2.0125,37.7009],[-1.9957,37.7281],[-2.0087,37.775],[-1.9994,37.8232],[-1.9744,37.8685],[-1.9946,37.8805],[-2.0217,37.8686],[-2.0703,37.8845],[-2.0845,37.8724],[-2.1231,37.9005],[-2.1719,37.8887],[-2.2533,37.9396],[-2.2984,38.0022],[-2.3415,38.026],[-2.4233,38.0337],[-2.5512,38.0841],[-2.4462,38.1852],[-2.4536,38.2183],[-2.4406,38.2324],[-2.4365,38.2722],[-2.4407,38.2851],[-2.485,38.3003],[-2.4791,38.3492],[-2.4923,38.3713],[-2.4833,38.3979],[-2.5714,38.414],[-2.5673,38.4607],[-2.5767,38.4765],[-2.5665,38.4905],[-2.5987,38.5129],[-2.6726,38.4967],[-2.7676,38.5329],[-2.7805,38.5094],[-2.8065,38.5031],[-2.831,38.4765],[-2.8375,38.4844],[-2.8608,38.4752],[-2.8814,38.4527],[-2.9057,38.4699],[-2.9635,38.4715],[-2.9934,38.4501],[-3.0024,38.4083],[-3.0649,38.4783],[-3.1301,38.4388],[-3.2799,38.4604],[-3.3264,38.4821],[-3.3749,38.4753],[-3.3766,38.4396],[-3.4531,38.4002],[-3.5283,38.4087],[-3.5424,38.4457],[-3.583,38.4515],[-3.5857,38.4056],[-3.5981,38.3985],[-3.7855,38.4253],[-3.8299,38.4128],[-3.8305,38.3929],[-3.8542,38.3752],[-3.9124,38.3691],[-4.156,38.3814],[-4.2554,38.4018],[-4.2764,38.3909],[-4.2688,38.3472],[-4.2872,38.3428],[-4.4529,38.4009],[-4.5132,38.4641],[-4.5414,38.4819],[-4.5583,38.4766],[-4.5657,38.4908],[-4.5936,38.4864],[-4.6222,38.5235],[-4.703,38.5526],[-4.7073,38.572],[-4.8601,38.614],[-4.8769,38.6861],[-4.9361,38.6814],[-5.0045,38.6951],[-5.0079,38.7152],[-5.0468,38.7291],[-5.1007,38.7077],[-5.1844,38.7197],[-5.1676,38.6817],[-5.1856,38.6742],[-5.1849,38.6594],[-5.2079,38.6679],[-5.2146,38.6486],[-5.2238,38.6565],[-5.2449,38.6321],[-5.2932,38.6091],[-5.3095,38.5773],[-5.3716,38.5836],[-5.3927,38.5528],[-5.3846,38.5392],[-5.4071,38.5433],[-5.4103,38.52],[-5.4794,38.4847],[-5.4843,38.4634],[-5.5196,38.4632],[-5.5729,38.4269],[-5.5849,38.3859],[-5.5594,38.3661],[-5.5755,38.3296],[-5.5559,38.3183],[-5.5258,38.2641],[-5.5207,38.2108],[-5.5388,38.1998],[-5.5388,38.1617],[-5.5739,38.1507],[-5.5847,38.1317],[-5.6333,38.1381],[-5.7103,38.0811],[-5.7348,38.0863],[-5.7406,38.1266],[-5.6946,38.1504],[-5.7057,38.1694],[-5.6841,38.1571],[-5.6946,38.1865],[-5.728,38.1974],[-5.7572,38.1806],[-5.8514,38.1719],[-5.8774,38.1554],[-5.8808,38.1322],[-5.9128,38.1227],[-5.9264,38.1044],[-5.9292,38.0892],[-5.9089,38.0629],[-5.9341,38.0469],[-5.9536,37.9954],[-6.0522,37.9967],[-6.1152,37.9818],[-6.1801,37.941],[-6.2011,37.9619],[-6.2331,37.958],[-6.3032,37.9783],[-6.3526,38.0074],[-6.3671,38.0489],[-6.4138,38.0586],[-6.4523,38.056],[-6.4442,38.0461],[-6.4737,38.0244],[-6.4653,38.011],[-6.5456,38.0281],[-6.5822,38.0209],[-6.5804,38.0528],[-6.6223,38.0972],[-6.7581,38.0927],[-6.7696,38.112],[-6.8157,38.1201],[-6.795,38.1785],[-6.8483,38.1772],[-6.9315,38.2083],[-6.9692,38.1663],[-6.9522,38.1528],[-6.9706,38.1105],[-6.9878,38.102],[-7.002,38.0224],[-7.0468,38.0143],[-7.0987,38.0438],[-7.1283,38.0295],[-7.1207,38.0046],[-7.1735,37.9928],[-7.2023,38.0034],[-7.2624,37.9799],[-7.2483,37.9545],[-7.2551,37.9227],[-7.2822,37.8977],[-7.2835,37.8689],[-7.3244,37.8158],[-7.3967,37.764],[-7.4214,37.7589],[-7.4187,37.7438],[-7.4478,37.6975],[-7.4436,37.6646],[-7.4556,37.6622],[-7.4544,37.6464],[-7.4672,37.6494],[-7.4888,37.604],[-7.5038,37.6048],[-7.5013,37.578],[-7.5155,37.5688],[-7.5069,37.5568],[-7.5227,37.5558],[-7.5117,37.5249],[-7.4922,37.5222],[-7.4841,37.4983],[-7.4638,37.4872],[-7.4688,37.4685],[-7.4455,37.4194],[-7.4627,37.409],[-7.4405,37.391],[-7.4422,37.3113],[-7.4217,37.2738],[-7.4336,37.2501],[-7.4135,37.2254],[-7.4036,37.1777],[-7.3735,37.1721],[-7.3329,37.1849],[-7.3335,37.2049],[-7.3607,37.2029],[-7.3376,37.211],[-7.3112,37.201],[-7.3296,37.2057],[-7.3312,37.1865],[-7.2749,37.2026],[-7.064,37.2062],[-7.1704,37.2157],[-7.1629,37.2612],[-7.1769,37.2765],[-7.161,37.2651],[-7.1662,37.2371],[-7.1524,37.236],[-7.1676,37.2249],[-7.1626,37.214],[-7.0341,37.2057],[-6.9485,37.1638],[-6.9735,37.2029],[-7.0082,37.2193],[-6.9779,37.2082],[-6.9821,37.2151],[-7.0232,37.2163],[-6.9956,37.2574],[-6.9843,37.249],[-7.0012,37.2285],[-6.984,37.2185],[-7.0004,37.2301],[-6.9876,37.2568],[-6.9579,37.216],[-6.966,37.2571],[-6.9846,37.269],[-7.0018,37.2574],[-6.9862,37.2699],[-6.9729,37.264],[-6.9826,37.2762],[-6.9676,37.2651],[-6.9793,37.3095],[-6.9682,37.2768],[-6.9543,37.2957],[-6.9643,37.264],[-6.9426,37.2121],[-6.8596,37.2938],[-6.876,37.269],[-6.8637,37.2732],[-6.9401,37.2057],[-6.9318,37.186],[-6.5201,36.9768],[-6.4474,36.9057],[-6.3971,36.8099],[-6.349,36.7976],[-6.4418,36.7393],[-6.4376,36.7168],[-6.3868,36.6285],[-6.3549,36.6151],[-6.3424,36.6265],[-6.331,36.6146],[-6.3299,36.6251],[-6.2976,36.6168],[-6.2651,36.5793],[-6.2304,36.5876],[-6.2385,36.579],[-6.2274,36.5812],[-6.2232,36.5682],[-6.2293,36.5265],[-6.2093,36.549],[-6.2143,36.5713],[-6.2057,36.5638],[-6.2187,36.5265],[-6.256,36.5293],[-6.249,36.5049],[-6.2087,36.5088],[-6.1993,36.5276],[-6.1737,36.5213],[-6.1882,36.5018],[-6.1796,36.4874],[-6.1996,36.5004],[-6.1965,36.4863],[-6.2315,36.4629],[-6.2596,36.4754],[-6.266,36.4899],[-6.2546,36.5007],[-6.2801,36.526],[-6.2721,36.5371],[-6.3087,36.5335],[-6.2865,36.5213],[-6.2171,36.3924],[-6.2063,36.4424],[-6.1838,36.4412],[-6.2099,36.426],[-6.2085,36.4043],[-6.1951,36.404],[-6.2099,36.3851],[-6.179,36.3654],[-6.1437,36.2968],[-6.1149,36.2943],[-6.0871,36.2707],[-6.0351,36.181],[-5.9093,36.1829],[-5.8424,36.1312],[-5.7993,36.0788],[-5.7774,36.0887],[-5.7107,36.0582],[-5.6885,36.0687],[-5.6238,36.0354],[-5.6112,35.9996],[-5.4307,36.0704],[-5.4254,36.0829],[-5.4446,36.0938],[-5.4307,36.1049],[-5.4429,36.1204],[-5.4299,36.1407],[-5.439,36.1271],[-5.436,36.1479],[-5.4432,36.1315],[-5.4471,36.1418],[-5.426,36.1768],[-5.386,36.1804],[-5.3832,36.1696],[-5.3387,36.1549],[-5.3204,36.2229],[-5.2787,36.2801],[-5.294,36.2965],[-5.2762,36.2829],[-5.2587,36.311],[-5.2463,36.311],[-5.2218,36.3737],[-5.1776,36.414],[-5.1571,36.4115],[-5.0813,36.451],[-5.006,36.4593],[-4.9124,36.5057],[-4.8571,36.5074],[-4.7393,36.4829],[-4.639,36.5062],[-4.6035,36.5632],[-4.5104,36.5937],[-4.4168,36.7176],[-4.1787,36.7154],[-4.1093,36.7249],[-4.0649,36.7487],[-3.9563,36.7262],[-3.8335,36.7537],[-3.7646,36.7287],[-3.751,36.7382],[-3.7346,36.719],[-3.7162,36.7329],[-3.6754,36.7296],[-3.6579,36.7463],[-3.6007,36.7438],[-3.554,36.7146],[-3.5149,36.7238],[-3.4821,36.6968],[-3.4199,36.6937],[-3.3651,36.7137],[-3.339,36.7382],[-3.261,36.7532],[-2.9762,36.7382],[-2.9421,36.7507]]],[[[-6.9682,37.2168],[-6.9751,37.2101],[-6.9599,37.1849],[-6.916,37.1635],[-6.9457,37.2055],[-6.9682,37.2168]]],[[[-6.9807,37.2468],[-6.999,37.2296],[-6.9768,37.2121],[-6.9807,37.2468]]]]}},{"type":"Feature","properties":{"gid":"ESP.2_1","name":"阿拉贡","nameEn":"Aragón","type":"自治区","typeEn":"Autonomous Community","groupZh":"中部高原 · 梅塞塔","groupEn":"Meseta Central","capital":"萨拉戈萨","pop":1330000,"area":47705,"blurb":"埃布罗河谷自治区，皮雷内斯山最高峰阿内托峰在此；中世纪阿拉贡王国的故地。"},"geometry":{"type":"Polygon","coordinates":[[[-0.8169,39.8986],[-0.8404,39.925],[-0.8379,39.9766],[-0.7778,39.9983],[-0.7536,40.0466],[-0.7475,40.0379],[-0.6829,40.0443],[-0.6272,40.0762],[-0.6135,40.07],[-0.6286,40.1021],[-0.6065,40.1283],[-0.5784,40.1381],[-0.5441,40.2517],[-0.4945,40.2288],[-0.428,40.2438],[-0.3836,40.2649],[-0.4001,40.2942],[-0.3901,40.3057],[-0.3662,40.3051],[-0.3406,40.34],[-0.2823,40.3651],[-0.2852,40.3863],[-0.3473,40.444],[-0.3326,40.4591],[-0.2728,40.4737],[-0.2747,40.4969],[-0.3018,40.516],[-0.2901,40.544],[-0.2998,40.5774],[-0.2932,40.6111],[-0.322,40.6029],[-0.3704,40.6136],[-0.378,40.6674],[-0.3288,40.6803],[-0.3069,40.6595],[-0.2359,40.6911],[-0.2392,40.7181],[-0.224,40.7542],[-0.1971,40.7845],[-0.1649,40.7887],[-0.1445,40.7855],[-0.1257,40.7529],[-0.0647,40.7274],[0.0158,40.7285],[0.0265,40.695],[0.0422,40.691],[0.1125,40.7272],[0.1639,40.7236],[0.1708,40.7329],[0.1592,40.7506],[0.1754,40.7412],[0.1753,40.755],[0.23,40.7675],[0.2336,40.787],[0.2783,40.8211],[0.2508,40.8563],[0.2554,40.8746],[0.239,40.8849],[0.2935,40.9706],[0.2589,41.0139],[0.2799,41.0198],[0.2462,41.0413],[0.2343,41.0346],[0.2331,41.0471],[0.2178,41.0437],[0.2302,41.0539],[0.2182,41.0629],[0.2201,41.0829],[0.2012,41.0847],[0.2013,41.1268],[0.214,41.1373],[0.2479,41.1302],[0.253,41.1502],[0.292,41.1564],[0.3224,41.2253],[0.3813,41.2365],[0.3737,41.2494],[0.3857,41.2789],[0.3657,41.304],[0.3683,41.3186],[0.3486,41.3298],[0.3738,41.3504],[0.32,41.3949],[0.3419,41.4138],[0.3554,41.4518],[0.3421,41.484],[0.3979,41.4913],[0.447,41.5423],[0.4304,41.5653],[0.4285,41.6024],[0.4021,41.5927],[0.3496,41.5995],[0.3459,41.6219],[0.358,41.6317],[0.326,41.6747],[0.3848,41.7403],[0.3955,41.732],[0.3987,41.7578],[0.4697,41.7656],[0.4833,41.8015],[0.5155,41.8224],[0.5424,41.8204],[0.5574,41.8542],[0.5801,41.8509],[0.5801,41.8635],[0.6073,41.8723],[0.5928,41.8844],[0.5949,41.918],[0.6075,41.9193],[0.5619,41.9382],[0.587,41.9668],[0.6044,41.9607],[0.6238,41.9918],[0.6386,41.9946],[0.642,41.9821],[0.6639,42.0146],[0.6517,42.0263],[0.6996,42.107],[0.6959,42.152],[0.714,42.1634],[0.6986,42.1727],[0.7026,42.1901],[0.735,42.2522],[0.7449,42.3012],[0.7646,42.3225],[0.7404,42.3369],[0.7713,42.3507],[0.7233,42.3656],[0.7461,42.3848],[0.6905,42.4876],[0.7005,42.4959],[0.7133,42.4873],[0.7395,42.5052],[0.7193,42.5128],[0.7216,42.5252],[0.7351,42.5401],[0.7496,42.535],[0.7409,42.545],[0.7675,42.6113],[0.7084,42.6212],[0.6951,42.6587],[0.6601,42.691],[0.597,42.7055],[0.5774,42.6937],[0.5259,42.7021],[0.5162,42.6917],[0.4768,42.6996],[0.422,42.6903],[0.3961,42.6939],[0.3923,42.7119],[0.3604,42.7237],[0.3277,42.7053],[0.3209,42.6832],[0.295,42.6734],[0.2635,42.6938],[0.2596,42.7158],[0.176,42.7356],[0.1623,42.7224],[0.112,42.7103],[0.087,42.7164],[0.0583,42.697],[0.021,42.7018],[-0.0146,42.6848],[-0.0616,42.6947],[-0.0688,42.7161],[-0.106,42.7209],[-0.1595,42.7807],[-0.1586,42.7957],[-0.1896,42.7871],[-0.2374,42.8077],[-0.2433,42.8231],[-0.313,42.8475],[-0.3925,42.8001],[-0.4449,42.796],[-0.5025,42.8275],[-0.5297,42.7915],[-0.5677,42.7809],[-0.5676,42.8044],[-0.6004,42.8025],[-0.6023,42.8301],[-0.6794,42.8829],[-0.7278,42.8925],[-0.7275,42.9193],[-0.7832,42.9217],[-0.8191,42.9007],[-0.8185,42.8694],[-0.8568,42.8469],[-0.86,42.7986],[-0.8475,42.7859],[-0.8648,42.7634],[-0.9005,42.7605],[-0.9011,42.7427],[-0.923,42.744],[-0.9486,42.7115],[-1.0279,42.7001],[-1.0392,42.6916],[-1.0368,42.6516],[-1.0532,42.6424],[-1.1524,42.6476],[-1.1576,42.6105],[-1.1708,42.6171],[-1.18,42.6079],[-1.1581,42.5996],[-1.2019,42.5782],[-1.2028,42.5497],[-1.2261,42.5422],[-1.2647,42.5568],[-1.2881,42.5228],[-1.2934,42.511],[-1.2727,42.4824],[-1.2813,42.4645],[-1.3415,42.4239],[-1.3597,42.3784],[-1.3362,42.372],[-1.329,42.3554],[-1.399,42.2913],[-1.3913,42.2721],[-1.4163,42.222],[-1.3917,42.1796],[-1.3988,42.1262],[-1.3667,42.107],[-1.3522,42.0731],[-1.3105,42.0723],[-1.3033,42.0518],[-1.386,41.957],[-1.3822,41.9433],[-1.4182,41.9136],[-1.5017,41.9243],[-1.5233,41.9099],[-1.5962,41.9271],[-1.6168,41.9515],[-1.6541,41.9654],[-1.7152,41.957],[-1.7668,41.9958],[-1.8336,41.9951],[-1.8471,42.008],[-1.844,41.9873],[-1.8651,41.9776],[-1.8547,41.9592],[-1.8572,41.9095],[-1.8175,41.8534],[-1.8185,41.83],[-1.8529,41.7896],[-1.8026,41.7512],[-1.8092,41.7367],[-1.7753,41.7248],[-1.7868,41.6994],[-1.812,41.6865],[-1.8062,41.6643],[-1.8589,41.6615],[-1.923,41.5983],[-1.9933,41.6001],[-1.9936,41.5771],[-1.9673,41.5461],[-1.981,41.4864],[-1.9532,41.4625],[-1.9536,41.4243],[-1.9365,41.4199],[-1.9378,41.4074],[-2.0292,41.3842],[-2.0435,41.3972],[-2.0356,41.4269],[-2.1015,41.4458],[-2.1167,41.425],[-2.116,41.3821],[-2.1631,41.3554],[-2.1566,41.3374],[-2.1736,41.2881],[-2.1634,41.2832],[-2.1462,41.1844],[-2.0798,41.171],[-2.0516,41.1469],[-1.959,41.1725],[-1.9324,41.1386],[-1.8905,41.1333],[-1.8692,41.1079],[-1.8025,41.0892],[-1.7471,41.0339],[-1.6174,40.9437],[-1.6078,40.9276],[-1.6259,40.8987],[-1.6202,40.8795],[-1.5423,40.8112],[-1.5398,40.7607],[-1.562,40.7398],[-1.5356,40.687],[-1.5648,40.6148],[-1.5454,40.5952],[-1.5987,40.5621],[-1.678,40.591],[-1.6932,40.5777],[-1.7018,40.5382],[-1.6924,40.4868],[-1.7485,40.4629],[-1.8063,40.3983],[-1.7784,40.3921],[-1.6976,40.3213],[-1.7201,40.3185],[-1.7292,40.3032],[-1.7192,40.2771],[-1.6903,40.3097],[-1.5404,40.1908],[-1.5108,40.2037],[-1.4744,40.1851],[-1.4391,40.197],[-1.4488,40.1454],[-1.3636,40.1386],[-1.357,40.1289],[-1.3165,40.1497],[-1.3229,40.1849],[-1.2982,40.2117],[-1.2843,40.1715],[-1.2442,40.146],[-1.2449,40.1162],[-1.1497,40.1148],[-1.1118,40.0928],[-1.0717,40.0511],[-1.0842,40.0362],[-1.1651,40.0101],[-1.1284,39.9629],[-1.105,39.975],[-1.0921,39.9678],[-1.0715,39.9797],[-1.0025,39.9819],[-0.9318,39.9561],[-0.9204,39.9644],[-0.9026,39.9319],[-0.9138,39.918],[-0.9002,39.8919],[-0.9125,39.8724],[-0.8674,39.8468],[-0.7976,39.8811],[-0.8169,39.8986]]]}},{"type":"Feature","properties":{"gid":"ESP.3_1","name":"坎塔布里亚","nameEn":"Cantabria","type":"自治区","typeEn":"Autonomous Community","groupZh":"绿色西班牙 · 北部","groupEn":"Green Spain","capital":"桑坦德","pop":580000,"area":5309,"blurb":"「绿色西班牙」最小成员之一，阿尔塔米拉史前洞穴与桑坦德海湾在此。"},"geometry":{"type":"MultiPolygon","coordinates":[[[[-3.9363,42.9081],[-3.9296,42.9147],[-3.9728,42.9117],[-3.9877,42.9258],[-3.974,42.9686],[-3.9607,42.9924],[-3.9092,43.0161],[-3.8907,43.0418],[-3.851,43.0391],[-3.8317,43.0638],[-3.8469,43.0844],[-3.7569,43.085],[-3.7559,43.0991],[-3.7046,43.1162],[-3.651,43.181],[-3.6124,43.1695],[-3.6035,43.1496],[-3.4176,43.1334],[-3.4487,43.2361],[-3.3989,43.2458],[-3.3829,43.2705],[-3.3401,43.278],[-3.3324,43.3019],[-3.2794,43.29],[-3.2252,43.3089],[-3.2095,43.2835],[-3.1932,43.2984],[-3.1573,43.3013],[-3.1532,43.3532],[-3.2121,43.3749],[-3.2229,43.3968],[-3.3065,43.4101],[-3.3199,43.3899],[-3.3235,43.4201],[-3.4121,43.4196],[-3.4229,43.4099],[-3.4493,43.4338],[-3.4629,43.391],[-3.4285,43.3671],[-3.4549,43.3865],[-3.4787,43.3699],[-3.4654,43.3907],[-3.4757,43.4154],[-3.5026,43.4301],[-3.5199,43.4249],[-3.5087,43.4368],[-3.4882,43.4279],[-3.4885,43.4479],[-3.474,43.4418],[-3.4729,43.4624],[-3.4632,43.4396],[-3.4376,43.4362],[-3.4274,43.4585],[-3.511,43.4738],[-3.5201,43.4971],[-3.5468,43.4835],[-3.5399,43.5032],[-3.5504,43.5096],[-3.5851,43.5015],[-3.5879,43.4782],[-3.5854,43.5149],[-3.6146,43.4954],[-3.6443,43.4993],[-3.6868,43.4751],[-3.7235,43.4732],[-3.7265,43.4596],[-3.7471,43.456],[-3.7521,43.4357],[-3.7371,43.4315],[-3.7574,43.4313],[-3.7551,43.4474],[-3.7712,43.4487],[-3.7907,43.4324],[-3.7799,43.4215],[-3.8074,43.4171],[-3.814,43.4021],[-3.7751,43.4043],[-3.8096,43.3946],[-3.8287,43.411],[-3.8043,43.4293],[-3.8293,43.4332],[-3.814,43.4393],[-3.8262,43.444],[-3.7629,43.4679],[-3.7876,43.4765],[-3.784,43.4921],[-3.8124,43.4946],[-3.838,43.4787],[-3.9454,43.4712],[-3.9718,43.4446],[-3.9521,43.4365],[-3.9843,43.4301],[-3.9849,43.446],[-4.0013,43.4388],[-4.0224,43.4488],[-4.0365,43.434],[-4.0471,43.4457],[-4.0546,43.4343],[-4.0818,43.439],[-4.1174,43.4174],[-4.221,43.3937],[-4.2324,43.4015],[-4.3271,43.3904],[-4.3396,43.4065],[-4.3813,43.3901],[-4.5004,43.3982],[-4.5387,43.3554],[-4.5223,43.3357],[-4.5234,43.2781],[-4.5477,43.2686],[-4.5552,43.2881],[-4.6065,43.3005],[-4.636,43.2764],[-4.6318,43.2676],[-4.7309,43.2573],[-4.7216,43.2295],[-4.7383,43.1863],[-4.7778,43.192],[-4.8516,43.1728],[-4.8347,43.1582],[-4.8513,43.1259],[-4.8168,43.0926],[-4.7664,43.0745],[-4.766,43.0556],[-4.7439,43.0564],[-4.7369,43.021],[-4.6381,43.0166],[-4.606,43.0357],[-4.5584,43.0195],[-4.5208,43.0473],[-4.4756,43.0387],[-4.461,43.0607],[-4.398,43.0348],[-4.3472,42.9721],[-4.2459,42.9594],[-4.2366,42.9171],[-4.2225,42.9109],[-4.2305,42.8967],[-4.2188,42.8505],[-4.1993,42.8447],[-4.1442,42.8686],[-4.1284,42.8462],[-4.1404,42.829],[-4.1565,42.8378],[-4.1785,42.8262],[-4.1826,42.8103],[-4.1498,42.7893],[-4.0984,42.7912],[-4.0813,42.7614],[-4.0458,42.7666],[-4.0501,42.7798],[-4.0141,42.8064],[-4.0207,42.8193],[-4.011,42.8304],[-4.0,42.8241],[-3.9996,42.769],[-3.9788,42.7581],[-3.9305,42.7745],[-3.9109,42.7684],[-3.8944,42.8045],[-3.8633,42.7864],[-3.8216,42.8003],[-3.8164,42.8359],[-3.8337,42.8521],[-3.8253,42.8686],[-3.8367,42.8788],[-3.8637,42.8898],[-3.874,42.8751],[-3.8684,42.8567],[-3.8801,42.8514],[-3.9154,42.8609],[-3.8974,42.8803],[-3.9243,42.8892],[-3.8929,42.8873],[-3.9077,42.9145],[-3.8685,42.8991],[-3.8534,42.9181],[-3.8335,42.918],[-3.8395,42.9398],[-3.867,42.9548],[-3.8873,42.9487],[-3.8912,42.9255],[-3.9114,42.9234],[-3.9335,42.8996],[-3.9363,42.9081]],[[-4.0948,42.824],[-4.089,42.7999],[-4.101,42.7939],[-4.1124,42.8223],[-4.0948,42.824]]],[[[-4.1745,42.8116],[-4.161,42.8184],[-4.1823,42.8203],[-4.1745,42.8116]]],[[[-3.2697,43.2021],[-3.2689,43.2341],[-3.2494,43.2596],[-3.3046,43.2587],[-3.2927,43.2411],[-3.2979,43.2067],[-3.2697,43.2021]]]]}},{"type":"Feature","properties":{"gid":"ESP.4_1","name":"卡斯蒂利亚-拉曼恰","nameEn":"Castilla-La Mancha","type":"自治区","typeEn":"Autonomous Community","groupZh":"中部高原 · 梅塞塔","groupEn":"Meseta Central","capital":"托莱多","pop":2060000,"area":79191,"blurb":"堂吉诃德的风车场：西班牙面积第三大的自治区，番红花与红酒产区拉曼恰平原。"},"geometry":{"type":"MultiPolygon","coordinates":[[[[-1.4523,38.5818],[-1.4477,38.6494],[-1.4022,38.6913],[-1.3667,38.7043],[-1.3429,38.6775],[-1.2494,38.7384],[-1.1839,38.7544],[-1.12,38.7379],[-1.1159,38.7102],[-1.0337,38.6566],[-0.9624,38.657],[-0.9157,38.696],[-0.9614,38.7748],[-0.9289,38.7839],[-0.9356,38.856],[-0.9245,38.8918],[-0.9565,38.9202],[-0.9593,38.9446],[-0.9993,38.9495],[-1.0362,38.9343],[-1.1466,38.9294],[-1.2265,39.0247],[-1.2638,39.0451],[-1.2557,39.1062],[-1.2404,39.1138],[-1.2269,39.1517],[-1.197,39.1768],[-1.1808,39.2119],[-1.1649,39.3105],[-1.1976,39.3136],[-1.2074,39.326],[-1.2233,39.3161],[-1.298,39.3312],[-1.3124,39.3431],[-1.3362,39.334],[-1.3674,39.3561],[-1.3851,39.3543],[-1.3837,39.3663],[-1.4077,39.3658],[-1.3961,39.3743],[-1.4141,39.3802],[-1.4259,39.3791],[-1.4236,39.364],[-1.4322,39.3776],[-1.455,39.3609],[-1.4492,39.3787],[-1.4681,39.3834],[-1.4532,39.3834],[-1.4527,39.3987],[-1.4732,39.3912],[-1.4701,39.4072],[-1.4885,39.4011],[-1.484,39.4229],[-1.4984,39.4153],[-1.4963,39.4289],[-1.5208,39.4315],[-1.5288,39.4553],[-1.5138,39.458],[-1.5034,39.4801],[-1.5124,39.4963],[-1.4991,39.5005],[-1.5032,39.5472],[-1.5208,39.5489],[-1.462,39.5766],[-1.4179,39.655],[-1.3685,39.6896],[-1.3128,39.6705],[-1.2795,39.6779],[-1.2619,39.6989],[-1.2754,39.737],[-1.2149,39.8088],[-1.1999,39.8595],[-1.1958,39.914],[-1.2081,39.9438],[-1.1423,39.9719],[-1.1651,40.0101],[-1.248,39.9951],[-1.3768,40.0165],[-1.4202,40.0935],[-1.4075,40.1014],[-1.4562,40.131],[-1.4391,40.197],[-1.4744,40.1851],[-1.5108,40.2037],[-1.5404,40.1908],[-1.6903,40.3097],[-1.7192,40.2771],[-1.7292,40.3032],[-1.7201,40.3185],[-1.6976,40.3213],[-1.7784,40.3921],[-1.8063,40.3983],[-1.7485,40.4629],[-1.6924,40.4868],[-1.7018,40.5382],[-1.6932,40.5777],[-1.678,40.591],[-1.5987,40.5621],[-1.5454,40.5952],[-1.5648,40.6148],[-1.5356,40.687],[-1.562,40.7398],[-1.5398,40.7607],[-1.5423,40.8112],[-1.6202,40.8795],[-1.6259,40.8987],[-1.6078,40.9276],[-1.6174,40.9437],[-1.7471,41.0339],[-1.8025,41.0892],[-1.8692,41.1079],[-1.8905,41.1333],[-1.9324,41.1386],[-1.959,41.1725],[-2.0476,41.1527],[-2.0656,41.0958],[-2.0481,41.0784],[-2.0564,41.0697],[-2.1318,41.1181],[-2.1752,41.0838],[-2.2321,41.097],[-2.2635,41.0675],[-2.2935,41.0713],[-2.3233,41.0565],[-2.3553,41.0865],[-2.4188,41.0577],[-2.4297,41.0723],[-2.4694,41.0781],[-2.4803,41.1136],[-2.5088,41.1189],[-2.5364,41.1625],[-2.5755,41.1395],[-2.596,41.1516],[-2.5781,41.1793],[-2.622,41.188],[-2.5931,41.2009],[-2.5894,41.2245],[-2.6291,41.2152],[-2.6459,41.2402],[-2.7095,41.252],[-2.7167,41.2757],[-2.7609,41.274],[-2.7754,41.2501],[-2.8222,41.2566],[-2.8668,41.2745],[-2.8689,41.3171],[-2.9066,41.3276],[-2.9411,41.3139],[-2.9501,41.2926],[-3.0179,41.2891],[-3.0618,41.2734],[-3.1997,41.3044],[-3.2389,41.2879],[-3.2548,41.2577],[-3.271,41.2752],[-3.2901,41.2579],[-3.3363,41.253],[-3.4097,41.2606],[-3.4151,41.2732],[-3.3994,41.2545],[-3.4024,41.2136],[-3.4441,41.2153],[-3.4668,41.1833],[-3.5006,41.1791],[-3.5158,41.1624],[-3.5397,41.165],[-3.5405,41.1505],[-3.4995,41.1237],[-3.488,41.0941],[-3.4258,41.0834],[-3.4382,41.0426],[-3.3945,41.0003],[-3.4181,40.9876],[-3.4445,40.9082],[-3.46,40.9083],[-3.4402,40.8919],[-3.4408,40.8761],[-3.4731,40.8644],[-3.4762,40.8263],[-3.5106,40.7886],[-3.4658,40.7843],[-3.4433,40.7608],[-3.4509,40.738],[-3.4341,40.7308],[-3.4674,40.6897],[-3.4049,40.6701],[-3.3932,40.6927],[-3.3728,40.6779],[-3.3654,40.6479],[-3.3388,40.6366],[-3.3174,40.6543],[-3.3233,40.6301],[-3.3375,40.6254],[-3.322,40.6122],[-3.3304,40.5974],[-3.2833,40.5715],[-3.2817,40.5524],[-3.2969,40.5373],[-3.2497,40.5437],[-3.2006,40.5147],[-3.1986,40.4423],[-3.1559,40.4392],[-3.1304,40.4051],[-3.1533,40.3674],[-3.1415,40.3508],[-3.1824,40.3068],[-3.1956,40.2478],[-3.1731,40.234],[-3.1533,40.2641],[-3.112,40.2856],[-3.0982,40.2751],[-3.079,40.224],[-3.0854,40.1865],[-3.0677,40.1575],[-3.0881,40.1628],[-3.0968,40.1425],[-3.0726,40.1306],[-3.0532,40.0991],[-3.0952,40.0684],[-3.1613,40.0651],[-3.1749,40.091],[-3.2049,40.059],[-3.2767,40.0474],[-3.3343,40.0816],[-3.3769,40.0752],[-3.3763,40.0498],[-3.3941,40.0355],[-3.4249,40.0471],[-3.4456,40.0374],[-3.4523,40.0502],[-3.4689,40.041],[-3.507,40.0482],[-3.5198,40.0209],[-3.5896,40.0135],[-3.5945,40.0019],[-3.638,39.9888],[-3.6349,39.9662],[-3.7448,39.9406],[-3.7559,39.9216],[-3.8146,39.8859],[-3.8695,39.9047],[-3.8758,39.9287],[-3.839,39.9422],[-3.8317,39.9301],[-3.8247,39.9467],[-3.8081,39.9548],[-3.7869,39.9465],[-3.7647,39.9664],[-3.7589,39.9579],[-3.7699,39.949],[-3.7552,39.95],[-3.7612,39.971],[-3.726,39.9665],[-3.7462,39.9808],[-3.7347,39.9771],[-3.7003,40.0189],[-3.6791,40.016],[-3.6205,40.0561],[-3.6278,40.0773],[-3.6094,40.0835],[-3.6064,40.109],[-3.6565,40.1255],[-3.6669,40.1435],[-3.6836,40.1325],[-3.7206,40.148],[-3.745,40.1327],[-3.7718,40.1396],[-3.806,40.1775],[-3.835,40.1613],[-3.8762,40.1911],[-3.9102,40.1898],[-3.9309,40.204],[-3.9492,40.1891],[-3.9529,40.2123],[-3.9923,40.2097],[-4.0259,40.2362],[-4.0236,40.2491],[-4.0711,40.2648],[-4.1041,40.2418],[-4.1436,40.245],[-4.144,40.2643],[-4.1913,40.297],[-4.2037,40.269],[-4.2457,40.2737],[-4.2711,40.2332],[-4.2958,40.2191],[-4.3108,40.2341],[-4.3215,40.2251],[-4.3481,40.2366],[-4.3568,40.3097],[-4.3811,40.3183],[-4.384,40.2892],[-4.4356,40.2593],[-4.4373,40.2377],[-4.5143,40.2172],[-4.522,40.2024],[-4.5751,40.2071],[-4.5789,40.2174],[-4.6539,40.1982],[-4.6866,40.211],[-4.698,40.2822],[-4.7611,40.2609],[-4.8041,40.2751],[-4.8181,40.2548],[-4.8076,40.2353],[-4.9246,40.17],[-4.9253,40.136],[-4.9562,40.1334],[-4.9544,40.1211],[-5.0132,40.1111],[-5.0069,40.1312],[-5.0184,40.1591],[-5.07,40.1488],[-5.0889,40.1236],[-5.1013,40.127],[-5.142,40.0915],[-5.1715,40.0848],[-5.202,40.0829],[-5.2128,40.1069],[-5.3386,40.1158],[-5.3689,40.1001],[-5.365,39.9839],[-5.406,39.8777],[-5.3263,39.892],[-5.2839,39.8639],[-5.3125,39.8243],[-5.3087,39.7604],[-5.2541,39.7526],[-5.206,39.7977],[-5.1668,39.7999],[-5.1583,39.7597],[-5.1737,39.7509],[-5.1377,39.715],[-5.1517,39.696],[-5.1513,39.6613],[-5.202,39.592],[-5.0838,39.4907],[-5.0588,39.4894],[-4.998,39.4267],[-4.9006,39.3742],[-4.8708,39.3683],[-4.8106,39.3965],[-4.7756,39.3969],[-4.6902,39.4518],[-4.6694,39.4245],[-4.7041,39.3645],[-4.7066,39.3277],[-4.7609,39.3208],[-4.7336,39.2526],[-4.7134,39.2443],[-4.7081,39.2099],[-4.6489,39.1649],[-4.7424,39.1945],[-4.8102,39.1994],[-4.8535,39.1517],[-4.8743,39.099],[-4.8583,39.0769],[-4.8257,39.0626],[-4.8327,39.0462],[-4.875,39.032],[-4.9624,39.0587],[-4.9181,38.9571],[-4.905,38.9633],[-4.831,38.9356],[-4.8477,38.8821],[-4.9148,38.8875],[-4.9434,38.8544],[-4.9607,38.7898],[-4.9899,38.7398],[-5.0468,38.7291],[-5.0079,38.7152],[-5.0045,38.6951],[-4.9361,38.6814],[-4.8769,38.6861],[-4.8601,38.614],[-4.7073,38.572],[-4.703,38.5526],[-4.6222,38.5235],[-4.5936,38.4864],[-4.5657,38.4908],[-4.5583,38.4766],[-4.5414,38.4819],[-4.5132,38.4641],[-4.4529,38.4009],[-4.2872,38.3428],[-4.2688,38.3472],[-4.2764,38.3909],[-4.2554,38.4018],[-4.156,38.3814],[-3.9124,38.3691],[-3.8542,38.3752],[-3.8305,38.3929],[-3.8299,38.4128],[-3.7855,38.4253],[-3.5981,38.3985],[-3.5857,38.4056],[-3.583,38.4515],[-3.5424,38.4457],[-3.5283,38.4087],[-3.4725,38.398],[-3.4247,38.4068],[-3.3766,38.4396],[-3.3749,38.4753],[-3.3264,38.4821],[-3.2799,38.4604],[-3.1301,38.4388],[-3.0649,38.4783],[-3.0024,38.4083],[-2.9934,38.4501],[-2.9635,38.4715],[-2.9057,38.4699],[-2.8814,38.4527],[-2.8608,38.4752],[-2.8375,38.4844],[-2.831,38.4765],[-2.8065,38.5031],[-2.7805,38.5094],[-2.7676,38.5329],[-2.6726,38.4967],[-2.5987,38.5129],[-2.5665,38.4905],[-2.5767,38.4765],[-2.5673,38.4607],[-2.5714,38.414],[-2.4833,38.3979],[-2.4923,38.3713],[-2.4791,38.3492],[-2.485,38.3003],[-2.4407,38.2851],[-2.4365,38.2722],[-2.4406,38.2324],[-2.4536,38.2183],[-2.4462,38.1852],[-2.5512,38.0841],[-2.4233,38.0337],[-2.3578,38.0225],[-2.3415,38.026],[-2.3298,38.0654],[-2.2615,38.113],[-2.2134,38.2018],[-2.1136,38.2382],[-2.0489,38.3058],[-1.986,38.2817],[-1.9075,38.298],[-1.7842,38.3562],[-1.7957,38.3703],[-1.7711,38.3649],[-1.7713,38.3786],[-1.7434,38.3813],[-1.7181,38.3641],[-1.7024,38.3749],[-1.6875,38.3659],[-1.6815,38.3499],[-1.6925,38.3375],[-1.6699,38.3124],[-1.5893,38.3112],[-1.5618,38.3241],[-1.4783,38.3764],[-1.4807,38.4809],[-1.4984,38.5321],[-1.4873,38.5632],[-1.4523,38.5818]]],[[[-3.3672,40.6303],[-3.3734,40.6412],[-3.382,40.6298],[-3.3672,40.6303]]]]}},{"type":"Feature","properties":{"gid":"ESP.5_1","name":"卡斯蒂利亚-莱昂","nameEn":"Castilla y León","type":"自治区","typeEn":"Autonomous Community","groupZh":"中部高原 · 梅塞塔","groupEn":"Meseta Central","capital":"巴利亚多利德","pop":2390000,"area":93910,"blurb":"西班牙面积最大的自治区（约 9.4 万 km²），塞戈维亚水道桥、布尔戈斯与萨拉曼卡大学城。"},"geometry":{"type":"MultiPolygon","coordinates":[[[[-5.621,40.2414],[-5.6099,40.2155],[-5.5309,40.1947],[-5.4708,40.2079],[-5.468,40.2242],[-5.4397,40.2336],[-5.4297,40.2523],[-5.3431,40.2641],[-5.3696,40.2183],[-5.3679,40.1641],[-5.3359,40.1158],[-5.2128,40.1069],[-5.202,40.0829],[-5.142,40.0915],[-5.07,40.1488],[-5.0338,40.1567],[-5.0184,40.1591],[-5.0069,40.1312],[-5.0132,40.1111],[-4.9544,40.1211],[-4.9562,40.1334],[-4.9253,40.136],[-4.9246,40.17],[-4.8076,40.2353],[-4.8181,40.2548],[-4.8041,40.2751],[-4.7611,40.2609],[-4.698,40.2822],[-4.6866,40.211],[-4.6539,40.1982],[-4.5655,40.218],[-4.5589,40.234],[-4.5691,40.2572],[-4.529,40.2928],[-4.5464,40.3421],[-4.5263,40.3449],[-4.5043,40.3151],[-4.4554,40.3199],[-4.4605,40.3403],[-4.4396,40.3503],[-4.4425,40.3857],[-4.4218,40.4064],[-4.3208,40.4107],[-4.3403,40.4291],[-4.3163,40.4654],[-4.3285,40.5348],[-4.3229,40.5511],[-4.2896,40.5644],[-4.2787,40.6042],[-4.2899,40.6084],[-4.2899,40.628],[-4.2723,40.6291],[-4.262,40.6056],[-4.2423,40.6023],[-4.1612,40.6234],[-4.173,40.6309],[-4.1719,40.6796],[-4.0976,40.7481],[-4.0788,40.7889],[-3.9796,40.7842],[-3.9465,40.8648],[-3.9432,40.8887],[-3.9526,40.8935],[-3.9377,40.9272],[-3.9224,40.9299],[-3.895,40.967],[-3.7818,41.0002],[-3.7392,41.0539],[-3.6767,41.0864],[-3.6136,41.1491],[-3.5158,41.1624],[-3.5006,41.1791],[-3.4668,41.1833],[-3.4441,41.2153],[-3.4024,41.2136],[-3.3994,41.2545],[-3.4151,41.2732],[-3.4097,41.2606],[-3.3363,41.253],[-3.2901,41.2579],[-3.271,41.2752],[-3.2548,41.2577],[-3.2389,41.2879],[-3.1997,41.3044],[-3.0618,41.2734],[-3.0179,41.2891],[-2.9501,41.2926],[-2.9411,41.3139],[-2.8884,41.3252],[-2.8668,41.3131],[-2.8668,41.2745],[-2.8222,41.2566],[-2.7754,41.2501],[-2.7609,41.274],[-2.7167,41.2757],[-2.7095,41.252],[-2.6459,41.2402],[-2.6291,41.2152],[-2.5894,41.2245],[-2.5931,41.2009],[-2.622,41.188],[-2.5781,41.1793],[-2.596,41.1516],[-2.5755,41.1395],[-2.5364,41.1625],[-2.5088,41.1189],[-2.4803,41.1136],[-2.4694,41.0781],[-2.4297,41.0723],[-2.4188,41.0577],[-2.3553,41.0865],[-2.3233,41.0565],[-2.2935,41.0713],[-2.2635,41.0675],[-2.2321,41.097],[-2.1752,41.0838],[-2.1318,41.1181],[-2.0564,41.0697],[-2.0481,41.0784],[-2.0656,41.0958],[-2.0516,41.1469],[-2.0798,41.171],[-2.1462,41.1844],[-2.1634,41.2832],[-2.1736,41.2881],[-2.1566,41.3374],[-2.1631,41.3554],[-2.116,41.3821],[-2.1167,41.425],[-2.1015,41.4458],[-2.0356,41.4269],[-2.0435,41.3972],[-2.0292,41.3842],[-1.9378,41.4074],[-1.9365,41.4199],[-1.9536,41.4243],[-1.9532,41.4625],[-1.981,41.4864],[-1.9673,41.5461],[-1.9936,41.5771],[-1.9933,41.6001],[-1.923,41.5983],[-1.8589,41.6615],[-1.8062,41.6643],[-1.812,41.6865],[-1.7868,41.6994],[-1.7753,41.7248],[-1.8092,41.7367],[-1.8026,41.7512],[-1.8529,41.7896],[-1.8185,41.83],[-1.8175,41.8534],[-1.8572,41.9095],[-1.8565,41.9664],[-1.9151,41.9323],[-1.982,41.9193],[-2.0281,41.9531],[-2.0363,41.9394],[-2.0622,41.9544],[-2.1099,41.9579],[-2.124,41.9953],[-2.1076,42.0028],[-2.1619,42.0667],[-2.127,42.0809],[-2.1273,42.0972],[-2.2088,42.1047],[-2.2695,42.0886],[-2.2821,42.1317],[-2.3191,42.1452],[-2.4384,42.1373],[-2.4843,42.1063],[-2.5146,42.1145],[-2.5148,42.0689],[-2.549,42.0515],[-2.5798,41.9963],[-2.6266,42.0065],[-2.6735,41.9981],[-2.7057,42.0151],[-2.7461,42.0087],[-2.7575,42.0326],[-2.7075,42.0905],[-2.7067,42.1057],[-2.7284,42.1229],[-2.7748,42.1235],[-2.8033,42.0805],[-2.7979,42.0468],[-2.8838,42.0095],[-2.9136,42.0228],[-2.9353,42.0894],[-3.0343,42.086],[-3.1293,42.1995],[-3.1059,42.2118],[-3.0885,42.2457],[-3.1066,42.3126],[-3.0958,42.3269],[-3.1092,42.3519],[-3.0636,42.3561],[-3.0848,42.3854],[-3.1043,42.3854],[-3.1013,42.4168],[-3.0781,42.4157],[-3.0826,42.3974],[-3.0576,42.3701],[-3.0632,42.4249],[-3.0459,42.4451],[-3.0946,42.4881],[-3.0717,42.5277],[-3.1342,42.542],[-3.1037,42.5531],[-3.0861,42.5822],[-3.0598,42.5892],[-3.0841,42.6407],[-2.9464,42.6393],[-2.916,42.6195],[-2.8821,42.6207],[-2.858,42.6382],[-2.896,42.655],[-2.9024,42.6936],[-2.9305,42.7082],[-2.9806,42.7038],[-3.0163,42.7405],[-3.0407,42.7385],[-3.0496,42.7656],[-3.1479,42.7567],[-3.1232,42.7893],[-3.1592,42.8046],[-3.1131,42.861],[-3.1051,42.8802],[-3.1149,42.8892],[-3.1607,42.8563],[-3.1906,42.8694],[-3.2221,42.8386],[-3.2055,42.8274],[-3.2258,42.8301],[-3.2826,42.8755],[-3.2772,42.9016],[-3.2485,42.9121],[-3.2247,42.9497],[-3.1447,42.9347],[-3.1495,42.9173],[-3.0895,42.899],[-3.0189,42.9085],[-2.9814,42.9388],[-3.0406,42.9694],[-3.0369,42.9822],[-3.0602,43.0035],[-3.1447,43.0068],[-3.1778,43.022],[-3.1418,43.0298],[-3.1403,43.0671],[-3.1581,43.074],[-3.1339,43.0972],[-3.1414,43.1106],[-3.152,43.1041],[-3.1817,43.1209],[-3.1428,43.1682],[-3.168,43.1786],[-3.224,43.1701],[-3.2534,43.1986],[-3.4219,43.1323],[-3.6035,43.1496],[-3.6124,43.1695],[-3.651,43.181],[-3.7046,43.1162],[-3.7559,43.0991],[-3.7569,43.085],[-3.8469,43.0844],[-3.8317,43.0638],[-3.8491,43.0411],[-3.8907,43.0418],[-3.9092,43.0161],[-3.9454,43.0057],[-3.9908,42.9308],[-3.9728,42.9117],[-3.9296,42.9147],[-3.9335,42.8996],[-3.9114,42.9234],[-3.8912,42.9255],[-3.8873,42.9487],[-3.867,42.9548],[-3.8395,42.9398],[-3.8335,42.918],[-3.8534,42.9181],[-3.8685,42.8991],[-3.9077,42.9145],[-3.8929,42.8873],[-3.9243,42.8892],[-3.8974,42.8803],[-3.9154,42.8609],[-3.8801,42.8514],[-3.8684,42.8567],[-3.874,42.8751],[-3.8637,42.8898],[-3.8367,42.8788],[-3.816,42.8105],[-3.8633,42.7864],[-3.8944,42.8045],[-3.9109,42.7684],[-3.9305,42.7745],[-3.9656,42.7586],[-3.9996,42.769],[-4.0035,42.8314],[-4.0546,42.763],[-4.0813,42.7614],[-4.0984,42.7912],[-4.1498,42.7893],[-4.1854,42.8173],[-4.1565,42.8378],[-4.1404,42.829],[-4.126,42.8566],[-4.1498,42.8711],[-4.1993,42.8447],[-4.2188,42.8505],[-4.2384,42.9543],[-4.3472,42.9721],[-4.398,43.0348],[-4.4475,43.0585],[-4.463,43.06],[-4.4756,43.0387],[-4.5208,43.0473],[-4.5584,43.0195],[-4.606,43.0357],[-4.6381,43.0166],[-4.7369,43.021],[-4.7439,43.0564],[-4.766,43.0556],[-4.7664,43.0745],[-4.8168,43.0926],[-4.8513,43.1259],[-4.8351,43.1559],[-4.8516,43.1728],[-4.8391,43.1897],[-4.8935,43.2384],[-4.9638,43.2124],[-4.9968,43.1731],[-5.0208,43.1851],[-5.0758,43.1815],[-5.1016,43.1018],[-5.1406,43.1029],[-5.1477,43.1151],[-5.2201,43.0836],[-5.2684,43.0875],[-5.282,43.0774],[-5.369,43.0945],[-5.383,43.0872],[-5.3903,43.0493],[-5.4784,43.0549],[-5.4936,43.0213],[-5.57,43.0227],[-5.6932,43.0564],[-5.7283,43.0425],[-5.7664,42.986],[-5.7628,42.9711],[-5.8039,42.9626],[-5.843,42.9642],[-5.8638,42.9813],[-5.889,42.979],[-5.8871,42.994],[-5.9145,42.9927],[-5.9566,43.0186],[-5.974,43.0649],[-6.0201,43.0548],[-6.0818,43.0757],[-6.0968,43.0306],[-6.1365,43.021],[-6.1783,43.0478],[-6.2138,43.0466],[-6.2267,43.0089],[-6.2647,43.0171],[-6.2851,43.0363],[-6.295,43.0269],[-6.3264,43.0313],[-6.359,43.0595],[-6.3734,43.0411],[-6.3969,43.0383],[-6.3942,43.0166],[-6.411,43.0169],[-6.4074,42.9995],[-6.4249,42.9876],[-6.4772,42.9919],[-6.4729,42.9677],[-6.4335,42.9641],[-6.4415,42.9473],[-6.433,42.9397],[-6.4771,42.9339],[-6.4896,42.9202],[-6.5104,42.9287],[-6.5411,42.9125],[-6.6909,42.9223],[-6.7225,42.9175],[-6.7565,42.883],[-6.7736,42.8828],[-6.7705,42.8986],[-6.8009,42.9101],[-6.8479,42.9143],[-6.8148,42.8708],[-6.8353,42.8736],[-6.8336,42.882],[-6.8711,42.8738],[-6.8402,42.8233],[-6.8691,42.8008],[-6.8673,42.7871],[-6.9355,42.7408],[-6.9593,42.755],[-6.9727,42.725],[-7.0107,42.7236],[-7.045,42.6947],[-7.0042,42.6428],[-7.0469,42.6327],[-7.05,42.5979],[-7.034,42.5841],[-7.0688,42.5544],[-7.0597,42.5293],[-7.0769,42.5082],[-7.0285,42.4978],[-7.0008,42.5057],[-6.9789,42.4932],[-6.9599,42.5177],[-6.9321,42.5205],[-6.8599,42.4887],[-6.8226,42.4908],[-6.8085,42.4694],[-6.8222,42.4539],[-6.8145,42.4269],[-6.8434,42.4058],[-6.8207,42.3856],[-6.7338,42.3591],[-6.7339,42.318],[-6.7669,42.2574],[-6.803,42.2387],[-6.787,42.2157],[-6.7966,42.209],[-6.8435,42.2283],[-6.8867,42.2143],[-6.9009,42.1896],[-6.9434,42.1722],[-6.9444,42.1417],[-6.9897,42.1213],[-6.9913,42.0995],[-7.0334,42.0742],[-7.0309,42.0633],[-6.9746,42.0551],[-6.961,42.0272],[-6.9915,41.9859],[-6.9578,41.9689],[-6.9415,41.9439],[-6.8216,41.946],[-6.8113,41.9925],[-6.7687,41.9841],[-6.7506,41.9436],[-6.7,41.9333],[-6.6214,41.9397],[-6.5883,41.9675],[-6.5749,41.9608],[-6.546,41.9361],[-6.5712,41.8835],[-6.5155,41.8716],[-6.5322,41.8354],[-6.5274,41.8208],[-6.547,41.795],[-6.5436,41.7785],[-6.5689,41.7436],[-6.5488,41.7255],[-6.5483,41.6856],[-6.4995,41.6571],[-6.4573,41.6666],[-6.4443,41.6848],[-6.3023,41.6618],[-6.2544,41.633],[-6.2358,41.607],[-6.2014,41.5945],[-6.1891,41.5748],[-6.2369,41.5213],[-6.2577,41.5141],[-6.251,41.5002],[-6.2658,41.4982],[-6.2618,41.4868],[-6.284,41.479],[-6.3053,41.4497],[-6.3,41.4287],[-6.3333,41.4103],[-6.3176,41.3857],[-6.3525,41.3783],[-6.3666,41.3934],[-6.3896,41.3847],[-6.3935,41.3698],[-6.3768,41.3593],[-6.4153,41.3479],[-6.4376,41.3053],[-6.4869,41.2913],[-6.4784,41.2758],[-6.4963,41.2661],[-6.5226,41.2756],[-6.5713,41.239],[-6.5916,41.2552],[-6.5998,41.2435],[-6.6484,41.2475],[-6.6914,41.2096],[-6.7091,41.1726],[-6.7679,41.1348],[-6.7542,41.104],[-6.8089,41.0365],[-6.8685,41.0269],[-6.9161,41.0384],[-6.9313,41.0294],[-6.9216,41.0025],[-6.8591,40.9497],[-6.8489,40.9025],[-6.809,40.8824],[-6.8002,40.8486],[-6.826,40.8434],[-6.8169,40.7971],[-6.8312,40.7528],[-6.794,40.6613],[-6.8454,40.5659],[-6.8009,40.5503],[-6.7953,40.5114],[-6.8497,40.4515],[-6.8345,40.4077],[-6.781,40.3643],[-6.7939,40.3554],[-6.7941,40.3284],[-6.8614,40.2996],[-6.8648,40.2705],[-6.8344,40.2476],[-6.7555,40.2389],[-6.7181,40.2692],[-6.69,40.2427],[-6.6716,40.2632],[-6.5869,40.2707],[-6.5561,40.2908],[-6.5603,40.3291],[-6.5362,40.3473],[-6.4382,40.3728],[-6.4187,40.3993],[-6.3759,40.4002],[-6.3445,40.4428],[-6.2752,40.4585],[-6.2312,40.4867],[-6.1576,40.457],[-6.1469,40.4361],[-6.116,40.4416],[-6.1294,40.4208],[-6.0648,40.3966],[-6.0852,40.3899],[-6.0724,40.3876],[-6.0862,40.378],[-6.0823,40.3632],[-6.1056,40.3568],[-6.0159,40.3403],[-6.0163,40.3165],[-5.992,40.299],[-5.9171,40.2777],[-5.8841,40.3266],[-5.8549,40.3384],[-5.847,40.3281],[-5.7974,40.3533],[-5.7819,40.3125],[-5.8026,40.2976],[-5.793,40.2867],[-5.6925,40.2921],[-5.6565,40.2702],[-5.6491,40.2497],[-5.621,40.2414]],[[-4.2698,40.6755],[-4.2574,40.6534],[-4.3233,40.6522],[-4.2903,40.6804],[-4.2698,40.6755]]],[[[-2.702,42.7844],[-2.7315,42.7945],[-2.8268,42.7844],[-2.8354,42.7963],[-2.8542,42.747],[-2.8684,42.7399],[-2.8253,42.7089],[-2.7845,42.6989],[-2.7678,42.666],[-2.6591,42.6724],[-2.6348,42.6478],[-2.5519,42.6492],[-2.5491,42.6376],[-2.5173,42.6463],[-2.522,42.684],[-2.5777,42.6682],[-2.6089,42.696],[-2.6003,42.7153],[-2.5726,42.7252],[-2.5583,42.7627],[-2.5893,42.7503],[-2.6023,42.7706],[-2.6437,42.7647],[-2.702,42.7844]]],[[[-4.0884,42.8185],[-4.1124,42.8223],[-4.101,42.7939],[-4.0884,42.8185]]]]}},{"type":"Feature","properties":{"gid":"ESP.6_1","name":"加泰罗尼亚","nameEn":"Cataluña","type":"自治区","typeEn":"Autonomous Community","groupZh":"地中海东岸","groupEn":"Mediterranean East","capital":"巴塞罗那","pop":7780000,"area":32093,"blurb":"经济重镇：巴塞罗那高迪建筑群、萨格雷拉山区与自己的语言（加泰罗尼亚语）。"},"geometry":{"type":"MultiPolygon","coordinates":[[[[0.438,40.5471],[0.5151,40.523],[0.5382,40.5671],[0.5568,40.5715],[0.5485,40.5749],[0.5915,40.6138],[0.6035,40.6093],[0.601,40.6221],[0.6929,40.6393],[0.7443,40.6362],[0.7112,40.5926],[0.6693,40.5924],[0.6774,40.5893],[0.6607,40.576],[0.6613,40.5918],[0.6432,40.5749],[0.6182,40.5865],[0.596,40.5765],[0.6185,40.554],[0.6704,40.5604],[0.7568,40.6399],[0.8629,40.6893],[0.8788,40.7157],[0.8743,40.7318],[0.8304,40.7335],[0.7718,40.7915],[0.7262,40.7901],[0.7826,40.7724],[0.7707,40.764],[0.7335,40.7682],[0.7043,40.786],[0.6996,40.8021],[0.7418,40.8229],[0.7488,40.8429],[0.7932,40.8674],[0.8626,40.9471],[0.9162,40.9893],[0.931,40.9882],[0.9876,41.0412],[1.1232,41.0749],[1.1724,41.0546],[1.1946,41.0907],[1.2085,41.0815],[1.1988,41.0946],[1.2485,41.1087],[1.2215,41.0835],[1.3007,41.129],[1.4018,41.1321],[1.4454,41.1593],[1.5213,41.1799],[1.6571,41.1935],[1.7359,41.2154],[1.7301,41.2054],[1.7365,41.2163],[1.8663,41.2363],[1.9321,41.2626],[2.0274,41.2668],[2.1079,41.2874],[2.1524,41.3229],[2.1649,41.3407],[2.1454,41.336],[2.186,41.3779],[2.1738,41.3421],[2.1951,41.3835],[2.266,41.4593],[2.381,41.4951],[2.5521,41.5788],[2.7735,41.6474],[2.8188,41.6885],[2.9349,41.7146],[2.9776,41.7576],[3.0443,41.7785],[3.101,41.8443],[3.1307,41.8413],[3.1443,41.8582],[3.179,41.8668],[3.1829,41.8874],[3.2026,41.8913],[3.2082,41.9174],[3.2201,41.9215],[3.2182,41.9421],[3.2338,41.9496],[3.231,41.9696],[3.2104,41.9724],[3.1935,42.0229],[3.1707,42.0232],[3.1938,42.024],[3.2126,42.069],[3.1826,42.1049],[3.1699,42.1051],[3.1768,42.1115],[3.1371,42.1157],[3.1151,42.1465],[3.119,42.229],[3.1629,42.2649],[3.2179,42.2321],[3.2285,42.2513],[3.264,42.2368],[3.2537,42.2526],[3.2818,42.254],[3.2879,42.2657],[3.2776,42.2876],[3.2999,42.2849],[3.2871,42.2924],[3.2901,42.3065],[3.3226,42.3193],[3.2682,42.3404],[3.2501,42.3299],[3.2304,42.3521],[3.204,42.3476],[3.1971,42.3349],[3.1879,42.3518],[3.1632,42.3604],[3.1554,42.3812],[3.1674,42.3899],[3.1526,42.3935],[3.171,42.416],[3.161,42.4282],[3.1743,42.4351],[3.1208,42.438],[3.0858,42.4258],[3.0409,42.4726],[2.9675,42.4655],[2.9471,42.4818],[2.9184,42.4562],[2.8708,42.4669],[2.8576,42.4542],[2.8399,42.459],[2.8277,42.4394],[2.7768,42.4117],[2.7519,42.4254],[2.6739,42.4045],[2.6712,42.3869],[2.6529,42.3844],[2.6752,42.3572],[2.6716,42.3408],[2.5668,42.3571],[2.5333,42.3335],[2.4832,42.3399],[2.4355,42.3753],[2.4333,42.392],[2.2571,42.4385],[2.2068,42.4172],[2.1569,42.4234],[2.1244,42.4076],[2.1164,42.3834],[2.084,42.3622],[2.0152,42.3474],[1.9644,42.3826],[1.9582,42.4236],[1.9412,42.4305],[1.9338,42.4542],[1.8908,42.4481],[1.8303,42.4832],[1.7309,42.4925],[1.7263,42.5049],[1.7036,42.4898],[1.6704,42.5042],[1.6559,42.4682],[1.5976,42.4676],[1.5809,42.45],[1.5612,42.4587],[1.5526,42.4335],[1.4566,42.4359],[1.4441,42.4437],[1.441,42.4755],[1.4192,42.4838],[1.4692,42.5108],[1.4437,42.5426],[1.4142,42.5377],[1.4446,42.5667],[1.4273,42.5831],[1.442,42.5993],[1.413,42.6526],[1.3871,42.6688],[1.3879,42.6873],[1.3518,42.7029],[1.3574,42.7194],[1.2519,42.7148],[1.2293,42.7277],[1.1707,42.7082],[1.1332,42.7283],[1.1292,42.7527],[1.078,42.7877],[0.9845,42.7862],[0.9604,42.8052],[0.9258,42.7897],[0.8583,42.8257],[0.7788,42.8361],[0.7082,42.8613],[0.6783,42.8551],[0.6592,42.8354],[0.6702,42.802],[0.6449,42.7831],[0.6683,42.7748],[0.6419,42.7548],[0.6634,42.7498],[0.6802,42.7233],[0.6763,42.6911],[0.66,42.6884],[0.6951,42.6587],[0.6983,42.6293],[0.7675,42.6113],[0.7409,42.545],[0.7496,42.535],[0.7351,42.5401],[0.7216,42.5252],[0.7193,42.5128],[0.7395,42.5052],[0.7133,42.4873],[0.7005,42.4959],[0.6905,42.4876],[0.7461,42.3848],[0.7233,42.3656],[0.7713,42.3507],[0.7404,42.3369],[0.7646,42.3225],[0.7449,42.3012],[0.735,42.2522],[0.7026,42.1901],[0.6986,42.1727],[0.714,42.1634],[0.6959,42.152],[0.6996,42.107],[0.6517,42.0263],[0.6639,42.0146],[0.6573,42.0016],[0.642,41.9821],[0.6386,41.9946],[0.6238,41.9918],[0.6044,41.9607],[0.587,41.9668],[0.5619,41.9382],[0.6075,41.9193],[0.5949,41.918],[0.5928,41.8844],[0.6073,41.8723],[0.5801,41.8635],[0.5801,41.8509],[0.5574,41.8542],[0.5424,41.8204],[0.5155,41.8224],[0.4833,41.8015],[0.4697,41.7656],[0.3987,41.7578],[0.3955,41.732],[0.3848,41.7403],[0.3282,41.6811],[0.3263,41.6622],[0.358,41.6317],[0.3459,41.6219],[0.3496,41.5995],[0.4021,41.5927],[0.4285,41.6024],[0.4304,41.5653],[0.447,41.5423],[0.3979,41.4913],[0.3421,41.484],[0.3554,41.4518],[0.3419,41.4138],[0.32,41.3949],[0.3738,41.3504],[0.3486,41.3298],[0.3683,41.3186],[0.3657,41.304],[0.3857,41.2789],[0.3737,41.2494],[0.3813,41.2365],[0.3224,41.2253],[0.292,41.1564],[0.253,41.1502],[0.2479,41.1302],[0.214,41.1373],[0.2013,41.1268],[0.2012,41.0847],[0.2201,41.0829],[0.2182,41.0629],[0.2302,41.0539],[0.2178,41.0437],[0.2331,41.0471],[0.2343,41.0346],[0.2462,41.0413],[0.2799,41.0198],[0.2589,41.0139],[0.2935,40.9706],[0.239,40.8849],[0.2554,40.8746],[0.2508,40.8563],[0.2783,40.8211],[0.2336,40.787],[0.23,40.7675],[0.1753,40.755],[0.1754,40.7412],[0.1592,40.7506],[0.1708,40.7329],[0.1973,40.7242],[0.2262,40.7332],[0.236,40.7021],[0.2619,40.706],[0.2919,40.6886],[0.2683,40.6596],[0.2789,40.6301],[0.3453,40.6076],[0.3892,40.6066],[0.444,40.5782],[0.438,40.5471]]],[[[1.9767,42.4862],[1.9627,42.4768],[1.9602,42.4535],[2.0102,42.4492],[1.9866,42.4727],[1.9967,42.4867],[1.9804,42.4944],[1.9767,42.4862]]]]}},{"type":"Feature","properties":{"gid":"ESP.7_1","name":"休达与梅利利亚","nameEn":"Ceuta y Melilla","type":"自治市","typeEn":"Autonomous City","groupZh":"海岛与北非飞地","groupEn":"Islands & Enclaves","capital":"—","pop":90000,"area":30,"blurb":"北非海岸的两座自治市（西班牙本土外的飞地），面积合计不到 30 km²，地中海出入门户。"},"geometry":{"type":"MultiPolygon","coordinates":[[[[-2.9517,35.2828],[-2.9229,35.2901],[-2.954,35.3227],[-2.9626,35.3],[-2.9517,35.2828]]],[[[-5.3849,35.9118],[-5.3774,35.8836],[-5.3412,35.8746],[-5.2782,35.8971],[-5.289,35.9071],[-5.3129,35.8901],[-5.3657,35.9182],[-5.3849,35.9118]]]]}},{"type":"Feature","properties":{"gid":"ESP.8_1","name":"马德里自治区","nameEn":"Comunidad de Madrid","type":"自治区","typeEn":"Autonomous Community","groupZh":"中部高原 · 梅塞塔","groupEn":"Meseta Central","capital":"马德里","pop":6770000,"area":8032,"blurb":"首都所在：面积只有全国 1.6%，却贡献约五分之一的经济产出，海拔 650 m 的欧洲高地都会。"},"geometry":{"type":"MultiPolygon","coordinates":[[[[-3.8729,39.909],[-3.8038,39.8846],[-3.7448,39.9406],[-3.6349,39.9662],[-3.638,39.9888],[-3.5945,40.0019],[-3.5896,40.0135],[-3.5198,40.0209],[-3.507,40.0482],[-3.4689,40.041],[-3.4523,40.0502],[-3.4456,40.0374],[-3.4249,40.0471],[-3.3941,40.0355],[-3.3763,40.0498],[-3.3769,40.0752],[-3.3343,40.0816],[-3.2767,40.0474],[-3.2049,40.059],[-3.1893,40.0827],[-3.1663,40.0913],[-3.1613,40.0651],[-3.1178,40.0617],[-3.0532,40.0991],[-3.0726,40.1306],[-3.0968,40.1425],[-3.0881,40.1628],[-3.0677,40.1575],[-3.0854,40.1865],[-3.079,40.224],[-3.0982,40.2751],[-3.112,40.2856],[-3.1533,40.2641],[-3.1731,40.234],[-3.1956,40.2478],[-3.1824,40.3068],[-3.1415,40.3508],[-3.1533,40.3674],[-3.1304,40.4051],[-3.1559,40.4392],[-3.1986,40.4423],[-3.2006,40.5147],[-3.2497,40.5437],[-3.2969,40.5373],[-3.2817,40.5524],[-3.2833,40.5715],[-3.3304,40.5974],[-3.322,40.6122],[-3.3375,40.6254],[-3.3233,40.6301],[-3.3174,40.6543],[-3.3388,40.6366],[-3.3654,40.6479],[-3.3728,40.6779],[-3.3932,40.6927],[-3.4049,40.6701],[-3.4674,40.6897],[-3.4341,40.7308],[-3.4509,40.738],[-3.4433,40.7608],[-3.4658,40.7843],[-3.5106,40.7886],[-3.4762,40.8263],[-3.4731,40.8644],[-3.4408,40.8761],[-3.4402,40.8919],[-3.46,40.9083],[-3.4445,40.9082],[-3.4181,40.9876],[-3.3945,41.0003],[-3.4382,41.0426],[-3.4258,41.0834],[-3.488,41.0941],[-3.4995,41.1237],[-3.5405,41.1505],[-3.5397,41.165],[-3.6136,41.1491],[-3.6767,41.0864],[-3.7392,41.0539],[-3.7818,41.0002],[-3.895,40.967],[-3.9224,40.9299],[-3.9377,40.9272],[-3.9526,40.8935],[-3.9432,40.8887],[-3.9465,40.8648],[-3.9796,40.7842],[-4.0788,40.7889],[-4.0976,40.7481],[-4.1719,40.6796],[-4.173,40.6309],[-4.1612,40.6234],[-4.2423,40.6023],[-4.262,40.6056],[-4.2723,40.6291],[-4.2899,40.628],[-4.2899,40.6084],[-4.2787,40.6042],[-4.2896,40.5644],[-4.3229,40.5511],[-4.3285,40.5348],[-4.3163,40.4654],[-4.3403,40.4291],[-4.3208,40.4107],[-4.4218,40.4064],[-4.4425,40.3857],[-4.4396,40.3503],[-4.4605,40.3403],[-4.4554,40.3199],[-4.5043,40.3151],[-4.5263,40.3449],[-4.5477,40.3394],[-4.529,40.2928],[-4.5691,40.2572],[-4.5589,40.234],[-4.5655,40.218],[-4.5789,40.2174],[-4.5751,40.2071],[-4.522,40.2024],[-4.5143,40.2172],[-4.4373,40.2377],[-4.4356,40.2593],[-4.384,40.2892],[-4.3811,40.3183],[-4.3568,40.3097],[-4.3481,40.2366],[-4.3215,40.2251],[-4.3108,40.2341],[-4.2958,40.2191],[-4.2711,40.2332],[-4.2457,40.2737],[-4.2037,40.269],[-4.1913,40.297],[-4.144,40.2643],[-4.1436,40.245],[-4.1041,40.2418],[-4.0711,40.2648],[-4.0236,40.2491],[-4.0259,40.2362],[-3.9923,40.2097],[-3.9529,40.2123],[-3.9492,40.1891],[-3.9309,40.204],[-3.9102,40.1898],[-3.8762,40.1911],[-3.835,40.1613],[-3.806,40.1775],[-3.7718,40.1396],[-3.745,40.1327],[-3.7206,40.148],[-3.6836,40.1325],[-3.6669,40.1435],[-3.6565,40.1255],[-3.6064,40.109],[-3.6094,40.0835],[-3.6278,40.0773],[-3.6205,40.0561],[-3.6791,40.016],[-3.7003,40.0189],[-3.7347,39.9771],[-3.7462,39.9808],[-3.726,39.9665],[-3.7612,39.971],[-3.7552,39.95],[-3.7699,39.949],[-3.7589,39.9579],[-3.7647,39.9664],[-3.7869,39.9465],[-3.8081,39.9548],[-3.8247,39.9467],[-3.8317,39.9301],[-3.8517,39.9394],[-3.8758,39.9287],[-3.8729,39.909]],[[-3.3642,40.6351],[-3.382,40.6298],[-3.3734,40.6412],[-3.3642,40.6351]]],[[[-4.2574,40.6534],[-4.2565,40.6638],[-4.2855,40.6805],[-4.3247,40.6577],[-4.3196,40.6475],[-4.2574,40.6534]]]]}},{"type":"Feature","properties":{"gid":"ESP.9_1","name":"纳瓦拉","nameEn":"Comunidad Foral de Navarra","type":"自治区","typeEn":"Autonomous Community","groupZh":"绿色西班牙 · 北部","groupEn":"Green Spain","capital":"潘普洛纳","pop":660000,"area":10351,"blurb":"奔牛节的故乡，圣雅各之路的咽喉；历史上独立的纳瓦拉王国故地。"},"geometry":{"type":"Polygon","coordinates":[[[-1.6109,41.9465],[-1.5962,41.9271],[-1.5233,41.9099],[-1.5017,41.9243],[-1.4182,41.9136],[-1.3822,41.9433],[-1.386,41.957],[-1.3033,42.0518],[-1.3105,42.0723],[-1.3522,42.0731],[-1.3667,42.107],[-1.3988,42.1262],[-1.3917,42.1796],[-1.4163,42.222],[-1.3913,42.2721],[-1.399,42.2913],[-1.329,42.3554],[-1.3362,42.372],[-1.3597,42.3784],[-1.3415,42.4239],[-1.2813,42.4645],[-1.2727,42.4824],[-1.2934,42.511],[-1.2881,42.5228],[-1.2647,42.5568],[-1.2261,42.5422],[-1.2028,42.5497],[-1.2019,42.5782],[-1.1581,42.5996],[-1.18,42.6079],[-1.1708,42.6171],[-1.1576,42.6105],[-1.1524,42.6476],[-1.0532,42.6424],[-1.0368,42.6516],[-1.0392,42.6916],[-1.0279,42.7001],[-0.9486,42.7115],[-0.923,42.744],[-0.9011,42.7427],[-0.9005,42.7605],[-0.8648,42.7634],[-0.8475,42.7859],[-0.86,42.7986],[-0.8568,42.8469],[-0.8185,42.8694],[-0.8191,42.9007],[-0.7832,42.9217],[-0.7268,42.9209],[-0.7528,42.967],[-0.8088,42.9515],[-0.91,42.9638],[-0.9451,42.9535],[-1.0105,42.9911],[-1.072,42.9979],[-1.1133,43.0212],[-1.1414,43.0076],[-1.1456,43.0245],[-1.2124,43.0514],[-1.2636,43.0442],[-1.3085,43.0692],[-1.2705,43.1183],[-1.3321,43.1079],[-1.3452,43.093],[-1.3537,43.028],[-1.4414,43.0462],[-1.4734,43.0866],[-1.4157,43.1285],[-1.4019,43.1785],[-1.3849,43.1883],[-1.3842,43.2532],[-1.4132,43.2734],[-1.4383,43.2667],[-1.5219,43.2934],[-1.5617,43.2884],[-1.5747,43.2505],[-1.608,43.2523],[-1.6302,43.2849],[-1.6239,43.304],[-1.6694,43.3142],[-1.7832,43.2868],[-1.7949,43.2469],[-1.8334,43.2246],[-1.8517,43.2267],[-1.8603,43.2122],[-1.8675,43.2304],[-1.8807,43.2281],[-1.8817,43.2068],[-1.9159,43.223],[-1.9204,43.1501],[-1.9022,43.1355],[-1.9475,43.0975],[-2.0228,43.0652],[-2.0208,43.0466],[-2.0414,43.0297],[-2.0283,42.9988],[-2.0383,42.981],[-2.0952,42.9725],[-2.1176,42.9422],[-2.1809,42.9351],[-2.1991,42.9512],[-2.2321,42.9318],[-2.2377,42.896],[-2.253,42.8928],[-2.2409,42.8856],[-2.2326,42.8438],[-2.281,42.7851],[-2.2624,42.7482],[-2.3168,42.7393],[-2.3237,42.7241],[-2.3128,42.7087],[-2.3168,42.6825],[-2.2893,42.6683],[-2.2933,42.6509],[-2.3819,42.6343],[-2.3762,42.6507],[-2.4157,42.6627],[-2.45,42.6472],[-2.483,42.6122],[-2.5,42.6165],[-2.4906,42.5854],[-2.4622,42.5874],[-2.4532,42.5671],[-2.4211,42.6071],[-2.3967,42.5991],[-2.3922,42.5169],[-2.4237,42.5096],[-2.4207,42.4893],[-2.4001,42.4718],[-2.3522,42.4656],[-2.3458,42.4514],[-2.3318,42.454],[-2.3319,42.4681],[-2.2974,42.4575],[-2.288,42.4674],[-2.2737,42.4452],[-2.2379,42.4404],[-2.2411,42.4301],[-2.2142,42.4242],[-2.2162,42.4156],[-2.1867,42.4188],[-2.1764,42.4081],[-2.1112,42.4196],[-2.1156,42.3995],[-2.0789,42.3688],[-2.0899,42.347],[-2.0699,42.3425],[-2.0148,42.3693],[-1.9955,42.3636],[-1.9695,42.3525],[-1.964,42.3337],[-1.9185,42.327],[-1.907,42.3085],[-1.9146,42.3009],[-1.8706,42.289],[-1.8726,42.253],[-1.8489,42.2589],[-1.8205,42.2492],[-1.8197,42.2329],[-1.7999,42.2228],[-1.7253,42.2145],[-1.7057,42.207],[-1.7042,42.192],[-1.6814,42.1924],[-1.7008,42.1731],[-1.6796,42.1517],[-1.7198,42.1334],[-1.7397,42.1497],[-1.779,42.1377],[-1.8324,42.1482],[-1.9057,42.0671],[-1.9015,42.0297],[-1.8336,41.9951],[-1.7668,41.9958],[-1.7152,41.957],[-1.6541,41.9654],[-1.6109,41.9465]]]}},{"type":"Feature","properties":{"gid":"ESP.10_1","name":"巴伦西亚自治区","nameEn":"Comunidad Valenciana","type":"自治区","typeEn":"Autonomous Community","groupZh":"地中海东岸","groupEn":"Mediterranean East","capital":"巴伦西亚","pop":5180000,"area":23286,"blurb":"地中海米仓与橙乡：巴伦西亚、阿利坎特与海鲜饭（paella）的发明地。"},"geometry":{"type":"MultiPolygon","coordinates":[[[[-0.7524,37.8865],[-0.7407,37.9093],[-0.719,37.9115],[-0.7207,37.9296],[-0.6968,37.9693],[-0.666,37.9757],[-0.6474,37.9996],[-0.6449,38.1113],[-0.6146,38.174],[-0.5951,38.189],[-0.5376,38.1871],[-0.5104,38.201],[-0.521,38.2899],[-0.5062,38.3326],[-0.4929,38.329],[-0.4826,38.3424],[-0.4868,38.3293],[-0.4449,38.3632],[-0.4021,38.3526],[-0.4104,38.3679],[-0.4013,38.4121],[-0.3751,38.4426],[-0.3162,38.4749],[-0.1732,38.5154],[-0.1476,38.5368],[-0.0965,38.5235],[-0.0487,38.5632],[-0.0624,38.581],[-0.0282,38.6188],[-0.006,38.6304],[0.031,38.6251],[0.0482,38.6415],[0.0832,38.6312],[0.0732,38.6451],[0.0946,38.6696],[0.1304,38.6862],[0.1496,38.6799],[0.1826,38.7212],[0.2349,38.7371],[0.2254,38.7643],[0.1893,38.7732],[0.1826,38.7951],[0.1979,38.8049],[0.1126,38.8429],[0.1257,38.8488],[-0.0149,38.8713],[-0.1593,38.9938],[-0.1513,38.9971],[-0.1874,39.0363],[-0.2368,39.1279],[-0.2401,39.1743],[-0.216,39.1868],[-0.2926,39.3065],[-0.3343,39.4235],[-0.3657,39.4349],[-0.3315,39.426],[-0.3201,39.444],[-0.3304,39.4601],[-0.3096,39.4501],[-0.324,39.4712],[-0.3162,39.5235],[-0.2812,39.5624],[-0.2499,39.6257],[-0.2157,39.6549],[-0.2087,39.6429],[-0.2101,39.6535],[-0.1946,39.6465],[-0.2143,39.6576],[-0.1821,39.7335],[-0.0879,39.8554],[-0.006,39.9146],[0.0085,39.9663],[0.0287,39.9668],[0.0226,39.9793],[0.0493,40.0351],[0.1482,40.0829],[0.1837,40.1632],[0.264,40.2079],[0.2868,40.2532],[0.3257,40.2754],[0.4071,40.3557],[0.4179,40.4012],[0.436,40.4093],[0.4665,40.4607],[0.4779,40.4582],[0.5135,40.5157],[0.438,40.5471],[0.444,40.5782],[0.402,40.6024],[0.2789,40.6301],[0.2683,40.6596],[0.2919,40.6886],[0.2619,40.706],[0.236,40.7021],[0.2262,40.7332],[0.1973,40.7242],[0.1708,40.7329],[0.1414,40.7185],[0.1125,40.7272],[0.0422,40.691],[0.0265,40.695],[0.0158,40.7285],[-0.0647,40.7274],[-0.1257,40.7529],[-0.1445,40.7855],[-0.1649,40.7887],[-0.1971,40.7845],[-0.224,40.7542],[-0.2392,40.7181],[-0.2359,40.6911],[-0.3069,40.6595],[-0.3288,40.6803],[-0.378,40.6674],[-0.3704,40.6136],[-0.322,40.6029],[-0.2932,40.6111],[-0.2998,40.5774],[-0.2901,40.544],[-0.3018,40.516],[-0.2811,40.5052],[-0.2714,40.4785],[-0.3473,40.444],[-0.28,40.3695],[-0.3406,40.34],[-0.3662,40.3051],[-0.3789,40.31],[-0.4001,40.2957],[-0.3836,40.2649],[-0.4945,40.2288],[-0.5441,40.2517],[-0.5784,40.1381],[-0.6065,40.1283],[-0.6286,40.1021],[-0.6135,40.07],[-0.6272,40.0762],[-0.6829,40.0443],[-0.7475,40.0379],[-0.7536,40.0466],[-0.7778,39.9983],[-0.8379,39.9766],[-0.8404,39.925],[-0.7976,39.8811],[-0.8635,39.8474],[-0.9125,39.8724],[-0.9002,39.8919],[-0.9138,39.918],[-0.9026,39.9319],[-0.9204,39.9644],[-0.9318,39.9561],[-0.9913,39.9819],[-1.0715,39.9797],[-1.0921,39.9678],[-1.1162,39.9721],[-1.1217,39.9609],[-1.1423,39.9719],[-1.2039,39.9494],[-1.1999,39.8595],[-1.2149,39.8088],[-1.2754,39.737],[-1.2619,39.6989],[-1.2795,39.6779],[-1.3128,39.6705],[-1.3685,39.6896],[-1.4179,39.655],[-1.462,39.5766],[-1.5208,39.5489],[-1.5032,39.5472],[-1.4991,39.5005],[-1.5124,39.4963],[-1.5035,39.4786],[-1.528,39.4522],[-1.5184,39.449],[-1.5208,39.4315],[-1.4963,39.4289],[-1.5051,39.418],[-1.484,39.4229],[-1.4885,39.4011],[-1.4701,39.4072],[-1.4771,39.3948],[-1.4672,39.3904],[-1.4527,39.3987],[-1.4532,39.3834],[-1.4681,39.3834],[-1.4492,39.3787],[-1.455,39.3609],[-1.4322,39.3776],[-1.4236,39.364],[-1.4259,39.3791],[-1.4141,39.3802],[-1.3961,39.3743],[-1.4077,39.3658],[-1.3837,39.3663],[-1.3851,39.3543],[-1.3674,39.3561],[-1.3362,39.334],[-1.3124,39.3431],[-1.2233,39.3161],[-1.2074,39.326],[-1.1618,39.3054],[-1.1808,39.2119],[-1.197,39.1768],[-1.2269,39.1517],[-1.2404,39.1138],[-1.2557,39.1062],[-1.2638,39.0451],[-1.2265,39.0247],[-1.1466,38.9294],[-1.0362,38.9343],[-0.9993,38.9495],[-0.9593,38.9446],[-0.9565,38.9202],[-0.9245,38.8918],[-0.9356,38.856],[-0.9289,38.7839],[-0.9614,38.7748],[-0.9157,38.696],[-0.9624,38.657],[-1.0261,38.6557],[-1.0015,38.5729],[-1.0262,38.5225],[-1.0139,38.4971],[-1.0941,38.4383],[-1.076,38.4317],[-1.085,38.4291],[-1.0881,38.3677],[-1.0844,38.3465],[-0.989,38.3206],[-0.9673,38.2722],[-0.9887,38.1996],[-1.0366,38.1374],[-1.0222,38.0752],[-0.9213,37.9445],[-0.8302,37.8643],[-0.7708,37.8441],[-0.7524,37.8865]]],[[[-0.4787,38.1668],[-0.4876,38.1674],[-0.4638,38.1626],[-0.4787,38.1668]]],[[[-0.3243,39.434],[-0.3143,39.4224],[-0.3085,39.4301],[-0.3143,39.4232],[-0.3243,39.434]]],[[[-0.3021,39.4485],[-0.3132,39.4429],[-0.3043,39.4468],[-0.3035,39.4338],[-0.3021,39.4485]]],[[[-1.2757,40.0041],[-1.248,39.9951],[-1.1361,40.0151],[-1.0842,40.0362],[-1.0721,40.0605],[-1.1497,40.1148],[-1.2449,40.1162],[-1.2442,40.146],[-1.2843,40.1715],[-1.2982,40.2117],[-1.3229,40.1849],[-1.3197,40.1464],[-1.357,40.1289],[-1.3636,40.1386],[-1.4488,40.1454],[-1.4572,40.1351],[-1.4075,40.1014],[-1.4202,40.0935],[-1.3768,40.0165],[-1.2757,40.0041]]]]}},{"type":"Feature","properties":{"gid":"ESP.11_1","name":"埃斯特雷马杜拉","nameEn":"Extremadura","type":"自治区","typeEn":"Autonomous Community","groupZh":"中部高原 · 梅塞塔","groupEn":"Meseta Central","capital":"梅里达","pop":1060000,"area":41613,"blurb":"与葡萄牙接壤的人口流失大省，征服美洲的科尔特斯与皮萨罗皆出身于此。"},"geometry":{"type":"Polygon","coordinates":[[[-6.0639,37.9896],[-5.9536,37.9954],[-5.9341,38.0469],[-5.9089,38.0629],[-5.9292,38.0892],[-5.9264,38.1044],[-5.9128,38.1227],[-5.8808,38.1322],[-5.8774,38.1554],[-5.8514,38.1719],[-5.7572,38.1806],[-5.728,38.1974],[-5.6946,38.1865],[-5.6841,38.1571],[-5.7057,38.1694],[-5.6946,38.1504],[-5.7406,38.1266],[-5.7348,38.0863],[-5.7103,38.0811],[-5.6333,38.1381],[-5.5847,38.1317],[-5.5739,38.1507],[-5.5388,38.1617],[-5.5388,38.1998],[-5.5209,38.2072],[-5.5237,38.2492],[-5.5511,38.311],[-5.5755,38.3296],[-5.5595,38.3676],[-5.5849,38.3859],[-5.5844,38.4003],[-5.568,38.4334],[-5.5196,38.4632],[-5.4843,38.4634],[-5.4794,38.4847],[-5.4188,38.5125],[-5.4071,38.5433],[-5.3829,38.5411],[-5.3927,38.5528],[-5.3716,38.5836],[-5.3095,38.5773],[-5.2932,38.6091],[-5.2449,38.6321],[-5.2238,38.6565],[-5.2146,38.6486],[-5.2079,38.6679],[-5.1849,38.6594],[-5.1856,38.6742],[-5.1676,38.6817],[-5.1844,38.7197],[-5.1007,38.7077],[-4.9899,38.7398],[-4.9607,38.7898],[-4.9434,38.8544],[-4.9148,38.8875],[-4.8477,38.8821],[-4.8329,38.9393],[-4.905,38.9633],[-4.9181,38.9571],[-4.9624,39.0587],[-4.875,39.032],[-4.8327,39.0462],[-4.8257,39.0626],[-4.8583,39.0769],[-4.8743,39.099],[-4.8535,39.1517],[-4.8102,39.1994],[-4.6475,39.1687],[-4.7081,39.2099],[-4.7134,39.2443],[-4.7336,39.2526],[-4.7609,39.3208],[-4.7066,39.3277],[-4.7041,39.3645],[-4.6694,39.4245],[-4.6876,39.4503],[-4.7756,39.3969],[-4.8106,39.3965],[-4.8708,39.3683],[-4.9496,39.3931],[-5.2065,39.5972],[-5.1614,39.6431],[-5.1377,39.715],[-5.1737,39.7509],[-5.1583,39.7597],[-5.1668,39.7999],[-5.206,39.7977],[-5.2541,39.7526],[-5.3087,39.7604],[-5.3125,39.8243],[-5.2839,39.8639],[-5.3263,39.892],[-5.406,39.8777],[-5.365,39.9839],[-5.3689,40.1001],[-5.3359,40.1158],[-5.3679,40.1641],[-5.3696,40.2183],[-5.3431,40.2641],[-5.4297,40.2523],[-5.4397,40.2336],[-5.468,40.2242],[-5.4708,40.2079],[-5.541,40.1959],[-5.6099,40.2155],[-5.6219,40.2459],[-5.6491,40.2497],[-5.6565,40.2702],[-5.6925,40.2921],[-5.793,40.2867],[-5.8026,40.2976],[-5.7819,40.3125],[-5.7974,40.3533],[-5.847,40.3281],[-5.8549,40.3384],[-5.8841,40.3266],[-5.9171,40.2777],[-5.9377,40.2811],[-6.0061,40.3061],[-6.0195,40.3226],[-6.0159,40.3403],[-6.1056,40.3568],[-6.0823,40.3632],[-6.0862,40.378],[-6.0724,40.3876],[-6.0852,40.3899],[-6.0648,40.3966],[-6.1294,40.4208],[-6.116,40.4416],[-6.1469,40.4361],[-6.1576,40.457],[-6.2312,40.4867],[-6.2752,40.4585],[-6.3445,40.4428],[-6.3759,40.4002],[-6.4187,40.3993],[-6.4382,40.3728],[-6.5362,40.3473],[-6.5603,40.3291],[-6.5561,40.2908],[-6.5869,40.2707],[-6.6716,40.2632],[-6.69,40.2427],[-6.7181,40.2692],[-6.7555,40.2389],[-6.8344,40.2476],[-6.8648,40.2705],[-6.9073,40.2539],[-6.9514,40.2576],[-6.9633,40.2382],[-7.0127,40.2254],[-7.03,40.1864],[-7.0165,40.1765],[-7.0131,40.1264],[-6.993,40.1125],[-6.9409,40.1125],[-6.9173,40.0661],[-6.8923,40.0602],[-6.8773,40.0182],[-6.8638,40.012],[-6.8867,39.9793],[-6.885,39.9407],[-6.9066,39.9238],[-6.9036,39.8707],[-6.9484,39.8275],[-6.9872,39.81],[-6.9768,39.7723],[-7.0155,39.6704],[-7.1514,39.6531],[-7.2515,39.6668],[-7.3337,39.6408],[-7.4555,39.6624],[-7.5417,39.6637],[-7.5276,39.6559],[-7.5274,39.6349],[-7.4994,39.5896],[-7.4612,39.5728],[-7.4303,39.5345],[-7.3907,39.5297],[-7.3819,39.4912],[-7.3478,39.488],[-7.2943,39.4568],[-7.3228,39.3813],[-7.3075,39.3361],[-7.2315,39.2783],[-7.248,39.2534],[-7.2415,39.2083],[-7.2079,39.1873],[-7.1347,39.1712],[-7.144,39.1086],[-7.1053,39.0992],[-7.0388,39.1184],[-6.996,39.0993],[-6.9627,39.0608],[-6.9678,39.0395],[-6.9511,39.0236],[-7.0275,38.9229],[-7.0522,38.907],[-7.033,38.8788],[-7.0393,38.8647],[-7.0686,38.8542],[-7.0964,38.816],[-7.1286,38.8138],[-7.2124,38.745],[-7.2594,38.7242],[-7.2725,38.6384],[-7.2436,38.624],[-7.3146,38.5139],[-7.3216,38.4783],[-7.3004,38.483],[-7.2986,38.4696],[-7.3359,38.4358],[-7.3171,38.4403],[-7.2798,38.4197],[-7.2713,38.3948],[-7.2023,38.329],[-7.1697,38.2793],[-7.1506,38.2758],[-7.1398,38.2355],[-7.0851,38.1692],[-7.0663,38.1865],[-7.0286,38.1825],[-7.0112,38.2045],[-6.9805,38.2113],[-6.972,38.2021],[-6.9367,38.2207],[-6.9378,38.2069],[-6.858,38.1799],[-6.795,38.1785],[-6.8157,38.1201],[-6.8082,38.1112],[-6.7696,38.112],[-6.7581,38.0927],[-6.7319,38.0901],[-6.7196,38.1006],[-6.6492,38.09],[-6.6223,38.0972],[-6.5804,38.0528],[-6.5822,38.0209],[-6.5456,38.0281],[-6.4653,38.011],[-6.4737,38.0244],[-6.4442,38.0461],[-6.4523,38.056],[-6.4138,38.0586],[-6.3671,38.0489],[-6.3526,38.0074],[-6.3032,37.9783],[-6.2331,37.958],[-6.2011,37.9619],[-6.1801,37.941],[-6.1152,37.9818],[-6.0639,37.9896]]]}},{"type":"Feature","properties":{"gid":"ESP.12_1","name":"加利西亚","nameEn":"Galicia","type":"自治区","typeEn":"Autonomous Community","groupZh":"绿色西班牙 · 北部","groupEn":"Green Spain","capital":"圣地亚哥-德孔波斯特拉","pop":2680000,"area":29529,"blurb":"大西洋海岸与「世界尽头」菲尼斯特雷角，圣地亚哥朝圣之路的终点，有自己的语言加利西亚语。"},"geometry":{"type":"MultiPolygon","coordinates":[[[[-7.5272,41.8402],[-7.5056,41.8508],[-7.5133,41.8621],[-7.5022,41.8694],[-7.4525,41.8651],[-7.4437,41.8394],[-7.4258,41.8302],[-7.4276,41.8074],[-7.3658,41.8528],[-7.3564,41.8405],[-7.3153,41.8425],[-7.1967,41.88],[-7.1735,41.9191],[-7.1895,41.9416],[-7.1854,41.9723],[-7.1414,41.9907],[-7.0875,41.9735],[-7.0734,41.95],[-7.0062,41.9506],[-6.9834,41.9729],[-6.9902,41.9897],[-6.961,42.0272],[-6.9746,42.0551],[-7.0125,42.0527],[-7.0334,42.0742],[-7.0031,42.0839],[-6.9897,42.1213],[-6.9563,42.1294],[-6.9434,42.1722],[-6.9009,42.1896],[-6.8867,42.2143],[-6.8435,42.2283],[-6.7966,42.209],[-6.787,42.2157],[-6.803,42.2387],[-6.7669,42.2574],[-6.7339,42.318],[-6.7338,42.3591],[-6.8207,42.3856],[-6.8434,42.4058],[-6.8145,42.4269],[-6.8222,42.4539],[-6.8085,42.4694],[-6.8226,42.4908],[-6.8599,42.4887],[-6.9321,42.5205],[-6.9599,42.5177],[-6.9789,42.4932],[-7.0008,42.5057],[-7.0285,42.4978],[-7.0769,42.5082],[-7.0597,42.5293],[-7.0688,42.5544],[-7.034,42.5841],[-7.05,42.5979],[-7.0469,42.6327],[-7.0042,42.6428],[-7.045,42.6947],[-7.0107,42.7236],[-6.9727,42.725],[-6.9593,42.755],[-6.9355,42.7408],[-6.8673,42.7871],[-6.8691,42.8008],[-6.8402,42.8233],[-6.8711,42.8738],[-6.8336,42.882],[-6.8353,42.8736],[-6.8148,42.8708],[-6.8479,42.9143],[-6.824,42.915],[-6.8417,42.9282],[-6.8359,42.9577],[-6.8647,42.9838],[-6.9102,42.9901],[-6.957,43.0367],[-6.9621,42.9906],[-6.997,43.0194],[-6.9818,43.0413],[-6.9645,43.0346],[-6.966,43.0613],[-6.938,43.0867],[-6.9155,43.0734],[-6.8938,43.0918],[-6.8712,43.0912],[-6.8275,43.1231],[-6.8214,43.1432],[-6.8388,43.1661],[-6.8716,43.1798],[-6.8681,43.19],[-6.8853,43.1568],[-6.9572,43.1354],[-6.9806,43.1668],[-6.965,43.187],[-6.9709,43.2042],[-7.0013,43.2072],[-7.0094,43.2228],[-7.0199,43.2132],[-7.0614,43.244],[-7.0714,43.2712],[-7.0596,43.3053],[-7.1011,43.3041],[-7.1306,43.3302],[-7.1274,43.3726],[-7.1389,43.3833],[-7.1594,43.3747],[-7.1821,43.392],[-7.1684,43.4035],[-7.1728,43.4304],[-7.1027,43.427],[-7.0853,43.4445],[-7.0902,43.4539],[-7.0482,43.4774],[-7.0557,43.4954],[-7.0354,43.5354],[-7.0404,43.5565],[-7.1704,43.556],[-7.2374,43.5693],[-7.2426,43.5518],[-7.2671,43.5407],[-7.246,43.5765],[-7.2949,43.5924],[-7.3093,43.6174],[-7.3374,43.6318],[-7.3576,43.6721],[-7.446,43.6938],[-7.4626,43.7021],[-7.4599,43.7126],[-7.471,43.7032],[-7.4782,43.7135],[-7.4585,43.7168],[-7.4913,43.7332],[-7.5149,43.7199],[-7.5237,43.7365],[-7.5476,43.7337],[-7.5588,43.7124],[-7.5846,43.7121],[-7.5768,43.6926],[-7.6032,43.6824],[-7.594,43.6693],[-7.6015,43.6579],[-7.5968,43.6688],[-7.614,43.6787],[-7.6063,43.7182],[-7.6293,43.7204],[-7.6379,43.7532],[-7.6726,43.7471],[-7.6829,43.7296],[-7.6965,43.7343],[-7.6904,43.7085],[-7.7099,43.7088],[-7.6965,43.7154],[-7.701,43.7365],[-7.6868,43.7429],[-7.6885,43.756],[-7.6621,43.7754],[-7.6893,43.7915],[-7.6885,43.7765],[-7.716,43.7557],[-7.8126,43.7268],[-7.8076,43.7168],[-7.8296,43.7088],[-7.8082,43.6954],[-7.861,43.7062],[-7.8687,43.6979],[-7.8446,43.671],[-7.8851,43.6638],[-7.8968,43.6707],[-7.8707,43.6749],[-7.8904,43.6868],[-7.8782,43.6871],[-7.8699,43.7065],[-7.8774,43.7215],[-7.8587,43.7093],[-7.8496,43.7171],[-7.8718,43.7324],[-7.8621,43.7337],[-7.8587,43.7588],[-7.8682,43.7743],[-7.906,43.769],[-7.9212,43.744],[-7.9507,43.7418],[-7.9515,43.7293],[-7.9996,43.7057],[-8.0335,43.7143],[-8.0624,43.7054],[-8.0765,43.6607],[-8.0524,43.6576],[-8.0718,43.6488],[-8.0507,43.6332],[-8.0857,43.6387],[-8.0929,43.6671],[-8.1018,43.6449],[-8.1229,43.6437],[-8.1604,43.6143],[-8.1876,43.6218],[-8.2174,43.5821],[-8.2626,43.5563],[-8.2962,43.5563],[-8.309,43.5693],[-8.3257,43.5604],[-8.2937,43.5335],[-8.3321,43.5129],[-8.319,43.4974],[-8.3482,43.4643],[-8.3407,43.4582],[-8.3174,43.4701],[-8.2985,43.4608],[-8.266,43.4674],[-8.2479,43.4932],[-8.256,43.4787],[-8.241,43.4735],[-8.2001,43.4779],[-8.1535,43.5129],[-8.1693,43.4801],[-8.1924,43.476],[-8.1812,43.4726],[-8.2004,43.4604],[-8.2735,43.4635],[-8.3124,43.4557],[-8.3035,43.4465],[-8.3168,43.4449],[-8.2446,43.4171],[-8.2382,43.4299],[-8.2165,43.4182],[-8.1876,43.4246],[-8.1729,43.4113],[-8.1346,43.4243],[-8.1601,43.4049],[-8.2054,43.4093],[-8.2215,43.3921],[-8.2176,43.3676],[-8.2054,43.3621],[-8.2207,43.3535],[-8.2032,43.3393],[-8.214,43.339],[-8.2024,43.3218],[-8.2154,43.2915],[-8.2101,43.3271],[-8.2504,43.349],[-8.2449,43.3621],[-8.2643,43.3826],[-8.2962,43.3854],[-8.3062,43.4057],[-8.3551,43.3901],[-8.356,43.381],[-8.3376,43.3782],[-8.3476,43.3479],[-8.3835,43.3399],[-8.3596,43.3162],[-8.3868,43.3368],[-8.3787,43.3574],[-8.4026,43.361],[-8.3846,43.3688],[-8.3996,43.3904],[-8.4121,43.3818],[-8.4087,43.3688],[-8.4385,43.3824],[-8.4599,43.371],[-8.4571,43.3607],[-8.4885,43.3529],[-8.4918,43.3613],[-8.5057,43.3285],[-8.5329,43.3151],[-8.6071,43.3235],[-8.7135,43.2893],[-8.7863,43.3046],[-8.8393,43.346],[-8.8451,43.3201],[-8.8729,43.3235],[-8.8763,43.3126],[-8.9101,43.3221],[-8.9076,43.2935],[-8.9279,43.2932],[-8.9299,43.2832],[-8.9524,43.2949],[-8.9918,43.2754],[-8.9512,43.2624],[-8.9407,43.2232],[-8.9124,43.2426],[-8.9296,43.2212],[-8.9815,43.2293],[-8.9979,43.2157],[-9.0124,43.2332],[-9.0601,43.1835],[-9.0915,43.1799],[-9.0879,43.1901],[-9.109,43.186],[-9.1365,43.2018],[-9.1343,43.1912],[-9.154,43.1985],[-9.1585,43.1829],[-9.1746,43.1915],[-9.186,43.1626],[-9.201,43.1549],[-9.214,43.1646],[-9.2051,43.129],[-9.1832,43.1232],[-9.1662,43.1504],[-9.1651,43.1279],[-9.1321,43.1335],[-9.1593,43.1265],[-9.1885,43.089],[-9.2174,43.1135],[-9.221,43.0876],[-9.2568,43.0921],[-9.2504,43.0721],[-9.2724,43.0449],[-9.2999,43.0568],[-9.2793,43.0124],[-9.2521,43.0029],[-9.2982,42.9218],[-9.2746,42.9101],[-9.2815,42.8893],[-9.2696,42.8799],[-9.2557,42.9085],[-9.2629,42.9199],[-9.2338,42.9263],[-9.2324,42.9415],[-9.2187,42.9426],[-9.209,42.916],[-9.1835,42.9157],[-9.1899,42.9524],[-9.174,42.944],[-9.1624,42.9118],[-9.1279,42.9071],[-9.1518,42.8707],[-9.1362,42.8457],[-9.1118,42.8424],[-9.1079,42.8207],[-9.1538,42.8021],[-9.1179,42.769],[-9.1179,42.7524],[-9.0935,42.7499],[-9.0918,42.7371],[-9.0479,42.769],[-9.0635,42.7865],[-9.0179,42.8029],[-9.0151,42.7824],[-8.981,42.7785],[-8.9799,42.7943],[-8.959,42.7793],[-8.9351,42.8051],[-8.9082,42.8021],[-8.9049,42.8285],[-8.8865,42.8162],[-8.8696,42.8285],[-8.8965,42.814],[-8.8915,42.7807],[-8.9101,42.7912],[-8.9288,42.7837],[-8.9568,42.7454],[-8.9896,42.7415],[-9.034,42.696],[-9.0404,42.6413],[-9.0926,42.5757],[-9.0738,42.5649],[-9.056,42.5762],[-9.0351,42.5593],[-9.0485,42.5171],[-9.0126,42.5235],[-9.0062,42.5135],[-9.0104,42.526],[-8.9832,42.5435],[-8.9907,42.5638],[-8.9646,42.5676],[-8.9535,42.5849],[-8.9201,42.5865],[-8.9371,42.6071],[-8.9004,42.6435],[-8.8738,42.6326],[-8.8876,42.6101],[-8.8568,42.6063],[-8.8582,42.6268],[-8.8379,42.6321],[-8.861,42.6463],[-8.851,42.666],[-8.8399,42.6615],[-8.8424,42.6862],[-8.8154,42.664],[-8.8249,42.646],[-8.8037,42.6368],[-8.7468,42.6507],[-8.7262,42.6771],[-8.7751,42.6199],[-8.7715,42.5935],[-8.8296,42.5754],[-8.8318,42.5621],[-8.819,42.5612],[-8.8365,42.554],[-8.8296,42.5196],[-8.8151,42.5249],[-8.8179,42.5024],[-8.8057,42.5004],[-8.831,42.4849],[-8.821,42.4524],[-8.8488,42.4599],[-8.8685,42.4471],[-8.8721,42.4626],[-8.8557,42.4721],[-8.8579,42.4976],[-8.8712,42.501],[-8.9082,42.4746],[-8.9379,42.4796],[-8.9451,42.4635],[-8.9293,42.449],[-8.9132,42.4629],[-8.8821,42.4554],[-8.8707,42.4351],[-8.8818,42.4146],[-8.839,42.3838],[-8.8149,42.4012],[-8.7738,42.3879],[-8.6954,42.4371],[-8.6815,42.4212],[-8.6518,42.4276],[-8.7257,42.3854],[-8.7704,42.3326],[-8.8374,42.3404],[-8.8182,42.314],[-8.8168,42.2788],[-8.8299,42.2776],[-8.8576,42.3093],[-8.8735,42.2504],[-8.8632,42.2457],[-8.8551,42.2618],[-8.8271,42.2507],[-8.8143,42.2618],[-8.7924,42.2463],[-8.784,42.2626],[-8.7649,42.2582],[-8.7354,42.2729],[-8.7321,42.2865],[-8.6899,42.2799],[-8.6518,42.2979],[-8.6618,42.3121],[-8.6363,42.3262],[-8.6446,42.3382],[-8.6324,42.3537],[-8.5965,42.3462],[-8.6157,42.3399],[-8.614,42.2857],[-8.654,42.2885],[-8.676,42.2649],[-8.7035,42.2596],[-8.7126,42.241],[-8.7337,42.2404],[-8.7415,42.2274],[-8.7629,42.2315],[-8.7543,42.2257],[-8.7751,42.2226],[-8.7804,42.2032],[-8.8149,42.1893],[-8.824,42.1554],[-8.8504,42.1568],[-8.8207,42.1424],[-8.8274,42.1215],[-8.8149,42.1154],[-8.8363,42.1124],[-8.8526,42.1282],[-8.8782,42.1113],[-8.9004,42.1126],[-8.8771,42.0024],[-8.8885,41.9357],[-8.8751,41.8707],[-8.851,41.8771],[-8.8184,41.9113],[-8.7563,41.9331],[-8.7441,41.9659],[-8.6622,42.0026],[-8.6576,42.0301],[-8.6359,42.0479],[-8.546,42.0542],[-8.5198,42.0796],[-8.443,42.0824],[-8.4289,42.0723],[-8.3816,42.0764],[-8.3631,42.0904],[-8.3319,42.0838],[-8.3171,42.1045],[-8.2591,42.1213],[-8.2455,42.1398],[-8.2219,42.1341],[-8.1987,42.1543],[-8.188,42.1436],[-8.1821,42.0651],[-8.1187,42.0823],[-8.0966,42.0723],[-8.0844,42.0473],[-8.086,42.0165],[-8.163,41.9827],[-8.2168,41.9135],[-8.2,41.8737],[-8.1693,41.8765],[-8.165,41.8181],[-8.0939,41.808],[-8.014,41.829],[-7.9877,41.8692],[-7.9212,41.8778],[-7.9063,41.9271],[-7.8847,41.9243],[-7.8922,41.8595],[-7.8728,41.8449],[-7.8415,41.8665],[-7.8452,41.8813],[-7.7869,41.8841],[-7.7635,41.899],[-7.7333,41.8923],[-7.7008,41.9077],[-7.6538,41.8812],[-7.5858,41.8819],[-7.6139,41.8297],[-7.5272,41.8402]]],[[[-8.9076,42.2065],[-8.9126,42.1949],[-8.8893,42.1907],[-8.9076,42.2065]]],[[[-8.9112,42.2499],[-8.9146,42.211],[-8.8951,42.2274],[-8.9112,42.2499]]],[[[-8.9201,42.3949],[-8.9321,42.3982],[-8.9462,42.3807],[-8.9454,42.3549],[-8.9201,42.3949]]],[[[-9.014,42.4846],[-9.0221,42.4729],[-9.0099,42.4626],[-8.9987,42.469],[-9.014,42.4846]]],[[[-8.8746,42.5732],[-8.8924,42.5679],[-8.8707,42.5604],[-8.8807,42.5404],[-8.8718,42.5324],[-8.8824,42.5293],[-8.8643,42.5251],[-8.856,42.5657],[-8.8746,42.5732]]],[[[-8.8376,43.3626],[-8.849,43.3599],[-8.8324,43.3526],[-8.8376,43.3626]]]]}},{"type":"Feature","properties":{"gid":"ESP.13_1","name":"巴利阿里群岛","nameEn":"Islas Baleares","type":"自治区","typeEn":"Autonomous Community","groupZh":"海岛与北非飞地","groupEn":"Islands & Enclaves","capital":"帕尔马","pop":1190000,"area":5024,"blurb":"地中海度假群岛：马略卡、梅诺卡与伊维萨，旅游业占经济近半。"},"geometry":{"type":"MultiPolygon","coordinates":[[[[1.4218,38.7924],[1.4188,38.7788],[1.4346,38.7646],[1.4285,38.7388],[1.4054,38.7282],[1.3962,38.7354],[1.3799,38.7193],[1.3893,38.6999],[1.3801,38.6929],[1.3854,38.6407],[1.4463,38.6846],[1.4832,38.679],[1.526,38.6524],[1.571,38.6499],[1.5854,38.6621],[1.5707,38.6918],[1.5301,38.6735],[1.4863,38.6965],[1.4732,38.7287],[1.4468,38.7337],[1.4218,38.7924]]],[[[1.4101,38.8907],[1.4376,38.9021],[1.4379,38.914],[1.4576,38.9032],[1.4546,38.9168],[1.4771,38.9126],[1.511,38.9468],[1.5293,38.9454],[1.5199,38.9529],[1.5321,38.9554],[1.534,38.9829],[1.5821,38.989],[1.5843,39.0157],[1.6215,39.0271],[1.5882,39.0624],[1.5921,39.0762],[1.6121,39.081],[1.5985,39.0832],[1.6049,39.091],[1.5587,39.0929],[1.5324,39.1188],[1.5074,39.1143],[1.4985,39.0996],[1.4899,39.1101],[1.4632,39.1037],[1.4401,39.0812],[1.4243,39.0924],[1.4168,39.0779],[1.3882,39.0796],[1.3763,39.0629],[1.3588,39.074],[1.2899,39.0282],[1.2985,39.0096],[1.2835,38.9971],[1.3065,38.979],[1.3013,38.9685],[1.2288,38.9749],[1.2146,38.9585],[1.2357,38.9385],[1.2132,38.8971],[1.2451,38.856],[1.2718,38.8788],[1.2965,38.8763],[1.3015,38.8604],[1.3168,38.8671],[1.3196,38.8557],[1.3443,38.8704],[1.3651,38.854],[1.371,38.8279],[1.3851,38.8421],[1.406,38.8296],[1.4101,38.8907]]],[[[1.2154,38.9949],[1.206,38.989],[1.2135,38.9754],[1.2154,38.9949]]],[[[2.9538,39.1646],[2.9499,39.1496],[2.929,39.1551],[2.9312,39.1429],[2.9165,39.161],[2.9201,39.1282],[2.9579,39.1271],[2.9568,39.1471],[2.9765,39.1574],[2.9538,39.1646]]],[[[2.9707,39.189],[2.9551,39.1821],[2.9663,39.1754],[2.9707,39.189]]],[[[2.9315,39.3635],[2.9774,39.3521],[2.9915,39.3365],[2.9862,39.3154],[3.014,39.3101],[3.0496,39.2651],[3.0732,39.2682],[3.1179,39.3115],[3.1774,39.3288],[3.1924,39.3446],[3.1857,39.3501],[3.2154,39.3543],[3.2113,39.3621],[3.2324,39.3613],[3.2685,39.416],[3.2626,39.4246],[3.2751,39.4157],[3.2968,39.4993],[3.3365,39.541],[3.3685,39.5504],[3.379,39.5762],[3.404,39.5788],[3.3846,39.5957],[3.4032,39.6357],[3.4343,39.6321],[3.4407,39.656],[3.456,39.6554],[3.4565,39.7051],[3.479,39.7157],[3.4521,39.7218],[3.4615,39.7482],[3.4326,39.7449],[3.3474,39.7896],[3.3263,39.7579],[3.2432,39.7296],[3.1529,39.7674],[3.1265,39.7915],[3.1218,39.8354],[3.1746,39.8379],[3.196,39.8585],[3.1885,39.8815],[3.204,39.8899],[3.1032,39.8574],[3.0835,39.8749],[3.0796,39.9012],[3.0912,39.9107],[3.111,39.899],[3.1099,39.9113],[3.1315,39.9263],[3.1551,39.9226],[3.2015,39.9429],[3.2143,39.9621],[3.1782,39.9512],[3.1804,39.9613],[3.1649,39.9596],[3.1221,39.9318],[3.094,39.9357],[3.0596,39.9199],[3.061,39.9324],[3.0412,39.9374],[2.9865,39.9093],[2.9513,39.9199],[2.8443,39.8618],[2.7782,39.856],[2.7757,39.8399],[2.6988,39.811],[2.694,39.791],[2.6718,39.7949],[2.664,39.7749],[2.619,39.7562],[2.589,39.719],[2.5557,39.7001],[2.5268,39.7015],[2.4624,39.6521],[2.3471,39.5954],[2.3471,39.5632],[2.3718,39.5438],[2.3893,39.5468],[2.3632,39.5315],[2.3876,39.5337],[2.3888,39.5204],[2.4138,39.5388],[2.4199,39.5229],[2.4568,39.5351],[2.4807,39.5174],[2.4557,39.5051],[2.479,39.4915],[2.4735,39.4649],[2.4907,39.4726],[2.5213,39.4562],[2.534,39.5051],[2.5474,39.5113],[2.5396,39.524],[2.5907,39.531],[2.6057,39.5518],[2.6326,39.5446],[2.6393,39.5532],[2.624,39.5496],[2.6329,39.5685],[2.6343,39.5588],[2.6724,39.5596],[2.749,39.5101],[2.7218,39.4754],[2.7465,39.4421],[2.7415,39.4065],[2.7871,39.3626],[2.8296,39.3557],[2.8818,39.3657],[2.9137,39.3524],[2.9315,39.3635]]],[[[4.3015,39.8411],[4.3015,39.874],[4.2576,39.8946],[4.2946,39.889],[4.3104,39.8699],[4.3282,39.8771],[4.311,39.8804],[4.309,39.8996],[4.2865,39.9126],[4.2749,39.9332],[4.281,39.9512],[4.2663,39.949],[4.2707,39.9593],[4.2549,39.9638],[4.2657,39.9821],[4.2549,39.9929],[4.2701,39.9965],[4.2199,39.9971],[4.2074,40.0135],[4.2051,39.9885],[4.2026,40.0224],[4.1915,40.0351],[4.1838,40.0218],[4.1715,40.0363],[4.161,40.0321],[4.1732,40.0607],[4.1549,40.0682],[4.1363,40.0676],[4.1404,40.0349],[4.1282,40.0262],[4.1207,40.0363],[4.1346,40.0629],[4.104,40.0443],[4.0932,40.0615],[4.0996,40.0849],[4.0801,40.091],[4.0893,40.0693],[4.084,40.0757],[4.054,40.051],[4.0276,40.066],[3.9793,40.051],[3.9324,40.0626],[3.9204,40.0468],[3.8993,40.0599],[3.8279,40.054],[3.7915,40.0193],[3.7949,39.9993],[3.8299,39.9929],[3.8232,39.9218],[3.8993,39.9218],[3.9601,39.9379],[4.0629,39.9049],[4.0985,39.8771],[4.1321,39.8715],[4.241,39.8126],[4.2813,39.8104],[4.3049,39.831],[4.3015,39.8411]]],[[[4.2787,39.9663],[4.2732,39.9562],[4.2846,39.9596],[4.2787,39.9663]]]]}},{"type":"Feature","properties":{"gid":"ESP.14_1","name":"加那利群岛","nameEn":"Islas Canarias","type":"自治区","typeEn":"Autonomous Community","groupZh":"海岛与北非飞地","groupEn":"Islands & Enclaves","capital":"拉斯帕尔马斯 / 圣克鲁斯","pop":2170000,"area":7534,"blurb":"大西洋上的火山群岛（摩洛哥以西约 100 km）：泰德火山是西班牙最高峰（3715 m）。"},"geometry":{"type":"MultiPolygon","coordinates":[[[[-17.2082,28.0238],[-17.1676,28.0351],[-17.0985,28.0951],[-17.1104,28.1426],[-17.1676,28.1812],[-17.1829,28.1796],[-17.1963,28.1999],[-17.2449,28.2007],[-17.2596,28.2179],[-17.3182,28.2046],[-17.3471,28.1482],[-17.349,28.0976],[-17.3213,28.0757],[-17.3204,28.0571],[-17.2701,28.0246],[-17.2082,28.0238]]],[[[-16.6307,28.0132],[-16.596,28.0287],[-16.546,28.0249],[-16.5415,28.0424],[-16.4276,28.1462],[-16.4243,28.2038],[-16.3832,28.286],[-16.3618,28.3054],[-16.369,28.3557],[-16.3599,28.3799],[-16.254,28.451],[-16.2354,28.4857],[-16.1251,28.5321],[-16.1196,28.5565],[-16.1349,28.5818],[-16.1593,28.589],[-16.2224,28.5663],[-16.3299,28.5774],[-16.3351,28.5574],[-16.3862,28.5468],[-16.4112,28.5276],[-16.4568,28.4593],[-16.5135,28.4193],[-16.5549,28.4193],[-16.604,28.3943],[-16.6754,28.4015],[-16.7512,28.371],[-16.8101,28.3768],[-16.8332,28.3935],[-16.9232,28.3554],[-16.9243,28.3412],[-16.8962,28.3307],[-16.8404,28.2651],[-16.8376,28.2076],[-16.7735,28.1132],[-16.7371,28.0863],[-16.7368,28.0557],[-16.7115,28.0476],[-16.7062,28.0079],[-16.6782,27.9979],[-16.6307,28.0132]]],[[[-17.9624,27.6912],[-17.9562,27.721],[-17.9299,27.7288],[-17.914,27.7704],[-17.8826,27.8029],[-17.9013,27.8421],[-17.9182,27.8485],[-17.9971,27.8251],[-17.9896,27.7999],[-18.0362,27.7632],[-18.0815,27.7537],[-18.1301,27.7724],[-18.156,27.7529],[-18.1546,27.7085],[-18.0513,27.6926],[-17.9924,27.6385],[-17.9699,27.6474],[-17.9624,27.6912]]],[[[-17.7935,28.524],[-17.7599,28.569],[-17.7499,28.6215],[-17.7685,28.6774],[-17.724,28.7435],[-17.7482,28.7693],[-17.7774,28.839],[-17.8571,28.8335],[-17.9207,28.8585],[-18.0074,28.7829],[-18.0099,28.749],[-17.9821,28.7293],[-17.9649,28.6679],[-17.926,28.6149],[-17.9271,28.5963],[-17.8801,28.5401],[-17.8751,28.491],[-17.8574,28.4601],[-17.8329,28.4565],[-17.7935,28.524]]],[[[-15.7074,28.1168],[-15.711,28.0835],[-15.7385,28.0546],[-15.7674,28.046],[-15.7865,28.0218],[-15.8235,28.0129],[-15.8318,27.9093],[-15.7882,27.8343],[-15.6901,27.771],[-15.6746,27.7488],[-15.6593,27.7565],[-15.6001,27.734],[-15.569,27.7368],[-15.5632,27.7604],[-15.519,27.781],[-15.4326,27.7993],[-15.4143,27.846],[-15.3849,27.8571],[-15.3799,27.8762],[-15.3932,27.8888],[-15.384,27.9271],[-15.3576,27.9307],[-15.3807,27.9507],[-15.3829,27.9732],[-15.3662,27.9918],[-15.3729,28.0088],[-15.4201,28.0607],[-15.4107,28.1035],[-15.4276,28.1463],[-15.4179,28.1457],[-15.4168,28.1285],[-15.404,28.1757],[-15.4218,28.1818],[-15.4438,28.1668],[-15.4312,28.1451],[-15.4674,28.1262],[-15.5262,28.156],[-15.599,28.1446],[-15.6374,28.1726],[-15.6693,28.1596],[-15.6896,28.1707],[-15.7101,28.1651],[-15.6965,28.1513],[-15.7074,28.1168]]],[[[-13.9215,28.2507],[-13.8999,28.2757],[-13.8951,28.3237],[-13.8493,28.4001],[-13.8671,28.4804],[-13.8421,28.5032],[-13.8371,28.5415],[-13.8238,28.5526],[-13.8299,28.6946],[-13.8404,28.7276],[-13.8624,28.7315],[-13.8643,28.7462],[-13.8868,28.7576],[-14.0176,28.7151],[-14.0085,28.6738],[-14.0393,28.6151],[-14.0337,28.5929],[-14.0668,28.5518],[-14.0985,28.479],[-14.1474,28.4396],[-14.164,28.3674],[-14.2051,28.3282],[-14.2232,28.2146],[-14.3693,28.1171],[-14.4499,28.101],[-14.4915,28.1113],[-14.4932,28.084],[-14.5107,28.0665],[-14.4762,28.0771],[-14.331,28.0457],[-14.219,28.1654],[-14.0121,28.2071],[-13.9876,28.2274],[-13.9385,28.2313],[-13.9215,28.2507]]],[[[-13.8121,28.7601],[-13.836,28.7529],[-13.8318,28.739],[-13.8135,28.7365],[-13.8121,28.7601]]],[[[-13.7001,28.9165],[-13.6421,28.919],[-13.5821,28.9543],[-13.5443,28.9518],[-13.5318,28.9726],[-13.4849,28.9924],[-13.4643,29.0187],[-13.4657,29.0557],[-13.4468,29.089],[-13.4643,29.1282],[-13.4221,29.1649],[-13.4243,29.2104],[-13.4657,29.2268],[-13.4701,29.2421],[-13.4971,29.219],[-13.5251,29.141],[-13.5449,29.1199],[-13.5626,29.1162],[-13.5965,29.1368],[-13.631,29.1171],[-13.6585,29.1254],[-13.7076,29.0796],[-13.7524,29.0796],[-13.7946,29.0515],[-13.8307,29.0071],[-13.8296,28.9304],[-13.8818,28.8874],[-13.8774,28.8593],[-13.7993,28.8576],[-13.7854,28.8382],[-13.7485,28.874],[-13.739,28.9046],[-13.7001,28.9165]]],[[[-13.506,29.2901],[-13.5249,29.2676],[-13.5274,29.2415],[-13.5487,29.2287],[-13.5443,29.2179],[-13.501,29.2263],[-13.4712,29.2646],[-13.506,29.2901]]],[[[-13.5029,29.4168],[-13.5237,29.4121],[-13.5304,29.3851],[-13.5063,29.3838],[-13.4862,29.4018],[-13.5029,29.4168]]]]}},{"type":"Feature","properties":{"gid":"ESP.15_1","name":"拉里奥哈","nameEn":"La Rioja","type":"自治区","typeEn":"Autonomous Community","groupZh":"绿色西班牙 · 北部","groupEn":"Green Spain","capital":"洛格罗尼奥","pop":320000,"area":5053,"blurb":"西班牙人口最少的自治区，里奥哈红酒的名字来源，埃布罗上游河谷。"},"geometry":{"type":"Polygon","coordinates":[[[-2.0862,41.9544],[-2.0363,41.9394],[-2.0281,41.9531],[-1.982,41.9193],[-1.8775,41.9524],[-1.8565,41.9664],[-1.8651,41.9776],[-1.844,41.9873],[-1.8471,42.008],[-1.9015,42.0297],[-1.9092,42.0591],[-1.8927,42.085],[-1.8216,42.1536],[-1.7819,42.1377],[-1.7647,42.1504],[-1.7397,42.1497],[-1.7198,42.1334],[-1.7045,42.1393],[-1.6796,42.1517],[-1.7008,42.1731],[-1.679,42.1883],[-1.7042,42.192],[-1.7085,42.2097],[-1.8168,42.2295],[-1.8205,42.2492],[-1.8489,42.2589],[-1.8726,42.253],[-1.8706,42.289],[-1.9146,42.3009],[-1.907,42.3085],[-1.9185,42.327],[-1.964,42.3337],[-1.9695,42.3525],[-1.9955,42.3636],[-2.0148,42.3693],[-2.0699,42.3425],[-2.0899,42.347],[-2.0789,42.3688],[-2.1156,42.3995],[-2.1112,42.4196],[-2.1764,42.4081],[-2.1867,42.4188],[-2.2162,42.4156],[-2.2142,42.4242],[-2.2411,42.4301],[-2.2379,42.4404],[-2.2737,42.4452],[-2.288,42.4674],[-2.2974,42.4575],[-2.3319,42.4681],[-2.3318,42.454],[-2.3458,42.4514],[-2.3522,42.4656],[-2.4001,42.4718],[-2.4156,42.4906],[-2.5147,42.4901],[-2.5097,42.5201],[-2.5378,42.494],[-2.5298,42.4839],[-2.5675,42.4941],[-2.5969,42.4729],[-2.5922,42.4918],[-2.6054,42.5035],[-2.6477,42.4833],[-2.6565,42.504],[-2.6773,42.5101],[-2.6757,42.5257],[-2.7054,42.5168],[-2.6805,42.5945],[-2.7407,42.6225],[-2.7637,42.6228],[-2.7776,42.5818],[-2.8249,42.5549],[-2.8407,42.5816],[-2.8194,42.5921],[-2.8198,42.6145],[-2.8417,42.6086],[-2.8428,42.6296],[-2.858,42.6382],[-2.8821,42.6207],[-2.916,42.6195],[-2.9464,42.6393],[-3.0841,42.6407],[-3.0598,42.5892],[-3.0861,42.5822],[-3.1037,42.5531],[-3.1342,42.542],[-3.0717,42.5277],[-3.0946,42.4881],[-3.0459,42.4451],[-3.0632,42.4249],[-3.0531,42.3734],[-3.0826,42.3974],[-3.0781,42.4157],[-3.1013,42.4168],[-3.1043,42.3854],[-3.0848,42.3854],[-3.0636,42.3561],[-3.1092,42.3519],[-3.0958,42.3269],[-3.1066,42.3126],[-3.0885,42.2457],[-3.1059,42.2118],[-3.1293,42.1995],[-3.0343,42.086],[-2.9353,42.0894],[-2.9136,42.0228],[-2.8838,42.0095],[-2.7979,42.0468],[-2.8033,42.0805],[-2.7748,42.1235],[-2.7284,42.1229],[-2.7067,42.1057],[-2.7075,42.0905],[-2.7575,42.0326],[-2.7461,42.0087],[-2.7057,42.0151],[-2.6735,41.9981],[-2.6266,42.0065],[-2.5798,41.9963],[-2.549,42.0515],[-2.5148,42.0689],[-2.5146,42.1145],[-2.4843,42.1063],[-2.4384,42.1373],[-2.3191,42.1452],[-2.2821,42.1317],[-2.2695,42.0886],[-2.2088,42.1047],[-2.1273,42.0972],[-2.127,42.0809],[-2.1619,42.0667],[-2.1589,42.0559],[-2.1076,42.0028],[-2.124,41.9953],[-2.116,41.9636],[-2.0862,41.9544]]]}},{"type":"Feature","properties":{"gid":"ESP.16_1","name":"巴斯克自治区","nameEn":"País Vasco","type":"自治区","typeEn":"Autonomous Community","groupZh":"绿色西班牙 · 北部","groupEn":"Green Spain","capital":"维多利亚","pop":2210000,"area":7224,"blurb":"毕尔巴鄂古根海姆博物馆所在地，欧洲最独特的语言（巴斯克语）与自治传统。"},"geometry":{"type":"Polygon","coordinates":[[[-2.6565,42.504],[-2.6446,42.4831],[-2.6054,42.5035],[-2.5929,42.4722],[-2.5675,42.4941],[-2.5298,42.4839],[-2.5378,42.494],[-2.5097,42.5201],[-2.5171,42.4916],[-2.477,42.4868],[-2.4491,42.4969],[-2.4207,42.4893],[-2.422,42.5117],[-2.3922,42.5169],[-2.3967,42.5991],[-2.4211,42.6071],[-2.4532,42.5671],[-2.4622,42.5874],[-2.4906,42.5854],[-2.5,42.6165],[-2.483,42.6122],[-2.45,42.6472],[-2.4157,42.6627],[-2.3762,42.6507],[-2.3819,42.6343],[-2.2884,42.6551],[-2.2935,42.6779],[-2.3093,42.6712],[-2.3168,42.6825],[-2.3128,42.7087],[-2.3237,42.7241],[-2.3168,42.7393],[-2.2624,42.7482],[-2.281,42.7851],[-2.2326,42.8438],[-2.2409,42.8856],[-2.253,42.8928],[-2.2377,42.896],[-2.2321,42.9318],[-2.1991,42.9512],[-2.1809,42.9351],[-2.1176,42.9422],[-2.0952,42.9725],[-2.0383,42.981],[-2.0283,42.9988],[-2.0414,43.0297],[-2.0208,43.0466],[-2.0228,43.0652],[-1.9475,43.0975],[-1.9022,43.1355],[-1.9204,43.1501],[-1.9159,43.223],[-1.8817,43.2068],[-1.8807,43.2281],[-1.8675,43.2304],[-1.8603,43.2122],[-1.8517,43.2267],[-1.8334,43.2246],[-1.7949,43.2469],[-1.7832,43.2868],[-1.7296,43.2939],[-1.753,43.3407],[-1.7982,43.3468],[-1.786,43.3626],[-1.7979,43.3801],[-1.7907,43.3932],[-1.8649,43.3724],[-1.8835,43.3493],[-1.9274,43.3354],[-1.9107,43.3193],[-1.9321,43.3357],[-1.9624,43.3376],[-1.9921,43.3265],[-1.9904,43.3149],[-2.0124,43.324],[-2.1085,43.3015],[-2.1274,43.2907],[-2.1299,43.2743],[-2.1332,43.2915],[-2.1779,43.2876],[-2.2015,43.3115],[-2.2843,43.2949],[-2.3546,43.2976],[-2.4601,43.336],[-2.5101,43.3774],[-2.5451,43.3732],[-2.5637,43.3913],[-2.6196,43.3921],[-2.6432,43.4154],[-2.6815,43.4101],[-2.6835,43.3643],[-2.6971,43.4104],[-2.7385,43.4296],[-2.7521,43.4568],[-2.8065,43.4313],[-2.9471,43.436],[-2.9557,43.4215],[-2.9457,43.409],[-2.9707,43.4129],[-3.0051,43.3821],[-3.0371,43.3732],[-3.0124,43.3465],[-3.0187,43.326],[-3.0426,43.3387],[-3.0307,43.3368],[-3.0446,43.3435],[-3.0388,43.3499],[-3.0507,43.3418],[-3.0743,43.3543],[-3.0454,43.3593],[-3.104,43.3643],[-3.0849,43.3782],[-3.1096,43.3646],[-3.1188,43.3429],[-3.129,43.3554],[-3.1532,43.3535],[-3.1573,43.3013],[-3.1932,43.2984],[-3.2095,43.2835],[-3.2252,43.3089],[-3.2794,43.29],[-3.3324,43.3019],[-3.3401,43.278],[-3.3829,43.2705],[-3.3989,43.2458],[-3.4487,43.2361],[-3.4176,43.1334],[-3.2534,43.1986],[-3.224,43.1701],[-3.2078,43.1794],[-3.1875,43.1692],[-3.1482,43.174],[-3.1413,43.1615],[-3.1618,43.1542],[-3.1817,43.1209],[-3.152,43.1041],[-3.1414,43.1106],[-3.1339,43.0972],[-3.1581,43.074],[-3.1403,43.0671],[-3.1418,43.0298],[-3.1778,43.022],[-3.1447,43.0068],[-3.0602,43.0035],[-3.0369,42.9822],[-3.0406,42.9694],[-2.9814,42.9388],[-3.0189,42.9085],[-3.0895,42.899],[-3.1495,42.9173],[-3.1447,42.9347],[-3.2247,42.9497],[-3.2485,42.9121],[-3.2772,42.9016],[-3.2826,42.8755],[-3.2258,42.8301],[-3.2055,42.8274],[-3.2221,42.8386],[-3.1906,42.8694],[-3.1607,42.8563],[-3.1149,42.8892],[-3.1051,42.8802],[-3.1131,42.861],[-3.1592,42.8046],[-3.1232,42.7893],[-3.1479,42.7567],[-3.0496,42.7656],[-3.0407,42.7385],[-3.0163,42.7405],[-2.9806,42.7038],[-2.9305,42.7082],[-2.9024,42.6936],[-2.896,42.655],[-2.8428,42.6296],[-2.8417,42.6086],[-2.8198,42.6145],[-2.8194,42.5921],[-2.8407,42.5816],[-2.8249,42.5549],[-2.7776,42.5818],[-2.7637,42.6228],[-2.6817,42.5954],[-2.7054,42.5168],[-2.6757,42.5257],[-2.6773,42.5101],[-2.6565,42.504]],[[-2.8649,42.7371],[-2.8354,42.7963],[-2.8268,42.7844],[-2.7315,42.7945],[-2.6437,42.7647],[-2.6023,42.7706],[-2.5893,42.7503],[-2.5583,42.7627],[-2.5726,42.7252],[-2.6003,42.7153],[-2.6089,42.696],[-2.5777,42.6682],[-2.522,42.684],[-2.5173,42.6463],[-2.5491,42.6376],[-2.5519,42.6492],[-2.6348,42.6478],[-2.6591,42.6724],[-2.7678,42.666],[-2.7845,42.6989],[-2.8253,42.7089],[-2.8649,42.7371]],[[-3.2927,43.2411],[-3.3046,43.2587],[-3.2494,43.2596],[-3.2689,43.2341],[-3.2697,43.2021],[-3.2979,43.2067],[-3.2927,43.2411]]]}},{"type":"Feature","properties":{"gid":"ESP.17_1","name":"阿斯图里亚斯","nameEn":"Principado de Asturias","type":"自治区","typeEn":"Autonomous Community","groupZh":"绿色西班牙 · 北部","groupEn":"Green Spain","capital":"奥维耶多","pop":1010000,"area":10586,"blurb":"坎塔布连山与比斯开湾之间，欧洲之峰国家公园；历史上「收复失地运动」的起点。"},"geometry":{"type":"Polygon","coordinates":[[[-6.5567,42.9138],[-6.433,42.9397],[-6.4415,42.9473],[-6.4335,42.9641],[-6.4729,42.9677],[-6.4788,42.9897],[-6.4249,42.9876],[-6.4074,42.9995],[-6.411,43.0169],[-6.3942,43.0166],[-6.3969,43.0383],[-6.3734,43.0411],[-6.359,43.0595],[-6.3264,43.0313],[-6.295,43.0269],[-6.2851,43.0363],[-6.2647,43.0171],[-6.2267,43.0089],[-6.2138,43.0466],[-6.1783,43.0478],[-6.1365,43.021],[-6.0968,43.0306],[-6.0818,43.0757],[-6.0201,43.0548],[-5.9891,43.0678],[-5.967,43.0583],[-5.9566,43.0186],[-5.9145,42.9927],[-5.8871,42.994],[-5.889,42.979],[-5.8638,42.9813],[-5.843,42.9642],[-5.8039,42.9626],[-5.7628,42.9711],[-5.7664,42.986],[-5.7283,43.0425],[-5.6932,43.0564],[-5.57,43.0227],[-5.4936,43.0213],[-5.4784,43.0549],[-5.3903,43.0493],[-5.383,43.0872],[-5.369,43.0945],[-5.282,43.0774],[-5.2684,43.0875],[-5.2201,43.0836],[-5.1477,43.1151],[-5.1406,43.1029],[-5.1016,43.1018],[-5.0758,43.1815],[-5.0208,43.1851],[-4.9968,43.1731],[-4.9638,43.2124],[-4.9074,43.2379],[-4.8672,43.2246],[-4.8409,43.1807],[-4.7778,43.192],[-4.7457,43.1841],[-4.7216,43.2295],[-4.7309,43.2573],[-4.6318,43.2676],[-4.636,43.2764],[-4.6065,43.3005],[-4.5552,43.2881],[-4.5477,43.2686],[-4.5234,43.2781],[-4.5223,43.3357],[-4.5387,43.3554],[-4.5105,43.3806],[-4.5122,43.3932],[-4.6538,43.401],[-4.839,43.4465],[-4.874,43.4421],[-4.9263,43.4626],[-5.036,43.4607],[-5.1226,43.4849],[-5.2151,43.4735],[-5.2988,43.5357],[-5.354,43.5304],[-5.3729,43.5399],[-5.3932,43.5135],[-5.4157,43.509],[-5.3865,43.5285],[-5.4093,43.5543],[-5.4943,43.5438],[-5.6199,43.5579],[-5.6454,43.5401],[-5.6646,43.5507],[-5.6924,43.5432],[-5.6835,43.5588],[-5.696,43.5507],[-5.6999,43.5671],[-5.6832,43.5696],[-5.7168,43.5685],[-5.7585,43.586],[-5.7688,43.6071],[-5.791,43.614],[-5.7807,43.629],[-5.8093,43.629],[-5.8107,43.6424],[-5.8288,43.6404],[-5.8399,43.6615],[-5.8582,43.6557],[-5.866,43.6315],[-5.9151,43.6243],[-5.9174,43.6037],[-5.946,43.5988],[-5.916,43.5904],[-5.9174,43.5593],[-5.9304,43.5921],[-5.9951,43.5721],[-6.0187,43.5876],[-6.076,43.5651],[-6.0765,43.5357],[-6.0874,43.5371],[-6.0763,43.539],[-6.0862,43.5501],[-6.0776,43.5654],[-6.1162,43.5549],[-6.1507,43.5699],[-6.1854,43.5632],[-6.1882,43.5807],[-6.2026,43.5726],[-6.2076,43.586],[-6.2207,43.5788],[-6.2435,43.5971],[-6.2554,43.5782],[-6.3554,43.551],[-6.3962,43.5601],[-6.4299,43.5526],[-6.4682,43.5707],[-6.4718,43.5493],[-6.5351,43.546],[-6.5418,43.5557],[-6.5974,43.5538],[-6.626,43.5751],[-6.6776,43.5593],[-6.7104,43.5643],[-6.7251,43.5551],[-6.7243,43.5315],[-6.7254,43.5579],[-6.7451,43.5676],[-6.811,43.5546],[-6.854,43.571],[-6.8749,43.5629],[-6.946,43.5751],[-6.9737,43.5579],[-7.0293,43.5574],[-7.0301,43.5412],[-7.0076,43.5293],[-7.0321,43.5282],[-7.0463,43.4774],[-7.0779,43.4649],[-7.1027,43.427],[-7.1728,43.4304],[-7.1766,43.3825],[-7.1561,43.3745],[-7.1369,43.3827],[-7.1274,43.3726],[-7.1306,43.3302],[-7.0973,43.3014],[-7.0596,43.3053],[-7.0714,43.2712],[-7.0651,43.2494],[-7.0199,43.2132],[-7.0094,43.2228],[-7.0013,43.2072],[-6.9709,43.2042],[-6.965,43.187],[-6.9806,43.1668],[-6.9572,43.1354],[-6.8853,43.1568],[-6.8681,43.19],[-6.8716,43.1798],[-6.8388,43.1661],[-6.8214,43.1432],[-6.8275,43.1231],[-6.8712,43.0912],[-6.8938,43.0918],[-6.9155,43.0734],[-6.938,43.0867],[-6.9517,43.0762],[-6.9679,43.0557],[-6.9645,43.0346],[-6.9818,43.0413],[-6.9968,43.0277],[-6.975,42.9963],[-6.9559,42.9961],[-6.9643,43.0265],[-6.9464,43.0324],[-6.9405,43.0114],[-6.9102,42.9901],[-6.8647,42.9838],[-6.8359,42.9577],[-6.8357,42.9163],[-6.7705,42.8986],[-6.7736,42.8828],[-6.7565,42.883],[-6.7225,42.9175],[-6.6909,42.9223],[-6.5567,42.9138]]]}},{"type":"Feature","properties":{"gid":"ESP.18_1","name":"穆尔西亚","nameEn":"Región de Murcia","type":"自治区","typeEn":"Autonomous Community","groupZh":"地中海东岸","groupEn":"Mediterranean East","capital":"穆尔西亚","pop":1500000,"area":11326,"blurb":"东南阳光海岸（Costa Cálida），西班牙的菜篮子，缺水最严重的农业区。"},"geometry":{"type":"MultiPolygon","coordinates":[[[[-0.8432,37.5785],[-0.8204,37.5749],[-0.7315,37.601],[-0.6865,37.6338],[-0.7107,37.6421],[-0.7335,37.6838],[-0.7382,37.7363],[-0.7218,37.741],[-0.7462,37.7601],[-0.7451,37.7846],[-0.7612,37.7888],[-0.7421,37.7538],[-0.746,37.7057],[-0.7301,37.6624],[-0.7407,37.6596],[-0.724,37.6582],[-0.7276,37.6343],[-0.8054,37.6596],[-0.8576,37.714],[-0.8451,37.7482],[-0.8035,37.7771],[-0.7965,37.8099],[-0.7749,37.819],[-0.7735,37.8385],[-0.7649,37.8421],[-0.7538,37.7882],[-0.751,37.8232],[-0.7624,37.847],[-0.8302,37.8643],[-0.9001,37.9232],[-1.0222,38.0752],[-1.0366,38.1374],[-0.9887,38.1996],[-0.9673,38.2722],[-0.989,38.3206],[-1.0844,38.3465],[-1.0883,38.4035],[-1.076,38.4317],[-1.0941,38.4383],[-1.0139,38.4971],[-1.0262,38.5225],[-1.0015,38.5729],[-1.0261,38.6557],[-1.1159,38.7102],[-1.12,38.7379],[-1.1839,38.7544],[-1.2494,38.7384],[-1.3429,38.6775],[-1.3667,38.7043],[-1.4222,38.6768],[-1.4477,38.6494],[-1.4523,38.5818],[-1.4873,38.5632],[-1.4984,38.5321],[-1.4807,38.4809],[-1.4783,38.3764],[-1.5618,38.3241],[-1.5893,38.3112],[-1.6699,38.3124],[-1.6925,38.3375],[-1.6815,38.3499],[-1.6875,38.3659],[-1.7024,38.3749],[-1.7181,38.3641],[-1.7434,38.3813],[-1.7713,38.3786],[-1.7711,38.3649],[-1.7957,38.3703],[-1.7842,38.3562],[-1.9075,38.298],[-1.986,38.2817],[-2.0489,38.3058],[-2.1136,38.2382],[-2.2134,38.2018],[-2.2615,38.113],[-2.3298,38.0654],[-2.3443,38.03],[-2.2984,38.0022],[-2.2533,37.9396],[-2.1719,37.8887],[-2.1231,37.9005],[-2.0845,37.8724],[-2.0703,37.8845],[-2.0217,37.8686],[-1.9946,37.8805],[-1.9744,37.8685],[-1.9994,37.8232],[-2.0087,37.775],[-1.9957,37.7281],[-2.0125,37.7009],[-2.0118,37.6735],[-1.9767,37.6188],[-1.8452,37.4549],[-1.8089,37.4335],[-1.8117,37.4516],[-1.737,37.4427],[-1.6299,37.3737],[-1.5179,37.4319],[-1.4821,37.4249],[-1.4812,37.4535],[-1.4601,37.4863],[-1.4018,37.5068],[-1.3926,37.5246],[-1.3257,37.5627],[-1.2596,37.5571],[-1.2443,37.5771],[-1.2024,37.5735],[-1.1699,37.5593],[-1.1668,37.5421],[-1.1182,37.5335],[-1.1071,37.5351],[-1.1271,37.5524],[-1.1107,37.5677],[-1.0746,37.5838],[-1.0176,37.5726],[-1.0082,37.5857],[-0.9843,37.5843],[-0.9932,37.6001],[-0.9763,37.5963],[-0.9757,37.5765],[-0.9507,37.5679],[-0.9682,37.5699],[-0.9601,37.5582],[-0.9196,37.5537],[-0.8785,37.5779],[-0.8432,37.5785]]],[[[-0.7701,37.7021],[-0.776,37.6951],[-0.7651,37.6904],[-0.7701,37.7021]]]]}}]}