{"type":"FeatureCollection","features":[{"type":"Feature","properties":{"gid":"MNG.1_1","name":"后杭爱省","nameEn":"Arhangay","type":"省","typeEn":"Province","groupZh":"杭爱 · 中部","groupEn":"Khangai & Central","capital":"车车尔勒格","pop":95000,"area":54817,"blurb":"杭爱山腹地：腾格里火山湖（白湖）与温泉群，蒙古的「小瑞士」。"},"geometry":{"type":"Polygon","coordinates":[[[102.6515,47.3891],[102.7141,47.4133],[102.7576,47.3803],[102.8708,47.3648],[102.9416,47.3277],[103.0417,47.3098],[103.1619,47.2222],[103.2353,47.1977],[103.5194,47.187],[103.6253,47.2117],[103.6777,47.2506],[103.6605,47.3383],[103.4006,47.4949],[103.2074,47.6989],[103.1629,47.7177],[103.0901,47.7228],[103.014,47.8432],[102.8543,47.9044],[102.8075,48.0781],[102.68,48.2197],[102.6322,48.2515],[102.4801,48.2661],[102.3691,48.3322],[102.3431,48.4132],[102.2527,48.4681],[102.2294,48.4953],[102.1987,48.6767],[102.1312,48.8105],[102.0489,48.7771],[101.9771,48.7765],[101.9031,48.8498],[101.7578,48.8883],[101.6658,48.9627],[101.4986,48.95],[101.3771,48.9653],[101.2745,49.0163],[100.8866,49.1305],[100.7027,49.2049],[100.6498,49.1071],[100.4763,48.9984],[100.5989,48.9594],[100.6404,48.9234],[100.4627,48.8541],[100.3776,48.73],[100.3594,48.6715],[100.3625,48.6302],[100.3844,48.5945],[100.4763,48.5087],[100.2445,48.4796],[100.2158,48.4598],[100.2012,48.4035],[100.1487,48.3871],[100.0651,48.3995],[99.9393,48.4518],[99.7873,48.4855],[99.7836,48.421],[99.7494,48.3416],[99.7221,48.3065],[99.6744,48.2852],[99.266,48.2353],[99.0742,48.2962],[98.7053,48.2027],[98.6596,48.1616],[98.5441,48.107],[98.2844,48.0932],[98.2377,48.0668],[98.2013,47.9961],[98.2122,47.9213],[98.1734,47.7822],[98.1935,47.711],[98.2248,47.6783],[98.2825,47.6455],[98.4166,47.6148],[98.4841,47.6659],[98.5573,47.6948],[98.7925,47.7217],[98.8166,47.5899],[98.8405,47.5533],[98.9389,47.5022],[98.9731,47.4715],[99.054,47.4546],[99.2614,47.46],[99.3442,47.4909],[99.4382,47.5676],[99.7594,47.619],[99.7629,47.5046],[99.8883,47.3768],[99.9022,47.2514],[99.9217,47.1908],[99.9215,47.1187],[99.942,47.0578],[100.0878,47.112],[100.448,47.1831],[100.4195,47.0952],[100.4481,46.9884],[100.5903,46.9397],[100.6953,46.8368],[100.7325,46.8307],[100.8686,46.8383],[101.0513,46.8247],[101.1783,46.8497],[101.2603,46.8235],[101.4124,46.8466],[101.7757,46.862],[101.8478,46.8851],[101.8833,46.9323],[101.9299,46.9621],[102.1459,47.0101],[102.2803,47.0258],[102.3206,47.0172],[102.4668,46.9289],[102.5117,46.9515],[102.5346,46.9782],[102.5581,47.0779],[102.5882,47.1286],[102.6721,47.1749],[102.724,47.2399],[102.7234,47.2782],[102.6456,47.3495],[102.6515,47.3891]]]}},{"type":"Feature","properties":{"gid":"MNG.2_1","name":"巴彦乌列盖省","nameEn":"Bayan-Ölgiy","type":"省","typeEn":"Province","groupZh":"西部山区","groupEn":"Western Mongolia","capital":"乌列盖","pop":110000,"area":46280,"blurb":"蒙古唯一以哈萨克族为主的省：金鹰狩猎传统与蒙赫海尔汗雪山。"},"geometry":{"type":"Polygon","coordinates":[[[90.5121,47.2682],[90.5521,47.1999],[90.6608,47.0832],[90.7122,47.0486],[90.7343,47.0015],[90.7707,46.9869],[90.8601,46.9834],[90.9136,46.9533],[90.9334,46.9015],[90.9641,46.8702],[90.9529,46.8365],[90.9595,46.8157],[91.0607,46.7105],[91.0535,46.7231],[91.2685,46.6637],[91.3585,46.5555],[91.4125,46.5417],[91.4593,46.5471],[91.5691,46.6139],[91.8375,46.6233],[91.8725,46.6387],[91.9271,46.7027],[91.6355,46.8271],[91.5125,46.8949],[91.4539,46.9445],[91.4422,47.0188],[91.4687,47.1305],[91.4484,47.2069],[91.3563,47.2594],[91.2896,47.3357],[91.2373,47.3689],[91.2621,47.5289],[91.2411,47.5677],[91.1799,47.6297],[91.1708,47.7229],[91.1155,47.7403],[91.0827,47.7675],[91.0589,47.8407],[90.9849,47.9769],[90.9431,48.0288],[90.8755,48.0808],[90.8551,48.1195],[90.8176,48.3014],[90.8342,48.4136],[90.8164,48.5267],[90.7996,48.5623],[90.7193,48.6388],[90.7396,48.6523],[90.9452,48.6303],[91.197,48.7137],[91.3383,48.6718],[91.3142,48.7928],[91.2834,48.8577],[91.2022,48.9442],[91.124,48.9755],[91.0212,49.0394],[90.9959,49.1068],[90.8891,49.2855],[90.8245,49.3064],[90.7475,49.2984],[90.6675,49.3389],[90.5883,49.4333],[90.5887,49.4737],[90.5033,49.5843],[90.3981,49.6543],[90.2391,49.7213],[90.2137,49.7433],[90.1803,49.7867],[90.1453,49.9029],[90.1079,49.9575],[89.9895,50.0051],[89.9305,49.9855],[89.7651,50.0001],[89.7103,49.9752],[89.6207,49.974],[89.603,49.9339],[89.6372,49.9106],[89.6329,49.8793],[89.6461,49.8584],[89.6359,49.8259],[89.7385,49.7945],[89.7159,49.7435],[89.6818,49.7097],[89.4449,49.6589],[89.3773,49.5947],[89.3127,49.6345],[89.2401,49.6535],[89.2017,49.6256],[89.1899,49.5985],[89.2236,49.5664],[89.2209,49.5467],[89.1977,49.5472],[89.1275,49.5071],[88.9917,49.4771],[88.9719,49.4778],[88.9269,49.5303],[88.9302,49.5563],[88.8911,49.5558],[88.8465,49.5162],[88.8632,49.4855],[88.8633,49.4502],[88.8034,49.4687],[88.6791,49.4751],[88.65,49.5201],[88.6323,49.5277],[88.5755,49.5123],[88.5515,49.4825],[88.509,49.4925],[88.4547,49.4789],[88.4113,49.5009],[88.3398,49.5081],[88.2233,49.4899],[88.1771,49.4588],[88.1882,49.4299],[88.1385,49.4117],[88.0969,49.3745],[88.1964,49.3],[88.1921,49.2831],[88.1669,49.2781],[88.1286,49.2447],[88.0997,49.2659],[88.0553,49.2664],[88.0366,49.2441],[88.0087,49.2359],[87.9849,49.1791],[87.9485,49.1845],[87.8999,49.1669],[87.8323,49.175],[87.8347,49.1459],[87.8661,49.1183],[87.8437,49.0923],[87.8534,49.073],[87.8321,49.0481],[87.8791,49.0281],[87.9145,48.9859],[87.8747,48.9547],[87.8239,48.9482],[87.7971,48.9313],[87.7667,48.9368],[87.7497,48.8846],[87.7951,48.8755],[87.8215,48.8502],[87.7924,48.8217],[87.8034,48.813],[87.8365,48.7961],[87.8655,48.7983],[87.9247,48.7623],[87.9574,48.7711],[88.0,48.762],[88.0849,48.7069],[88.0143,48.655],[87.9687,48.5484],[87.9782,48.5092],[87.9917,48.5167],[88.0001,48.5706],[88.0377,48.5493],[88.0881,48.5489],[88.1131,48.5331],[88.3367,48.4783],[88.3521,48.4669],[88.3528,48.441],[88.4124,48.3918],[88.5165,48.4133],[88.52,48.3845],[88.6079,48.3342],[88.5753,48.2813],[88.5882,48.2304],[88.6294,48.2233],[88.6742,48.1746],[88.739,48.166],[88.766,48.1365],[88.8313,48.1155],[88.8991,48.1199],[88.9176,48.1008],[88.9857,48.0803],[89.0379,48.0295],[89.0427,48.0001],[89.0221,47.9629],[89.0411,47.9473],[89.2066,47.952],[89.2832,48.0001],[89.2903,48.0207],[89.3662,48.0249],[89.3691,48.0432],[89.5659,48.0487],[89.6002,48.0253],[89.5782,48.0],[89.6173,47.9458],[89.673,47.9047],[89.7252,47.8918],[89.7598,47.8356],[89.7964,47.8181],[89.8921,47.8299],[89.9441,47.8168],[89.9585,47.8305],[89.9429,47.8586],[89.9639,47.8843],[89.9991,47.8873],[90.0689,47.8621],[90.0651,47.8173],[90.0795,47.7662],[90.1435,47.7226],[90.2301,47.7027],[90.3374,47.657],[90.3289,47.6157],[90.4239,47.5078],[90.4569,47.4871],[90.4583,47.4209],[90.4912,47.3805],[90.4765,47.3155],[90.5121,47.2682]]]}},{"type":"Feature","properties":{"gid":"MNG.3_1","name":"巴彦洪戈尔省","nameEn":"Bayanhongor","type":"省","typeEn":"Province","groupZh":"杭爱 · 中部","groupEn":"Khangai & Central","capital":"巴彦洪戈尔","pop":100000,"area":116173,"blurb":"从杭爱雪峰一路降到戈壁：一省跨四种自然带，恐龙化石点布满南山。"},"geometry":{"type":"Polygon","coordinates":[[[99.5321,42.5756],[99.5969,42.5859],[99.5987,42.6783],[99.5752,42.869],[99.4897,43.2283],[99.4511,43.5085],[99.4505,43.8473],[99.417,44.0342],[99.4239,44.0741],[99.4603,44.1053],[99.6643,44.1443],[99.7371,44.1501],[99.8139,44.1345],[100.0208,44.0336],[100.2467,43.8437],[100.2921,43.8257],[100.3905,43.8131],[100.6141,43.8345],[101.1758,43.8349],[101.2949,43.8493],[101.5678,43.9502],[101.7469,43.9951],[101.8079,44.0489],[101.7719,44.1078],[101.7024,44.3428],[101.6306,44.5244],[101.5398,44.6502],[101.5553,44.7761],[101.596,44.8164],[101.5767,44.8477],[101.4031,44.9411],[101.2278,44.9865],[101.1862,45.0274],[101.1385,45.1131],[101.1423,45.4363],[101.1643,45.4796],[101.243,45.5573],[101.2438,45.6246],[101.2984,45.6892],[101.3238,45.7665],[101.3214,45.8148],[101.2878,45.9213],[101.2898,46.0205],[101.3242,46.074],[101.4531,46.1397],[101.4921,46.1897],[101.4973,46.3814],[101.524,46.4705],[101.4806,46.5391],[101.4969,46.5801],[101.41,46.6702],[101.2885,46.8261],[101.2305,46.8269],[101.1783,46.8497],[101.0513,46.8247],[100.6953,46.8368],[100.6099,46.928],[100.4481,46.9884],[100.4195,47.0952],[100.448,47.1831],[100.0878,47.112],[99.942,47.0578],[99.9215,47.1187],[99.9217,47.1908],[99.9022,47.2514],[99.8883,47.3768],[99.7629,47.5046],[99.7594,47.619],[99.4382,47.5676],[99.3442,47.4909],[99.2614,47.46],[99.054,47.4546],[98.9731,47.4715],[98.9389,47.5022],[98.8405,47.5533],[98.8166,47.5899],[98.7925,47.7217],[98.5813,47.6996],[98.4841,47.6659],[98.4166,47.6148],[98.385,47.5261],[98.2782,47.4444],[98.2664,47.2982],[98.2294,47.2465],[98.1331,47.1949],[98.0634,47.1738],[97.9353,47.1873],[97.874,47.1547],[97.8544,47.0695],[97.7846,47.0155],[97.7459,46.9643],[97.7335,46.8506],[97.6939,46.7424],[97.5677,46.5975],[97.6539,46.5307],[97.6447,46.4729],[97.742,46.2826],[97.886,46.2092],[98.2061,45.9901],[98.2042,45.9611],[98.2205,45.9317],[98.3423,45.8569],[98.4014,45.8028],[98.4653,45.5834],[98.46,45.3834],[98.4366,45.3066],[98.3917,45.2001],[98.2016,44.9071],[98.2145,44.6861],[98.19,44.5879],[98.1393,44.4913],[98.1014,44.4517],[98.0556,44.4267],[97.9667,44.4059],[97.9299,44.3549],[97.9277,44.1215],[97.9553,43.9821],[97.9247,43.8511],[97.9079,43.6979],[97.9131,43.6147],[97.8691,43.5327],[97.8551,43.4237],[97.7797,43.3303],[97.7535,43.2491],[97.7563,43.1595],[97.7908,43.015],[97.7883,42.7061],[98.0198,42.6833],[98.2479,42.6379],[99.5321,42.5756]]]}},{"type":"Feature","properties":{"gid":"MNG.4_1","name":"布尔干省","nameEn":"Bulgan","type":"省","typeEn":"Province","groupZh":"杭爱 · 中部","groupEn":"Khangai & Central","capital":"布尔干","pop":62000,"area":48328,"blurb":"杭爱北麓的农牧过渡带，额尔登特铜矿的北部门户。"},"geometry":{"type":"Polygon","coordinates":[[[104.5208,48.6653],[104.5149,48.7326],[104.5438,48.7888],[104.4699,48.8435],[104.3781,48.8992],[104.3007,48.9289],[104.0007,48.9868],[104.0013,49.0407],[104.1031,49.1213],[104.2835,49.0807],[104.3774,49.1298],[104.444,49.1283],[104.5195,49.1056],[104.5949,49.3641],[104.6633,49.4865],[104.6727,49.6457],[104.7335,49.6861],[104.6855,49.7409],[104.5736,49.8208],[104.5232,49.8751],[104.5159,49.9825],[104.5829,49.9875],[104.6167,50.0093],[104.5569,50.0497],[104.5495,50.1013],[104.5225,50.1499],[104.4473,50.2167],[104.3509,50.2751],[104.3408,50.2591],[104.2847,50.2529],[104.2285,50.1867],[104.0313,50.1541],[103.8389,50.2065],[103.7919,50.2075],[103.7577,50.1941],[103.7201,50.1504],[103.6905,50.1372],[103.5872,50.1603],[103.4393,50.2157],[103.3132,50.2041],[103.2743,50.2305],[103.2491,50.2905],[103.2258,50.3075],[102.9407,50.3074],[102.8907,50.3245],[102.8246,50.3786],[102.6753,50.4163],[102.5001,50.3547],[102.4095,50.2911],[102.3595,50.1855],[102.2491,50.1099],[102.1325,50.0051],[102.1043,49.9623],[102.1073,49.9302],[102.1377,49.9047],[102.1933,49.8839],[102.6395,49.7649],[102.7205,49.7345],[102.7847,49.6915],[102.6693,49.6378],[102.5597,49.643],[102.5197,49.6331],[102.4284,49.5082],[102.3263,49.4458],[101.9559,49.3631],[101.852,49.299],[101.8056,49.2507],[101.7257,49.2338],[101.6916,49.2089],[101.6325,49.0972],[101.6658,48.9627],[101.7578,48.8883],[101.9031,48.8498],[101.9604,48.7847],[101.9966,48.7717],[102.0489,48.7771],[102.1312,48.8105],[102.1987,48.6767],[102.2294,48.4953],[102.2527,48.4681],[102.3431,48.4132],[102.3691,48.3322],[102.4801,48.2661],[102.6322,48.2515],[102.68,48.2197],[102.8075,48.0781],[102.8543,47.9044],[103.014,47.8432],[103.0901,47.7228],[103.1629,47.7177],[103.2074,47.6989],[103.4006,47.4949],[103.6605,47.3383],[103.6777,47.2506],[103.9517,47.2647],[104.1475,47.298],[104.1723,47.3304],[104.1719,47.357],[104.0958,47.4179],[104.0686,47.4684],[104.1562,47.5248],[104.3297,47.5947],[104.4867,47.5997],[104.5275,47.6535],[104.7605,47.6617],[104.6993,47.8173],[104.6915,47.8956],[104.7117,47.909],[104.7039,47.9449],[104.4948,47.9556],[104.3934,47.9885],[104.3785,48.0624],[104.2884,48.1438],[104.4002,48.2984],[104.4974,48.352],[104.5162,48.3749],[104.539,48.4614],[104.5208,48.6653]]]}},{"type":"Feature","properties":{"gid":"MNG.5_1","name":"达尔汗乌拉省","nameEn":"Darhan-Uul","type":"市","typeEn":"Municipality","groupZh":"杭爱 · 中部","groupEn":"Khangai & Central","capital":"达尔汗","pop":105000,"area":3639,"blurb":"1994 年才设的年轻省：达尔汗是蒙古第二工业城市（钢铁与水泥）。"},"geometry":{"type":"Polygon","coordinates":[[[106.4372,49.132],[106.6014,49.0873],[106.7989,49.1317],[106.7809,49.2643],[106.8039,49.4325],[106.7793,49.5091],[106.7229,49.5455],[106.5067,49.6059],[106.4485,49.5513],[106.4101,49.5302],[106.3658,49.5242],[106.2832,49.5387],[106.12,49.6001],[106.0403,49.6172],[106.0684,49.6718],[106.1367,49.7313],[106.1359,49.8235],[106.003,49.7766],[105.8399,49.6847],[105.8389,49.6039],[105.8925,49.5049],[105.8974,49.4691],[105.8478,49.229],[105.8084,49.1313],[105.9086,49.1078],[106.0648,49.0966],[106.2195,49.1668],[106.3569,49.1861],[106.4372,49.132]]]}},{"type":"Feature","properties":{"gid":"MNG.6_1","name":"东方省","nameEn":"Dornod","type":"省","typeEn":"Province","groupZh":"东部草原","groupEn":"Eastern Steppe","capital":"乔巴山","pop":84000,"area":125499,"blurb":"蒙古最东端：诺门罕战役（1939）战场，呼伦湖盆地与真正的欧亚大草原腹地。"},"geometry":{"type":"Polygon","coordinates":[[[115.6617,47.8675],[115.5761,47.9359],[115.4767,47.9687],[115.4565,47.9951],[115.5498,48.0001],[115.5076,48.1472],[115.51,48.1803],[115.8261,48.2705],[115.8341,48.3368],[115.8109,48.4985],[115.8215,48.5317],[116.111,48.7928],[116.1183,48.8107],[116.0599,48.8639],[116.0557,48.8835],[116.7003,49.8399],[116.6067,49.9403],[116.4477,49.9631],[116.2641,50.0251],[116.2051,50.0317],[116.0261,49.9985],[115.7593,49.8871],[115.5529,49.9073],[115.5091,49.8961],[115.4579,49.9087],[115.4007,49.9023],[115.2379,49.9794],[115.0679,50.1121],[115.0041,50.1774],[114.9644,50.1934],[114.7089,50.2527],[114.5073,50.2371],[114.3401,50.2823],[114.1957,50.2471],[114.0839,50.1867],[114.0344,50.1857],[113.8688,50.0846],[113.7957,50.0941],[113.6005,50.0227],[113.5365,49.9793],[113.4933,49.9749],[113.4547,49.9418],[113.2303,49.8349],[113.1863,49.8009],[113.1459,49.7451],[113.0959,49.6556],[113.1035,49.625],[113.0875,49.6083],[112.9661,49.5865],[112.7549,49.4924],[112.7163,49.4918],[112.6469,49.5283],[112.593,49.5254],[112.5132,49.5465],[112.3373,49.494],[112.2613,49.4837],[112.1327,49.4362],[112.0195,49.4251],[111.9657,49.4025],[112.1227,49.3385],[112.1667,49.3047],[112.1981,49.1273],[112.2921,48.9977],[112.2853,48.9589],[112.2405,48.8937],[112.2371,48.8575],[112.2936,48.7498],[112.5237,48.4632],[112.5409,48.3866],[112.5181,48.3196],[112.5116,48.2463],[112.5436,48.0863],[112.6083,47.9297],[112.6941,47.7939],[112.7434,47.5748],[112.9486,47.6137],[113.1657,47.5638],[113.6755,47.5133],[113.8222,47.4641],[113.9707,47.3666],[114.0671,47.3259],[114.1701,47.2587],[114.4782,47.1306],[114.4168,46.9641],[114.4166,46.8827],[114.4385,46.8303],[114.4951,46.7817],[114.7003,46.6817],[114.9011,46.5015],[115.2659,46.5485],[115.5635,46.5433],[115.7697,46.5887],[116.2299,46.5879],[116.2803,46.5729],[116.3157,46.5467],[116.5484,46.2303],[116.5735,46.2777],[116.6053,46.2971],[116.7644,46.3157],[116.8615,46.3811],[116.9817,46.3475],[117.2333,46.3585],[117.3657,46.3487],[117.3754,46.433],[117.4385,46.518],[117.4389,46.5796],[117.6001,46.5856],[117.6155,46.5804],[117.6349,46.5329],[117.6728,46.514],[117.8171,46.5188],[117.8521,46.5321],[117.8799,46.5773],[118.0411,46.6303],[118.0729,46.6667],[118.1733,46.7208],[118.2581,46.7371],[118.2701,46.7876],[118.4513,46.7797],[118.5137,46.808],[118.5626,46.7691],[118.5954,46.7629],[118.6409,46.7683],[118.6705,46.8045],[118.8015,46.7814],[118.9359,46.8195],[118.9783,46.8182],[118.9726,46.7848],[119.0939,46.7804],[119.0885,46.7429],[119.1262,46.7206],[119.212,46.7344],[119.4037,46.6336],[119.4585,46.5605],[119.4057,46.5367],[119.4079,46.5036],[119.3895,46.4753],[119.4028,46.4549],[119.4973,46.4189],[119.5168,46.4278],[119.5109,46.4609],[119.5691,46.4931],[119.5977,46.5507],[119.7745,46.6221],[119.8383,46.7054],[119.9243,46.7519],[119.8745,46.8171],[119.8729,46.8447],[119.8437,46.8605],[119.8039,46.9233],[119.8165,46.9873],[119.7903,47.0355],[119.8363,47.032],[119.8435,47.0503],[119.8255,47.0815],[119.8507,47.1017],[119.8414,47.1221],[119.8184,47.1339],[119.7925,47.1249],[119.7015,47.1931],[119.7187,47.2115],[119.763,47.2182],[119.7838,47.2077],[119.785,47.1857],[119.8132,47.1545],[119.8717,47.1616],[119.8565,47.2167],[119.8105,47.2791],[119.7161,47.321],[119.6442,47.3158],[119.5596,47.3477],[119.4751,47.3362],[119.3222,47.4327],[119.3403,47.4679],[119.3301,47.4993],[119.3363,47.5313],[119.3169,47.5461],[119.2083,47.5191],[119.1517,47.5395],[119.1576,47.5729],[119.1274,47.6549],[119.1335,47.6841],[119.1241,47.7033],[118.7758,47.8065],[118.4787,48.0001],[118.2529,48.0019],[118.1902,48.0316],[118.1093,48.0193],[118.1195,48.0377],[117.8419,48.0254],[117.8352,48.0131],[117.7597,47.9902],[117.5566,47.7889],[117.4699,47.7504],[117.4144,47.6898],[117.3867,47.6386],[117.1083,47.8099],[116.9496,47.8686],[116.8268,47.8984],[116.6422,47.8904],[116.4953,47.8425],[116.2563,47.8767],[116.2123,47.8659],[116.1377,47.8355],[115.9354,47.6755],[115.6617,47.8675]]]}},{"type":"Feature","properties":{"gid":"MNG.7_1","name":"东戈壁省","nameEn":"Dornogovi","type":"省","typeEn":"Province","groupZh":"戈壁地带","groupEn":"Gobi","capital":"赛音山达","pop":63000,"area":109475,"blurb":"「戈壁之门」：扎门乌德口岸对中国二连浩特，恐龙化石（偷蛋龙巢）最初发现地。"},"geometry":{"type":"Polygon","coordinates":[[[110.1925,42.6593],[110.4165,42.7689],[110.4491,42.7975],[110.4524,42.8586],[110.622,42.93],[110.6979,43.0231],[110.7035,43.0571],[110.8143,43.1301],[111.0471,43.3435],[111.2019,43.3981],[111.3532,43.4335],[111.4247,43.4708],[111.5745,43.4895],[111.612,43.5123],[111.7115,43.6184],[111.7539,43.6907],[111.9545,43.7309],[112.0054,43.7706],[112.0157,43.7913],[112.0027,43.8201],[111.8522,43.9928],[111.8055,44.0157],[111.6704,44.0345],[111.6317,44.0635],[111.5345,44.1557],[111.4665,44.2695],[111.4089,44.3023],[111.3868,44.3475],[111.3957,44.4181],[111.4655,44.4987],[111.5169,44.5889],[111.5599,44.7231],[111.7923,45.0163],[111.8645,45.0649],[111.9405,45.0881],[111.9111,45.1963],[111.9223,45.2917],[111.8987,45.3295],[111.8095,45.4097],[111.7563,45.4921],[111.6853,45.5345],[111.7165,45.7299],[111.7002,45.9199],[111.6248,46.0543],[111.5755,46.0945],[111.1671,46.2316],[110.9766,46.0896],[110.9577,46.0598],[110.5649,46.1041],[110.5166,46.2182],[110.39,46.3728],[110.2622,46.4695],[110.1425,46.5931],[110.0636,46.6191],[110.027,46.624],[109.9864,46.5971],[110.0099,46.4573],[109.915,46.3019],[109.7893,46.2139],[109.6228,46.1418],[109.5412,46.1623],[109.3447,46.1682],[109.2793,46.1842],[109.169,46.2702],[109.1045,46.3869],[108.9589,46.4639],[108.9091,46.3829],[108.8314,46.3008],[108.6723,46.1828],[108.6216,46.0841],[108.6015,45.9936],[108.5694,45.9576],[108.5368,45.8892],[108.492,45.7519],[108.4673,45.59],[108.5347,45.354],[108.653,45.1075],[108.5341,45.0915],[108.4645,45.0632],[108.4232,44.9686],[108.418,44.8848],[107.8419,44.8669],[107.7478,44.6169],[107.6873,44.5541],[107.6721,44.4944],[107.6483,44.3599],[107.655,44.3004],[107.7996,44.0921],[107.8517,43.9172],[107.9349,43.7443],[107.9586,43.6682],[107.9363,43.4611],[107.9361,43.3039],[108.0071,43.1675],[108.0337,42.9463],[107.9815,42.5877],[107.9839,42.4289],[107.9697,42.4252],[108.2385,42.462],[108.2922,42.4394],[108.5254,42.4553],[108.7823,42.4097],[108.8115,42.3873],[108.9683,42.4565],[109.0108,42.4426],[109.2717,42.4228],[109.5475,42.4717],[109.8347,42.625],[109.9695,42.6395],[110.1436,42.6368],[110.1925,42.6593]]]}},{"type":"Feature","properties":{"gid":"MNG.8_1","name":"中戈壁省","nameEn":"Dundgovi","type":"省","typeEn":"Province","groupZh":"戈壁地带","groupEn":"Gobi","capital":"阿拉坦布拉格","pop":49000,"area":73294,"blurb":"察哈尔戈壁的岩画与骆驼群，蒙古地理中心附近的大戈壁省份。"},"geometry":{"type":"Polygon","coordinates":[[[107.7478,44.6169],[107.8419,44.8669],[108.418,44.8848],[108.4232,44.9686],[108.4645,45.0632],[108.5341,45.0915],[108.653,45.1075],[108.5347,45.354],[108.4673,45.59],[108.492,45.7519],[108.5593,45.9413],[108.3817,45.9087],[108.3275,45.9163],[108.2769,45.947],[108.1937,46.0307],[108.1743,46.0759],[108.1718,46.1272],[108.2253,46.2108],[108.2522,46.3119],[108.241,46.3518],[108.1611,46.4382],[108.1575,46.4757],[108.2489,46.6034],[108.0493,46.7003],[107.9568,46.7745],[107.856,46.7611],[107.8316,46.6062],[107.7968,46.5709],[107.6307,46.5419],[107.5365,46.4626],[107.341,46.4138],[107.1016,46.4036],[107.0394,46.4316],[106.8968,46.5269],[106.8003,46.5592],[106.6334,46.5742],[106.1639,46.5746],[106.1266,46.6149],[105.9651,46.6564],[105.8554,46.7188],[105.8021,46.7336],[105.66,46.7097],[105.476,46.5403],[105.3967,46.4389],[105.226,46.5261],[104.9668,46.5905],[104.8787,46.5122],[104.6533,46.3805],[104.6245,46.255],[104.5547,46.1424],[104.4651,46.1184],[104.3089,46.125],[104.2402,46.0088],[104.1935,45.9679],[104.1365,45.8],[104.1083,45.7654],[104.0269,45.7423],[103.8073,45.7504],[103.7611,45.7368],[103.6545,45.6735],[103.6188,45.6164],[103.6174,45.5467],[103.6512,45.4561],[103.7333,45.3767],[103.7759,45.3679],[103.7945,45.3446],[103.7797,45.2721],[103.7826,45.1692],[104.007,45.1806],[104.1082,45.2022],[104.1674,45.0941],[104.2372,44.8775],[104.2808,44.8206],[104.3234,44.7938],[104.4128,44.7641],[104.9484,44.6679],[105.2446,44.6911],[105.5064,44.6772],[105.5688,44.5654],[105.7092,44.4205],[105.7562,44.3214],[105.9662,44.1903],[106.0618,44.1774],[106.2326,44.1981],[106.2932,44.2172],[106.3776,44.2699],[106.5048,44.308],[106.58,44.3499],[106.7936,44.4307],[107.2897,44.5152],[107.421,44.492],[107.4928,44.4954],[107.6873,44.5541],[107.7478,44.6169]]]}},{"type":"Feature","properties":{"gid":"MNG.9_1","name":"扎布汗省","nameEn":"Dzavhan","type":"省","typeEn":"Province","groupZh":"西部山区","groupEn":"Western Mongolia","capital":"乌利亚苏台","pop":67000,"area":81990,"blurb":"杭爱山与大湖盆地之间，乌利亚苏台是清代乌里雅苏台将军驻地故地。"},"geometry":{"type":"Polygon","coordinates":[[[96.7312,46.9004],[96.7808,46.8255],[96.8213,46.7966],[96.9179,46.6836],[96.9382,46.6003],[97.1908,46.5776],[97.3921,46.693],[97.4262,46.6477],[97.4682,46.6182],[97.5677,46.5975],[97.6939,46.7424],[97.7335,46.8506],[97.7459,46.9643],[97.7846,47.0155],[97.8544,47.0695],[97.874,47.1547],[97.9353,47.1873],[98.0634,47.1738],[98.1331,47.1949],[98.2294,47.2465],[98.2664,47.2982],[98.2782,47.4444],[98.385,47.5261],[98.4063,47.5627],[98.4166,47.6148],[98.2576,47.6572],[98.2064,47.6945],[98.1776,47.7438],[98.1785,47.8106],[98.2122,47.9213],[98.2013,47.9961],[98.2377,48.0668],[98.2844,48.0932],[98.3327,48.1029],[98.4834,48.097],[98.5441,48.107],[98.6596,48.1616],[98.7053,48.2027],[99.0742,48.2962],[99.102,48.3774],[99.0721,48.5046],[99.0761,48.5555],[99.102,48.6212],[99.2154,48.759],[99.1599,48.9275],[99.1466,49.0632],[99.1139,49.1137],[98.8141,49.104],[98.7811,49.0845],[98.7709,49.0333],[98.7425,49.0119],[98.5525,48.9345],[98.3788,49.0164],[98.2111,49.0163],[98.0919,48.9867],[97.8965,48.9987],[97.8597,49.0073],[97.7056,49.0994],[97.5148,49.1618],[97.3221,49.1817],[97.1757,49.1669],[97.0749,49.2585],[96.9353,49.3248],[96.8775,49.3685],[96.8755,49.5087],[97.0777,49.6489],[97.1287,49.7485],[97.1379,49.8279],[97.0745,49.8484],[97.0211,49.9038],[96.803,49.9461],[96.7169,49.9079],[96.6805,49.9044],[96.663,49.918],[96.6815,49.9483],[96.6759,49.9663],[96.6117,49.9821],[96.5369,49.9574],[96.4537,49.9013],[96.4271,49.8984],[96.3519,49.9481],[96.3105,49.9603],[96.293,49.9914],[96.2123,49.9898],[96.0739,50.0197],[95.9738,49.9797],[95.9195,49.9929],[95.8839,50.0363],[95.8185,50.0385],[95.7593,50.0123],[95.7377,49.9653],[95.6351,49.9555],[95.5059,49.9217],[95.4941,49.8907],[95.4973,49.8481],[95.4117,49.7179],[95.4264,49.6314],[95.4825,49.4954],[95.726,49.3587],[95.6628,49.2349],[95.5903,49.1844],[95.5561,49.1215],[95.5368,49.0529],[95.5257,48.8876],[95.5012,48.85],[95.449,48.8218],[95.3283,48.8219],[95.1344,48.7082],[95.0687,48.6906],[94.7269,48.6776],[94.7082,48.7182],[94.5362,48.7158],[94.3827,48.7302],[94.2068,48.7791],[94.097,48.7891],[93.9984,48.7347],[93.7579,48.6734],[93.6953,48.6288],[93.6678,48.5296],[93.5134,48.4852],[93.4295,48.4243],[93.483,48.3653],[93.49,48.3258],[93.4219,48.1537],[93.3523,48.0789],[93.1824,47.9656],[93.3033,47.8337],[93.6144,47.6516],[94.1107,47.7708],[94.206,47.7835],[94.4823,47.6824],[94.6575,47.6684],[94.7965,47.6746],[94.9729,47.6553],[95.0289,47.6257],[95.0727,47.5412],[95.245,47.5664],[95.5292,47.536],[95.7523,47.4326],[95.8011,47.4259],[95.9167,47.3774],[96.0259,47.3082],[96.1097,47.2967],[96.2336,47.2059],[96.2675,47.1675],[96.2845,47.118],[96.2906,46.9495],[96.3427,46.8267],[96.6267,46.9296],[96.6924,46.9256],[96.7312,46.9004]]]}},{"type":"Feature","properties":{"gid":"MNG.10_1","name":"戈壁阿尔泰省","nameEn":"Govi-Altay","type":"省","typeEn":"Province","groupZh":"戈壁地带","groupEn":"Gobi","capital":"阿尔泰","pop":56000,"area":140170,"blurb":"阿尔泰山脉南端与戈壁相接：大峡谷（Yolyn Am 级别）与野骆驼保护区。"},"geometry":{"type":"Polygon","coordinates":[[[97.1515,42.7739],[97.7883,42.7061],[97.7908,43.015],[97.7563,43.1595],[97.7535,43.2491],[97.7797,43.3303],[97.8551,43.4237],[97.8691,43.5327],[97.9131,43.6147],[97.9079,43.6979],[97.9247,43.8511],[97.9553,43.9821],[97.9277,44.1215],[97.9299,44.3549],[97.9667,44.4059],[98.0556,44.4267],[98.1014,44.4517],[98.1682,44.5386],[98.2145,44.6861],[98.2016,44.9071],[98.3917,45.2001],[98.4366,45.3066],[98.46,45.3834],[98.4653,45.5834],[98.4014,45.8028],[98.3423,45.8569],[98.2205,45.9317],[98.2042,45.9611],[98.2061,45.9901],[97.886,46.2092],[97.742,46.2826],[97.6447,46.4729],[97.6539,46.5307],[97.5677,46.5975],[97.4682,46.6182],[97.4262,46.6477],[97.3921,46.693],[97.1908,46.5776],[96.9382,46.6003],[96.9179,46.6836],[96.8213,46.7966],[96.7808,46.8255],[96.7197,46.9132],[96.6777,46.9295],[96.592,46.9202],[96.3427,46.8267],[96.2906,46.9495],[96.2845,47.118],[96.2675,47.1675],[96.2336,47.2059],[96.1097,47.2967],[96.0259,47.3082],[95.9167,47.3774],[95.8011,47.4259],[95.7523,47.4326],[95.594,47.5135],[95.5292,47.536],[95.2905,47.5649],[95.0727,47.5412],[95.0289,47.6257],[94.9729,47.6553],[94.7965,47.6746],[94.6575,47.6684],[94.4823,47.6824],[94.206,47.7835],[94.1107,47.7708],[93.6144,47.6516],[93.5396,47.5574],[93.6863,47.4876],[93.8128,47.3627],[94.0297,47.2943],[94.1279,47.1008],[94.247,46.9275],[94.3284,46.8464],[94.4125,46.8003],[94.2256,46.7309],[94.007,46.7221],[93.9453,46.7089],[93.8009,46.5932],[93.7659,46.5507],[93.6599,46.6131],[93.5195,46.6361],[93.5545,46.5589],[93.6257,46.4589],[93.6355,46.4275],[93.6266,46.3788],[93.5381,46.2409],[93.4735,46.1698],[93.4291,46.0903],[93.376,45.8878],[93.1199,45.7661],[93.0801,45.7095],[93.0987,45.6263],[93.1521,45.5187],[93.1553,45.2377],[93.2121,45.0047],[93.2649,44.9897],[93.3577,44.9899],[93.461,44.9595],[93.5083,44.9653],[93.7173,44.8909],[93.7607,44.8469],[93.9976,44.7531],[94.1162,44.6855],[94.1974,44.6625],[94.2519,44.6154],[94.3103,44.5865],[94.3256,44.5272],[94.4314,44.5085],[94.5339,44.4567],[94.576,44.4483],[94.6721,44.3835],[94.7039,44.3447],[94.9309,44.2889],[94.9905,44.2546],[95.4237,44.2893],[95.4277,44.2613],[95.3706,44.2097],[95.3451,44.0453],[95.3748,44.0211],[95.5508,43.9887],[95.6622,43.784],[95.6897,43.6798],[95.8811,43.4021],[95.894,43.266],[95.936,43.2156],[96.0057,43.1827],[96.074,43.1254],[96.1544,43.0105],[96.3244,42.8824],[96.3637,42.7177],[96.5527,42.7237],[96.6747,42.7425],[96.8599,42.7289],[96.9328,42.7122],[97.1515,42.7739]]]}},{"type":"Feature","properties":{"gid":"MNG.11_1","name":"戈壁苏木贝尔省","nameEn":"Govisümber","type":"市","typeEn":"Municipality","groupZh":"戈壁地带","groupEn":"Gobi","capital":"乔伊尔","pop":16000,"area":5087,"blurb":"蒙古人口最少的省（约 1.6 万），乔伊尔是乌兰巴托—赛音山达铁路的中途能源镇。"},"geometry":{"type":"Polygon","coordinates":[[[108.6615,46.1597],[108.6723,46.1828],[108.7815,46.2565],[108.9091,46.3829],[108.9734,46.4988],[108.9665,46.6719],[109.0039,46.8098],[108.9864,46.8314],[108.9179,46.8622],[108.8807,46.9225],[108.8205,46.9804],[108.7588,46.8951],[108.7106,46.8606],[108.4799,46.7804],[108.1153,46.8108],[107.9568,46.7745],[108.0493,46.7003],[108.2489,46.6034],[108.1629,46.4903],[108.1568,46.4527],[108.2024,46.3851],[108.241,46.3518],[108.2522,46.3119],[108.2253,46.2108],[108.1718,46.1272],[108.1743,46.0759],[108.2071,46.0134],[108.2769,45.947],[108.3275,45.9163],[108.3817,45.9087],[108.5593,45.9413],[108.6015,45.9936],[108.6216,46.0841],[108.6615,46.1597]]]}},{"type":"Feature","properties":{"gid":"MNG.12_1","name":"肯特省","nameEn":"Hentiy","type":"省","typeEn":"Province","groupZh":"东部草原","groupEn":"Eastern Steppe","capital":"温都尔汗","pop":84000,"area":81297,"blurb":"成吉思汗的出生地布尔罕和乐敦（不儿罕山），克鲁伦河与鄂嫩河的源头。"},"geometry":{"type":"Polygon","coordinates":[[[110.5649,46.1041],[110.9577,46.0598],[110.9766,46.0896],[111.1671,46.2316],[111.2296,46.3359],[111.2622,46.4351],[111.2338,46.5538],[111.2408,46.6476],[111.3005,46.73],[111.3935,46.7919],[111.3797,46.8645],[111.4018,46.9488],[111.4335,46.9941],[111.4675,47.1367],[111.5507,47.2525],[111.6775,47.3287],[111.793,47.3796],[112.0679,47.316],[112.0488,47.39],[112.0515,47.4909],[112.0759,47.5935],[112.1163,47.6445],[112.4089,47.7636],[112.5309,47.7891],[112.6941,47.7939],[112.6083,47.9297],[112.5436,48.0863],[112.5116,48.2463],[112.5181,48.3196],[112.5409,48.3866],[112.5237,48.4632],[112.2936,48.7498],[112.2371,48.8575],[112.2405,48.8937],[112.2853,48.9589],[112.2921,48.9977],[112.1981,49.1273],[112.1667,49.3047],[112.1227,49.3385],[111.9657,49.4025],[111.8189,49.3911],[111.6949,49.4044],[111.5019,49.3438],[111.3797,49.3735],[111.3201,49.3337],[111.1329,49.2859],[110.9551,49.1843],[110.7663,49.1451],[110.5963,49.1621],[110.5405,49.1959],[110.4827,49.2032],[110.3995,49.2585],[110.3267,49.1917],[110.2219,49.1649],[109.887,49.21],[109.8434,49.1913],[109.7564,49.2273],[109.5397,49.2261],[109.5129,49.2409],[109.4847,49.2881],[109.3763,49.3295],[109.2187,49.3611],[109.0425,49.3361],[108.9655,49.3595],[108.8789,49.3424],[108.7863,49.3515],[108.7132,49.3381],[108.5739,49.3359],[108.5357,49.2261],[108.5215,49.1239],[108.7381,48.9739],[108.8549,48.8165],[109.0175,48.4051],[109.0388,48.3214],[109.0177,48.2639],[108.9478,48.1972],[108.9108,48.1092],[108.883,48.0758],[108.8232,48.0522],[108.6663,47.957],[108.4534,47.9047],[108.4359,47.8356],[108.442,47.7183],[108.352,47.5632],[108.4132,47.4608],[108.507,47.3527],[108.5406,47.2817],[108.597,47.2176],[108.6614,47.0863],[108.7299,47.0256],[108.8205,46.9804],[108.8807,46.9225],[108.9179,46.8622],[108.9994,46.8198],[109.0011,46.7808],[108.9665,46.6719],[108.9783,46.5378],[108.9589,46.4639],[109.1045,46.3869],[109.169,46.2702],[109.2793,46.1842],[109.3447,46.1682],[109.5412,46.1623],[109.6228,46.1418],[109.7893,46.2139],[109.915,46.3019],[110.0099,46.4573],[109.9864,46.5971],[110.027,46.624],[110.0636,46.6191],[110.1425,46.5931],[110.2622,46.4695],[110.39,46.3728],[110.5166,46.2182],[110.5649,46.1041]]]}},{"type":"Feature","properties":{"gid":"MNG.13_1","name":"科布多省","nameEn":"Hovd","type":"省","typeEn":"Province","groupZh":"西部山区","groupEn":"Western Mongolia","capital":"科布多","pop":87000,"area":75947,"blurb":"阿尔泰四族杂居（哈萨克/杜尔伯特等），科布多城是清代西路军政中心故地。"},"geometry":{"type":"Polygon","coordinates":[[[93.1844,45.01],[93.2121,45.0047],[93.1553,45.2377],[93.1521,45.5187],[93.0987,45.6263],[93.0801,45.7095],[93.1199,45.7661],[93.376,45.8878],[93.4291,46.0903],[93.4735,46.1698],[93.5381,46.2409],[93.6266,46.3788],[93.6355,46.4275],[93.6257,46.4589],[93.5545,46.5589],[93.5195,46.6361],[93.6599,46.6131],[93.7659,46.5507],[93.8009,46.5932],[93.9453,46.7089],[94.007,46.7221],[94.2256,46.7309],[94.4125,46.8003],[94.3284,46.8464],[94.247,46.9275],[94.1279,47.1008],[94.0297,47.2943],[93.8128,47.3627],[93.6863,47.4876],[93.5396,47.5574],[93.6144,47.6516],[93.3033,47.8337],[93.1824,47.9656],[93.3523,48.0789],[93.4083,48.1312],[93.485,48.3009],[93.483,48.3653],[93.4295,48.4243],[93.3366,48.4396],[93.2731,48.4645],[93.2323,48.5024],[93.1695,48.5938],[93.0833,48.631],[92.9735,48.6302],[92.888,48.5736],[92.8246,48.5573],[92.4736,48.6202],[92.2329,48.6217],[92.152,48.7732],[92.1104,48.7831],[92.0075,48.7793],[91.9585,48.8039],[91.9342,48.9038],[91.9425,48.9688],[91.7813,48.9538],[91.6685,48.9169],[91.5149,48.7796],[91.3383,48.6718],[91.197,48.7137],[90.9452,48.6303],[90.7396,48.6523],[90.7193,48.6388],[90.7996,48.5623],[90.8164,48.5267],[90.8342,48.4136],[90.8207,48.273],[90.8657,48.0953],[90.9849,47.9769],[91.0589,47.8407],[91.0827,47.7675],[91.1155,47.7403],[91.1708,47.7229],[91.1799,47.6297],[91.2411,47.5677],[91.2621,47.5289],[91.2373,47.3689],[91.2896,47.3357],[91.3563,47.2594],[91.4484,47.2069],[91.4687,47.1305],[91.4422,47.0188],[91.4539,46.9445],[91.5125,46.8949],[91.6355,46.8271],[91.9271,46.7027],[91.8511,46.6273],[91.5691,46.6139],[91.4793,46.5533],[91.4125,46.5417],[91.3427,46.5663],[91.2927,46.6459],[91.2685,46.6637],[91.0535,46.7231],[91.0624,46.7018],[91.0395,46.6623],[91.0276,46.5925],[91.0776,46.564],[90.9789,46.3691],[90.9517,46.3315],[90.9118,46.3051],[90.9488,46.2402],[90.9364,46.2002],[91.0215,46.1131],[91.0041,46.0709],[91.0185,46.0571],[91.0205,46.0175],[91.0115,46.0005],[90.8641,45.8991],[90.7693,45.7709],[90.7043,45.7093],[90.7031,45.6375],[90.6739,45.5805],[90.6637,45.5169],[90.6853,45.4837],[90.7489,45.4421],[90.7963,45.3788],[90.8132,45.2864],[90.8582,45.2922],[90.8952,45.2625],[90.8725,45.1982],[90.9459,45.1825],[91.0222,45.2052],[91.1325,45.2021],[91.2411,45.1371],[91.3743,45.1047],[91.4129,45.1337],[91.4608,45.1443],[91.5446,45.0735],[91.652,45.0567],[91.7669,45.0687],[92.0165,45.0693],[92.0773,45.063],[92.1722,45.0305],[92.2629,45.0493],[92.3752,45.0483],[92.4358,45.0212],[92.5146,45.01],[93.0698,45.0184],[93.1293,45.0001],[93.1844,45.01]]]}},{"type":"Feature","properties":{"gid":"MNG.14_1","name":"库苏古尔省","nameEn":"Hövsgöl","type":"省","typeEn":"Province","groupZh":"杭爱 · 中部","groupEn":"Khangai & Central","capital":"木伦","pop":132000,"area":101953,"blurb":"库苏古尔湖：蒙古最大的淡水湖（蓄水量约占全球淡水 0.4%），与贝加尔湖同源。"},"geometry":{"type":"Polygon","coordinates":[[[100.493,48.8714],[100.6404,48.9234],[100.5989,48.9594],[100.4763,48.9984],[100.6498,49.1071],[100.7027,49.2049],[100.8866,49.1305],[101.2745,49.0163],[101.3771,48.9653],[101.4986,48.95],[101.6658,48.9627],[101.6346,49.0719],[101.6352,49.1139],[101.6773,49.1929],[101.7257,49.2338],[101.8056,49.2507],[101.852,49.299],[101.9779,49.3731],[102.3448,49.4532],[102.4284,49.5082],[102.5197,49.6331],[102.5597,49.643],[102.6693,49.6378],[102.7847,49.6915],[102.7205,49.7345],[102.6395,49.7649],[102.1933,49.8839],[102.1377,49.9047],[102.1073,49.9302],[102.1043,49.9623],[102.1325,50.0051],[102.2491,50.1099],[102.3595,50.1855],[102.4177,50.3005],[102.5001,50.3547],[102.6753,50.4163],[102.5837,50.4696],[102.5303,50.5329],[102.4038,50.551],[102.3206,50.5841],[102.2942,50.6104],[102.2933,50.6503],[102.3582,50.7397],[102.3355,50.7665],[102.2548,50.8076],[102.2246,50.8413],[102.2282,50.884],[102.2669,50.9655],[102.1942,51.0718],[102.1711,51.1483],[102.1785,51.2199],[102.1513,51.2641],[102.1623,51.2815],[102.2105,51.3049],[102.2131,51.3227],[102.1971,51.3375],[102.0688,51.3971],[101.9958,51.3959],[101.9345,51.4245],[101.8556,51.4216],[101.7447,51.4611],[101.6569,51.4517],[101.5777,51.4999],[101.4787,51.4987],[101.4029,51.4571],[101.3773,51.4584],[101.2405,51.5462],[101.143,51.5431],[101.1036,51.5697],[101.0332,51.5804],[100.9434,51.6263],[100.7513,51.6755],[100.6765,51.7145],[100.5942,51.7189],[100.5156,51.7504],[100.4477,51.7405],[100.1247,51.7605],[99.9935,51.7533],[99.8459,51.8153],[99.7845,51.8721],[99.7276,51.9015],[99.3212,51.9615],[99.2948,51.9752],[99.2732,52.0201],[99.0485,52.0721],[98.9537,52.1479],[98.8936,52.1495],[98.8715,52.1292],[98.8527,52.0411],[98.8189,52.0135],[98.7107,51.8297],[98.6213,51.7961],[98.3677,51.7451],[98.3153,51.7179],[98.295,51.6481],[98.2405,51.5666],[98.2629,51.5208],[98.2343,51.4623],[98.1925,51.4524],[98.1001,51.4584],[98.0228,51.42],[97.9449,51.3229],[97.9573,51.2778],[97.9436,51.2493],[97.9535,51.2319],[97.9078,51.1721],[97.8677,51.0455],[97.828,51.0117],[97.8621,50.9749],[97.8673,50.9498],[98.0196,50.867],[98.0195,50.8515],[97.9723,50.8165],[97.955,50.7819],[97.9741,50.7333],[98.0181,50.7012],[98.0488,50.6529],[98.1455,50.5906],[98.2648,50.5746],[98.3232,50.5474],[98.2892,50.4567],[98.2567,50.4111],[98.278,50.3121],[98.2544,50.2555],[98.1718,50.2044],[98.1065,50.0917],[98.0433,50.0452],[97.9729,50.0302],[97.9515,50.0073],[97.9145,49.9955],[97.8745,49.9518],[97.8277,49.9521],[97.7942,49.9879],[97.6745,49.9493],[97.5835,49.9482],[97.5824,49.9311],[97.6114,49.8957],[97.6029,49.8817],[97.4491,49.7957],[97.3162,49.7574],[97.1813,49.7795],[97.1379,49.8279],[97.1287,49.7485],[97.0885,49.6615],[96.8755,49.5087],[96.8775,49.3685],[96.9353,49.3248],[97.0749,49.2585],[97.1757,49.1669],[97.3221,49.1817],[97.5626,49.1506],[97.7056,49.0994],[97.8787,49.0017],[98.0919,48.9867],[98.2111,49.0163],[98.3788,49.0164],[98.5525,48.9345],[98.7425,49.0119],[98.7709,49.0333],[98.7811,49.0845],[98.8141,49.104],[99.1139,49.1137],[99.1466,49.0632],[99.1599,48.9275],[99.2154,48.759],[99.102,48.6212],[99.0761,48.5555],[99.0721,48.5046],[99.102,48.3774],[99.0742,48.2962],[99.266,48.2353],[99.6389,48.2782],[99.7055,48.2959],[99.7397,48.3265],[99.7691,48.3813],[99.7873,48.4855],[99.9393,48.4518],[100.0651,48.3995],[100.1487,48.3871],[100.2012,48.4035],[100.2158,48.4598],[100.2445,48.4796],[100.4763,48.5087],[100.3744,48.6074],[100.3594,48.6715],[100.3776,48.73],[100.4355,48.8252],[100.493,48.8714]]]}},{"type":"Feature","properties":{"gid":"MNG.15_1","name":"南戈壁省","nameEn":"Ömnögovi","type":"省","typeEn":"Province","groupZh":"戈壁地带","groupEn":"Gobi","capital":"达兰扎达嘎德","pop":66000,"area":163509,"blurb":"蒙古经济的发动机：塔温陶勒盖煤矿与奥尤陶勒盖铜矿都在此，戈壁上的巨型矿区。"},"geometry":{"type":"Polygon","coordinates":[[[105.1057,41.621],[105.2655,41.7387],[105.3059,41.7346],[105.7351,41.9321],[106.0574,42.0348],[106.6836,42.2594],[107.2507,42.3523],[107.2665,42.3567],[107.2949,42.4073],[107.4528,42.4619],[107.5199,42.466],[107.5542,42.427],[107.5774,42.4255],[107.9124,42.412],[107.9839,42.4289],[107.9815,42.5877],[108.0337,42.9463],[108.0071,43.1675],[107.9361,43.3039],[107.9363,43.4611],[107.9586,43.6682],[107.9349,43.7443],[107.8517,43.9172],[107.7996,44.0921],[107.6495,44.317],[107.6873,44.5541],[107.4705,44.4914],[107.2897,44.5152],[106.7936,44.4307],[106.58,44.3499],[106.5048,44.308],[106.3776,44.2699],[106.2932,44.2172],[106.132,44.1816],[106.0056,44.1809],[105.9327,44.2061],[105.7682,44.3092],[105.7092,44.4205],[105.5688,44.5654],[105.5064,44.6772],[105.2446,44.6911],[104.9484,44.6679],[104.4128,44.7641],[104.3234,44.7938],[104.2808,44.8206],[104.2372,44.8775],[104.1674,45.0941],[104.1082,45.2022],[104.007,45.1806],[103.7826,45.1692],[103.7762,45.145],[103.708,45.0701],[103.6012,44.9853],[103.3683,44.8919],[103.3262,44.8279],[103.2454,44.8011],[103.2159,44.7361],[103.1055,44.5893],[103.0341,44.4348],[102.9676,44.3681],[102.9397,44.3217],[102.9379,44.2662],[102.9982,44.1575],[102.3705,44.1526],[102.053,44.1108],[101.8079,44.0489],[101.7469,43.9951],[101.5678,43.9502],[101.3305,43.8576],[101.2197,43.8383],[100.6141,43.8345],[100.3905,43.8131],[100.2921,43.8257],[100.2467,43.8437],[100.0208,44.0336],[99.7779,44.1449],[99.6643,44.1443],[99.5047,44.1183],[99.4603,44.1053],[99.4239,44.0741],[99.417,44.0342],[99.4505,43.8473],[99.4511,43.5085],[99.4897,43.2283],[99.5752,42.869],[99.5957,42.7379],[99.5969,42.5859],[99.995,42.6476],[100.2827,42.6308],[100.3265,42.6833],[100.9116,42.6453],[101.8168,42.4736],[102.0633,42.2187],[102.4146,42.1405],[102.5375,42.1464],[102.739,42.1342],[102.976,42.026],[103.3221,41.9075],[103.8624,41.8079],[104.0249,41.811],[104.5437,41.8838],[104.534,41.6626],[104.7077,41.6451],[104.9449,41.6453],[105.0345,41.5677],[105.1057,41.621]]]}},{"type":"Feature","properties":{"gid":"MNG.16_1","name":"鄂尔浑省","nameEn":"Orhon","type":"市","typeEn":"Municipality","groupZh":"杭爱 · 中部","groupEn":"Khangai & Central","capital":"额尔登特","pop":110000,"area":699,"blurb":"围绕额尔登特铜钼矿设市立省，是蒙古最大的工业城市。"},"geometry":{"type":"Polygon","coordinates":[[[104.3424,49.12],[104.2835,49.0807],[104.1031,49.1213],[104.0013,49.0407],[104.0007,48.9868],[104.2416,48.9462],[104.3781,48.8992],[104.4715,48.9388],[104.5631,48.997],[104.5696,49.0264],[104.5195,49.1056],[104.4036,49.1316],[104.3424,49.12]]]}},{"type":"Feature","properties":{"gid":"MNG.17_1","name":"前杭爱省","nameEn":"Övörhangay","type":"省","typeEn":"Province","groupZh":"杭爱 · 中部","groupEn":"Khangai & Central","capital":"阿尔拜赫雷","pop":62000,"area":62670,"blurb":"哈拉和林：成吉思汗帝国的故都（1220），鄂尔浑峡谷文化景观是世界遗产。"},"geometry":{"type":"Polygon","coordinates":[[[101.7186,44.2668],[101.7719,44.1078],[101.8079,44.0489],[102.053,44.1108],[102.3705,44.1526],[102.9982,44.1575],[102.9379,44.2662],[102.9397,44.3217],[102.9676,44.3681],[103.0341,44.4348],[103.1055,44.5893],[103.2159,44.7361],[103.2454,44.8011],[103.3262,44.8279],[103.3683,44.8919],[103.6012,44.9853],[103.708,45.0701],[103.7762,45.145],[103.7797,45.2721],[103.7945,45.3446],[103.7759,45.3679],[103.7333,45.3767],[103.6417,45.4711],[103.6152,45.5818],[103.6421,45.6622],[103.7405,45.7289],[103.8073,45.7504],[104.0269,45.7423],[104.1083,45.7654],[104.1365,45.8],[104.1935,45.9679],[104.2402,46.0088],[104.3089,46.125],[104.4651,46.1184],[104.5368,46.133],[104.5673,46.1549],[104.6245,46.255],[104.6533,46.3805],[104.5608,46.4485],[104.4063,46.5285],[104.3817,46.6925],[104.3238,46.7708],[104.2344,46.8525],[104.3006,46.897],[104.3465,46.906],[104.3538,46.998],[104.3286,47.0408],[104.1793,47.1489],[104.1479,47.2381],[104.1475,47.298],[103.9517,47.2647],[103.6777,47.2506],[103.6253,47.2117],[103.5194,47.187],[103.3498,47.1864],[103.1987,47.2046],[103.0417,47.3098],[102.9416,47.3277],[102.8708,47.3648],[102.7576,47.3803],[102.7141,47.4133],[102.6649,47.3992],[102.6413,47.3676],[102.6569,47.332],[102.7234,47.2782],[102.724,47.2399],[102.6721,47.1749],[102.5882,47.1286],[102.5581,47.0779],[102.5346,46.9782],[102.5117,46.9515],[102.4668,46.9289],[102.3206,47.0172],[102.2302,47.0229],[101.9299,46.9621],[101.8833,46.9323],[101.8478,46.8851],[101.8042,46.866],[101.4124,46.8466],[101.2885,46.8261],[101.41,46.6702],[101.4969,46.5801],[101.4806,46.5391],[101.5259,46.4547],[101.4973,46.3814],[101.4921,46.1897],[101.4531,46.1397],[101.3242,46.074],[101.2898,46.0205],[101.2878,45.9213],[101.3214,45.8148],[101.3238,45.7665],[101.2984,45.6892],[101.2438,45.6246],[101.243,45.5573],[101.1643,45.4796],[101.1423,45.4363],[101.1385,45.1131],[101.1862,45.0274],[101.2278,44.9865],[101.4031,44.9411],[101.5767,44.8477],[101.596,44.8164],[101.5553,44.7761],[101.5398,44.6502],[101.6306,44.5244],[101.7024,44.3428],[101.7186,44.2668]]]}},{"type":"Feature","properties":{"gid":"MNG.18_1","name":"色楞格省","nameEn":"Selenge","type":"省","typeEn":"Province","groupZh":"杭爱 · 中部","groupEn":"Khangai & Central","capital":"苏赫巴托","pop":104000,"area":42013,"blurb":"色楞格河谷是蒙古最肥沃的农区，铁路经苏赫巴托直通俄罗斯纳乌什基。"},"geometry":{"type":"Polygon","coordinates":[[[104.5042,48.8156],[104.5438,48.7888],[104.5149,48.7326],[104.5282,48.6258],[105.014,48.5053],[105.0596,48.5073],[105.167,48.5469],[105.2699,48.5636],[105.4948,48.6445],[105.4448,48.7566],[105.5842,48.82],[105.8345,48.8652],[105.9652,48.8441],[106.014,48.8143],[106.0263,48.7648],[105.9886,48.6884],[106.0172,48.669],[106.0686,48.6479],[106.1715,48.6872],[106.4489,48.5898],[106.4784,48.5613],[106.5724,48.5305],[106.6966,48.517],[106.7607,48.533],[106.8744,48.6],[107.1138,48.6179],[107.1945,48.6023],[107.2532,48.5581],[107.4327,48.5973],[107.5237,48.6302],[107.6168,48.6272],[107.6572,48.6534],[107.736,48.8193],[107.7107,48.855],[107.5988,48.8991],[107.5317,48.9759],[107.6029,49.0213],[107.7065,49.0635],[107.8679,49.0773],[107.9703,49.0609],[108.0885,49.0087],[108.1661,49.0597],[108.3009,49.1075],[108.5215,49.1239],[108.5357,49.2261],[108.5739,49.3359],[108.5229,49.3467],[108.4567,49.4009],[108.3683,49.4428],[108.3483,49.4749],[108.3073,49.4959],[108.2843,49.5287],[108.1383,49.5595],[108.0253,49.6153],[108.0135,49.632],[108.0129,49.6751],[107.9706,49.6638],[107.9455,49.6768],[107.939,49.7012],[107.9823,49.7441],[107.947,49.8555],[107.9771,49.9025],[107.9757,49.9203],[107.8551,49.9216],[107.7437,49.9828],[107.7045,49.9561],[107.58,49.9587],[107.4751,49.9822],[107.3989,49.9754],[107.3265,50.0215],[107.2711,49.9922],[107.1465,50.0197],[107.0705,50.0707],[107.0369,50.1105],[106.9995,50.1885],[106.9665,50.2222],[106.7579,50.3215],[106.5673,50.3471],[106.2793,50.2957],[106.0921,50.351],[106.0801,50.3938],[106.0473,50.4117],[105.9189,50.4104],[105.8171,50.4349],[105.6118,50.4324],[105.3877,50.4793],[105.3194,50.4783],[105.1195,50.3928],[104.9569,50.3983],[104.8171,50.3549],[104.6985,50.3535],[104.5885,50.3137],[104.5068,50.3189],[104.4051,50.305],[104.3677,50.2939],[104.3509,50.2751],[104.4473,50.2167],[104.5225,50.1499],[104.5495,50.1013],[104.5569,50.0497],[104.6167,50.0093],[104.5829,49.9875],[104.5159,49.9825],[104.5232,49.8751],[104.5736,49.8208],[104.6855,49.7409],[104.7335,49.6861],[104.6727,49.6457],[104.6633,49.4865],[104.5949,49.3641],[104.5195,49.1056],[104.5704,49.0113],[104.5168,48.9641],[104.3781,48.8992],[104.5042,48.8156]],[[105.8587,49.577],[105.8389,49.6039],[105.8399,49.6847],[106.003,49.7766],[106.1359,49.8235],[106.1367,49.7313],[106.0684,49.6718],[106.0403,49.6172],[106.3336,49.5277],[106.4101,49.5302],[106.5067,49.6059],[106.7393,49.5379],[106.7793,49.5091],[106.7997,49.4705],[106.7997,49.3703],[106.7809,49.2643],[106.7989,49.1317],[106.6014,49.0873],[106.4372,49.132],[106.3569,49.1861],[106.2195,49.1668],[106.0648,49.0966],[105.9086,49.1078],[105.8084,49.1313],[105.8478,49.229],[105.8927,49.4263],[105.8959,49.4915],[105.8587,49.577]]]}},{"type":"Feature","properties":{"gid":"MNG.19_1","name":"苏赫巴托省","nameEn":"Sühbaatar","type":"省","typeEn":"Province","groupZh":"东部草原","groupEn":"Eastern Steppe","capital":"西乌尔特","pop":62000,"area":81589,"blurb":"以革命领袖苏赫巴托命名的东部省份，典型草原牧区。"},"geometry":{"type":"MultiPolygon","coordinates":[[[[114.0921,44.9802],[114.3897,45.1743],[114.4891,45.2863],[114.5066,45.3637],[114.5269,45.3855],[114.6435,45.4309],[114.7519,45.4531],[114.9139,45.4077],[115.0,45.4017],[115.0001,45.3652],[115.1899,45.3893],[115.3393,45.3831],[115.5797,45.431],[115.7212,45.4384],[115.7653,45.5029],[115.9343,45.6118],[116.0651,45.6755],[116.1676,45.6785],[116.2234,45.7038],[116.2382,45.7385],[116.2735,45.7611],[116.2847,45.8279],[116.2551,45.8821],[116.2621,45.9503],[116.3644,46.0677],[116.3759,46.0979],[116.4277,46.1242],[116.5484,46.2303],[116.3157,46.5467],[116.2803,46.5729],[116.2299,46.5879],[115.7697,46.5887],[115.5635,46.5433],[115.2659,46.5485],[114.9011,46.5015],[114.7003,46.6817],[114.4951,46.7817],[114.4385,46.8303],[114.4166,46.8827],[114.4168,46.9641],[114.4782,47.1306],[114.1701,47.2587],[114.0671,47.3259],[113.9707,47.3666],[113.8222,47.4641],[113.6755,47.5133],[113.1657,47.5638],[112.9486,47.6137],[112.7434,47.5748],[112.6941,47.7939],[112.5309,47.7891],[112.4089,47.7636],[112.1163,47.6445],[112.0759,47.5935],[112.0515,47.4909],[112.0488,47.39],[112.0679,47.316],[111.793,47.3796],[111.6775,47.3287],[111.5337,47.2349],[111.4675,47.1367],[111.4335,46.9941],[111.3851,46.8977],[111.3821,46.8255],[111.3935,46.7919],[111.3005,46.73],[111.2408,46.6476],[111.2338,46.5538],[111.2622,46.4351],[111.2296,46.3359],[111.1671,46.2316],[111.5755,46.0945],[111.6248,46.0543],[111.681,45.9608],[111.7073,45.8827],[111.7165,45.7299],[111.6853,45.5345],[111.7563,45.4921],[111.8095,45.4097],[111.9161,45.3069],[111.9255,45.2755],[111.9111,45.1963],[111.9405,45.0881],[112.4155,45.0615],[112.4859,45.0343],[112.5687,44.9548],[112.7419,44.8747],[112.8379,44.8609],[112.9003,44.8651],[113.1209,44.7997],[113.4617,44.7918],[113.4631,44.7776],[113.6238,44.744],[113.7915,44.8478],[113.9107,44.8863],[114.0921,44.9802]]],[[[113.8117,44.8547],[113.7968,44.8509],[113.8454,44.8618],[113.8117,44.8547]]]]}},{"type":"Feature","properties":{"gid":"MNG.20_1","name":"中央省","nameEn":"Töv","type":"省","typeEn":"Province","groupZh":"杭爱 · 中部","groupEn":"Khangai & Central","capital":"宗莫德","pop":100000,"area":72799,"blurb":"环绕乌兰巴托的省：成吉思汗骑马雕像与特日勒吉国家公园在此。"},"geometry":{"type":"Polygon","coordinates":[[[104.6315,46.3965],[104.6533,46.3805],[104.843,46.4886],[104.9668,46.5905],[105.226,46.5261],[105.3967,46.4389],[105.476,46.5403],[105.66,46.7097],[105.8021,46.7336],[105.8554,46.7188],[105.9651,46.6564],[106.1266,46.6149],[106.1639,46.5746],[106.6334,46.5742],[106.8003,46.5592],[106.8968,46.5269],[107.0394,46.4316],[107.1016,46.4036],[107.341,46.4138],[107.5365,46.4626],[107.6307,46.5419],[107.7854,46.5664],[107.8157,46.5831],[107.8357,46.6227],[107.856,46.7611],[108.1153,46.8108],[108.4799,46.7804],[108.7106,46.8606],[108.7588,46.8951],[108.8205,46.9804],[108.7299,47.0256],[108.6614,47.0863],[108.597,47.2176],[108.5406,47.2817],[108.507,47.3527],[108.4132,47.4608],[108.352,47.5632],[108.2804,47.5791],[108.2287,47.6223],[108.1986,47.7235],[108.2362,47.8258],[108.353,47.9183],[108.4534,47.9047],[108.6005,47.9335],[108.6843,47.965],[108.7869,48.0321],[108.883,48.0758],[108.9108,48.1092],[108.9478,48.1972],[109.0177,48.2639],[109.0339,48.2963],[109.0361,48.3467],[108.8549,48.8165],[108.7381,48.9739],[108.5215,49.1239],[108.4509,49.1243],[108.3357,49.1143],[108.229,49.0854],[108.0885,49.0087],[107.9703,49.0609],[107.8679,49.0773],[107.7065,49.0635],[107.6029,49.0213],[107.5317,48.9759],[107.5988,48.8991],[107.7107,48.855],[107.736,48.8193],[107.6572,48.6534],[107.6168,48.6272],[107.5237,48.6302],[107.4327,48.5973],[107.2532,48.5581],[107.1945,48.6023],[107.1138,48.6179],[106.8744,48.6],[106.7607,48.533],[106.6966,48.517],[106.5724,48.5305],[106.4784,48.5613],[106.4489,48.5898],[106.1715,48.6872],[106.0686,48.6479],[106.0172,48.669],[105.9886,48.6884],[106.0263,48.7648],[106.014,48.8143],[105.9652,48.8441],[105.8345,48.8652],[105.5842,48.82],[105.5118,48.7908],[105.4448,48.7566],[105.4948,48.6445],[105.2699,48.5636],[105.167,48.5469],[105.0596,48.5073],[104.9605,48.5145],[104.5282,48.6258],[104.539,48.4614],[104.5162,48.3749],[104.4974,48.352],[104.4002,48.2984],[104.2884,48.1438],[104.3785,48.0624],[104.3934,47.9885],[104.4948,47.9556],[104.7039,47.9449],[104.7117,47.909],[104.6915,47.8956],[104.6993,47.8173],[104.7605,47.6617],[104.5275,47.6535],[104.4867,47.5997],[104.3542,47.598],[104.2853,47.5832],[104.1562,47.5248],[104.0686,47.4684],[104.0958,47.4179],[104.1719,47.357],[104.1456,47.2647],[104.1793,47.1489],[104.3286,47.0408],[104.3538,46.998],[104.3465,46.906],[104.3006,46.897],[104.2344,46.8525],[104.3238,46.7708],[104.3817,46.6925],[104.4063,46.5285],[104.5608,46.4485],[104.6315,46.3965]],[[106.4306,47.967],[106.4224,48.0979],[106.3564,48.2572],[106.7746,48.1981],[106.8818,48.1719],[107.0994,48.2189],[107.1469,48.1572],[107.332,47.9891],[107.3745,47.9686],[107.5287,47.9385],[107.5574,47.9268],[107.5782,47.8986],[107.5108,47.6519],[107.3363,47.6353],[107.2483,47.6454],[107.0724,47.7283],[106.9306,47.7349],[106.6641,47.7109],[106.5462,47.7352],[106.504,47.7687],[106.4994,47.8651],[106.469,47.9296],[106.4306,47.967]]]}},{"type":"Feature","properties":{"gid":"MNG.21_1","name":"乌兰巴托市","nameEn":"Ulaanbaatar","type":"市","typeEn":"Municipality","groupZh":"杭爱 · 中部","groupEn":"Khangai & Central","capital":"—","pop":1660000,"area":4507,"blurb":"首都：全国一半人口（约 166 万）挤在图勒河谷，世界上最冷的国都（冬季 -30°C）。"},"geometry":{"type":"MultiPolygon","coordinates":[[[[108.4468,47.8858],[108.4534,47.9047],[108.353,47.9183],[108.2362,47.8258],[108.1986,47.7235],[108.2287,47.6223],[108.2615,47.5898],[108.352,47.5632],[108.4037,47.6369],[108.442,47.7183],[108.4359,47.8356],[108.4468,47.8858]]],[[[106.6292,47.7221],[106.6641,47.7109],[106.9306,47.7349],[107.0328,47.7324],[107.1109,47.7182],[107.2483,47.6454],[107.3363,47.6353],[107.4592,47.6417],[107.5108,47.6519],[107.5782,47.8986],[107.5574,47.9268],[107.5287,47.9385],[107.3745,47.9686],[107.332,47.9891],[107.1469,48.1572],[107.0994,48.2189],[106.8818,48.1719],[106.7746,48.1981],[106.3564,48.2572],[106.4224,48.0979],[106.4306,47.967],[106.469,47.9296],[106.4994,47.8651],[106.504,47.7687],[106.5462,47.7352],[106.6292,47.7221]]]]}},{"type":"Feature","properties":{"gid":"MNG.22_1","name":"乌布苏省","nameEn":"Uvs","type":"省","typeEn":"Province","groupZh":"西部山区","groupEn":"Western Mongolia","capital":"乌兰固木","pop":84000,"area":69037,"blurb":"乌布苏盆地（世界遗产）与蒙古最高点乃拉姆达勒峰（4374 m）均在边界一带。"},"geometry":{"type":"Polygon","coordinates":[[[93.4295,48.4243],[93.5134,48.4852],[93.6678,48.5296],[93.685,48.6115],[93.7408,48.6651],[93.9984,48.7347],[94.097,48.7891],[94.2068,48.7791],[94.3827,48.7302],[94.5362,48.7158],[94.7082,48.7182],[94.7269,48.6776],[95.042,48.6883],[95.1344,48.7082],[95.3283,48.8219],[95.449,48.8218],[95.5012,48.85],[95.5257,48.8876],[95.5368,49.0529],[95.5561,49.1215],[95.5903,49.1844],[95.6628,49.2349],[95.726,49.3587],[95.5914,49.4414],[95.4948,49.4843],[95.4611,49.532],[95.4117,49.7179],[95.4973,49.8481],[95.4941,49.8907],[95.5059,49.9217],[95.3341,49.9515],[95.1185,49.9501],[95.0421,49.9819],[94.9973,50.0485],[94.9642,50.0617],[94.8191,50.0601],[94.6673,50.029],[94.6088,50.0387],[94.5987,50.0641],[94.5314,50.1211],[94.5109,50.1695],[94.4071,50.2138],[94.3487,50.4648],[94.3119,50.4991],[94.3035,50.5521],[94.2763,50.5753],[93.9568,50.5912],[93.5221,50.5817],[93.4697,50.6019],[93.3227,50.5775],[93.1041,50.5669],[93.0801,50.5837],[93.0298,50.5866],[92.9831,50.6305],[92.9825,50.6582],[93.0094,50.7025],[93.0062,50.7315],[93.033,50.763],[93.0092,50.784],[92.8187,50.7896],[92.7504,50.7555],[92.748,50.7093],[92.6161,50.7052],[92.6071,50.716],[92.6152,50.7576],[92.5918,50.7703],[92.4711,50.7767],[92.4119,50.8156],[92.4007,50.8829],[92.3718,50.8946],[92.3214,50.8793],[92.2869,50.8086],[92.3051,50.7441],[92.2758,50.7162],[92.1958,50.6848],[92.1439,50.681],[92.0228,50.6835],[91.8544,50.7356],[91.8236,50.7219],[91.7566,50.7204],[91.7421,50.7011],[91.6558,50.6596],[91.6495,50.6155],[91.6599,50.5915],[91.6457,50.5764],[91.5937,50.5605],[91.5079,50.5637],[91.4407,50.5467],[91.4308,50.5264],[91.4489,50.5039],[91.4489,50.4775],[91.4292,50.4577],[91.2571,50.4845],[91.1393,50.4579],[90.9454,50.4768],[90.8085,50.4637],[90.7377,50.4879],[90.6983,50.4452],[90.7006,50.423],[90.6658,50.3595],[90.668,50.3368],[90.6933,50.3167],[90.7442,50.3223],[90.775,50.2885],[90.7747,50.2666],[90.7525,50.2394],[90.6834,50.213],[90.6754,50.1683],[90.5422,50.1775],[90.3683,50.1445],[90.3038,50.0864],[90.2875,50.0323],[90.2643,50.0157],[90.1905,50.0355],[90.0867,50.0377],[89.9895,50.0051],[90.0791,49.9761],[90.1231,49.9427],[90.1803,49.7867],[90.2391,49.7213],[90.3981,49.6543],[90.5033,49.5843],[90.5887,49.4737],[90.5883,49.4333],[90.6675,49.3389],[90.7475,49.2984],[90.8245,49.3064],[90.8968,49.2787],[90.9959,49.1068],[91.0212,49.0394],[91.124,48.9755],[91.2022,48.9442],[91.2834,48.8577],[91.3142,48.7928],[91.3383,48.6718],[91.5149,48.7796],[91.6685,48.9169],[91.7813,48.9538],[91.9425,48.9688],[91.9342,48.9038],[91.9585,48.8039],[92.0075,48.7793],[92.1104,48.7831],[92.152,48.7732],[92.2329,48.6217],[92.4736,48.6202],[92.8246,48.5573],[92.888,48.5736],[92.9735,48.6302],[93.0833,48.631],[93.1695,48.5938],[93.2323,48.5024],[93.2731,48.4645],[93.3366,48.4396],[93.4295,48.4243]]]}}]}