{"type":"FeatureCollection","features":[{"type":"Feature","properties":{"gid":"NLD.1_1","name":"德伦特省","nameEn":"Drenthe","nameLocal":"","type":"Province","typeEn":"Province","groupZh":"省","area":2653.3,"iso":"NL-DR","engtype":"Province","capital":"阿森","pop":502000,"blurb":"东北部农业省，巨石墓与自然保护区。"},"geometry":{"type":"Polygon","coordinates":[[[6.52366,52.64551],[6.56126,52.66566],[6.62382,52.67404],[6.7181,52.64886],[6.71349,52.64352],[6.71636,52.6399],[6.71009,52.6283],[6.72619,52.63326],[6.74317,52.64579],[6.75886,52.64884],[6.76796,52.64686],[6.79012,52.65269],[6.82133,52.64767],[6.83733,52.65199],[6.85088,52.64867],[6.87215,52.65307],[6.89712,52.65133],[6.91395,52.64668],[6.91898,52.63998],[6.93845,52.6379],[6.96801,52.64179],[6.9758,52.64626],[7.04187,52.63268],[7.05558,52.64337],[7.07204,52.81087],[7.09269,52.8382],[7.07842,52.83908],[7.07699,52.84515],[7.08039,52.84931],[7.07389,52.84777],[7.06799,52.8513],[7.04745,52.86443],[7.04393,52.87114],[7.02172,52.87205],[7.04186,52.91154],[7.02715,52.91553],[7.01648,52.92366],[6.98061,52.96384],[6.94794,52.99271],[6.75274,53.11612],[6.7034,53.12112],[6.64459,53.10559],[6.6447,53.11363],[6.63578,53.11641],[6.64035,53.11906],[6.62285,53.13533],[6.60954,53.14449],[6.59606,53.14551],[6.59053,53.16351],[6.57236,53.15739],[6.56668,53.17001],[6.55645,53.18087],[6.55037,53.17824],[6.543,53.18369],[6.53879,53.19539],[6.51487,53.20009],[6.50429,53.19749],[6.49242,53.20387],[6.45618,53.1961],[6.45146,53.18716],[6.4152,53.17758],[6.41198,53.16774],[6.38913,53.15264],[6.39055,53.14906],[6.37347,53.12225],[6.37166,53.10708],[6.36415,53.10707],[6.35173,53.08653],[6.32341,53.09391],[6.31265,53.08052],[6.37528,53.06661],[6.37009,53.03344],[6.43604,52.9719],[6.4023,52.93267],[6.34203,52.9062],[6.31107,52.92527],[6.26483,52.92739],[6.23919,52.9132],[6.21492,52.89091],[6.12632,52.85374],[6.20876,52.79402],[6.17557,52.7673],[6.13375,52.75677],[6.12771,52.75052],[6.16394,52.69287],[6.17719,52.68653],[6.17115,52.67937],[6.19037,52.67476],[6.1919,52.67744],[6.18752,52.68196],[6.19347,52.68282],[6.20079,52.67649],[6.20981,52.6845],[6.22617,52.68441],[6.25131,52.67886],[6.26005,52.66983],[6.26897,52.67067],[6.27777,52.66523],[6.2912,52.66872],[6.30295,52.66236],[6.306,52.66682],[6.33427,52.67021],[6.33715,52.6657],[6.33405,52.65944],[6.37229,52.64301],[6.3722,52.63852],[6.38383,52.62766],[6.38509,52.61688],[6.3939,52.61322],[6.40289,52.61764],[6.41177,52.61667],[6.41782,52.62201],[6.42813,52.61923],[6.44021,52.62901],[6.45031,52.61636],[6.46957,52.6162],[6.47118,52.62157],[6.47868,52.6251],[6.48891,52.61872],[6.52736,52.6148],[6.52366,52.64551]]]}},{"type":"Feature","properties":{"gid":"NLD.2_1","name":"弗莱福兰省","nameEn":"Flevoland","nameLocal":"","type":"Province","typeEn":"Province","groupZh":"省","area":1461.6,"iso":"NL-FL","engtype":"Province","capital":"莱利斯塔德","pop":444000,"blurb":"填海造出的年轻省，须德海工程产物。"},"geometry":{"type":"MultiPolygon","coordinates":[[[[5.30388,52.31247],[5.4085,52.25332],[5.53499,52.27485],[5.5542,52.31343],[5.55716,52.32151],[5.55423,52.32779],[5.55866,52.33228],[5.54689,52.33767],[5.54397,52.35024],[5.56906,52.36728],[5.58968,52.36277],[5.6177,52.36453],[5.63398,52.38156],[5.66502,52.39767],[5.72709,52.41639],[5.75216,52.41364],[5.79511,52.43418],[5.80996,52.44401],[5.81595,52.45476],[5.82337,52.45833],[5.85471,52.49413],[5.86383,52.52013],[5.86257,52.54347],[5.85673,52.55246],[5.81698,52.57862],[5.76959,52.57965],[5.66154,52.59693],[5.64529,52.60772],[5.56966,52.59435],[5.50146,52.55401],[5.46149,52.55312],[5.45261,52.53516],[5.44817,52.53696],[5.43929,52.52888],[5.44521,52.51721],[5.4053,52.49297],[5.392,52.49027],[5.2371,52.42545],[5.22828,52.41825],[5.21354,52.41643],[5.22826,52.42274],[5.16495,52.39927],[5.16056,52.39297],[5.12674,52.37942],[5.13722,52.35701],[5.13731,52.34444],[5.13294,52.33815],[5.14918,52.33191],[5.14333,52.32651],[5.14777,52.32383],[5.15215,52.32922],[5.19924,52.33652],[5.20955,52.33564],[5.22137,52.32938],[5.22725,52.33209],[5.24497,52.32942],[5.30388,52.31247]]],[[[5.4319,52.52708],[5.43211,52.53639],[5.4452,52.55581],[5.43189,52.53785],[5.43042,52.5208],[5.43634,52.5226],[5.43929,52.52978],[5.4319,52.52708]]],[[[5.46888,52.56568],[5.45261,52.56209],[5.4452,52.55581],[5.46888,52.56568]]],[[[5.60695,52.65986],[5.60696,52.65627],[5.62186,52.65091],[5.65806,52.61594],[5.6691,52.61315],[5.84999,52.6135],[5.97025,52.63911],[5.9913,52.65631],[5.97382,52.66684],[5.94109,52.67067],[5.94066,52.67473],[5.9529,52.68402],[5.96938,52.69025],[5.97256,52.69842],[5.95887,52.712],[5.94888,52.7148],[5.92873,52.75154],[5.86802,52.78046],[5.85601,52.78405],[5.82469,52.78422],[5.82469,52.78782],[5.80113,52.8058],[5.79652,52.80305],[5.7907,52.81736],[5.75513,52.8391],[5.73003,52.84357],[5.73203,52.83512],[5.7194,52.83749],[5.66555,52.82771],[5.60142,52.76574],[5.59813,52.65986],[5.60695,52.65986]]],[[[5.43266,52.62231],[5.40365,52.65004],[5.36652,52.67424],[5.30114,52.69212],[5.29075,52.69032],[5.30263,52.69033],[5.29671,52.68494],[5.28484,52.68402],[5.29673,52.68045],[5.31006,52.68944],[5.36503,52.67424],[5.40365,52.64824],[5.4615,52.59261],[5.47186,52.57107],[5.4689,52.56568],[5.47334,52.56837],[5.46286,52.59269],[5.43266,52.62231]]]]}},{"type":"Feature","properties":{"gid":"NLD.3_1","name":"弗里斯兰省","nameEn":"Fryslân","nameLocal":"","type":"Province","typeEn":"Province","groupZh":"省","area":3563.4,"iso":"NL-FR","engtype":"Province","capital":"吕伐登","pop":659000,"blurb":"北部水务省，弗里斯兰语与十一城市滑冰赛。"},"geometry":{"type":"MultiPolygon","coordinates":[[[[6.23919,52.9132],[6.26483,52.92739],[6.31107,52.92527],[6.34203,52.9062],[6.4023,52.93267],[6.43604,52.9719],[6.37009,53.03344],[6.37528,53.06661],[6.31265,53.08052],[6.32341,53.09391],[6.29804,53.09948],[6.28176,53.11036],[6.26983,53.11403],[6.21287,53.11529],[6.1832,53.13432],[6.18375,53.16662],[6.20067,53.18985],[6.20673,53.1925],[6.20682,53.19789],[6.22648,53.20495],[6.23722,53.21744],[6.23142,53.22915],[6.22096,53.2328],[6.22253,53.23638],[6.2301,53.23903],[6.22716,53.24263],[6.23771,53.24436],[6.24237,53.25241],[6.23943,53.25602],[6.24396,53.25689],[6.25014,53.26582],[6.26222,53.26753],[6.25938,53.27653],[6.26113,53.2882],[6.27468,53.28989],[6.28711,53.3024],[6.29756,53.30499],[6.30066,53.30945],[6.28716,53.31224],[6.29375,53.34091],[6.2607,53.34741],[6.24101,53.34215],[6.23218,53.35387],[6.1871,53.36313],[6.18264,53.36674],[6.17676,53.37575],[6.17399,53.39013],[6.19847,53.40972],[6.17861,53.41486],[6.13917,53.40352],[6.09139,53.4082],[6.08361,53.4043],[6.06139,53.40681],[6.01472,53.40264],[5.93972,53.38903],[5.89028,53.39014],[5.87806,53.39625],[5.88472,53.38875],[5.86917,53.38208],[5.71972,53.33625],[5.64361,53.31958],[5.62583,53.31042],[5.59694,53.30347],[5.56472,53.28597],[5.55472,53.27375],[5.52695,53.25625],[5.48306,53.2407],[5.44805,53.21931],[5.42306,53.18375],[5.41361,53.17986],[5.41972,53.17736],[5.40917,53.17569],[5.40917,53.17236],[5.41694,53.16875],[5.4125,53.14819],[5.41528,53.14486],[5.40583,53.12125],[5.38528,53.10597],[5.38083,53.09264],[5.34528,53.07597],[5.3325,53.07736],[5.33306,53.07375],[5.29139,53.06597],[5.20305,53.01847],[5.20583,53.02264],[5.20028,53.0218],[5.20083,53.01736],[5.1675,53.00069],[5.16998,52.99791],[5.21622,53.01956],[5.21621,53.02225],[5.29985,53.06546],[5.33129,53.07178],[5.34029,53.06641],[5.3407,53.07294],[5.34328,53.06731],[5.34327,53.0718],[5.38369,53.09068],[5.3942,53.07543],[5.39871,53.06017],[5.40771,53.0512],[5.39935,53.05389],[5.38521,53.07183],[5.36724,53.07361],[5.38034,53.05388],[5.37776,53.05388],[5.38225,53.05298],[5.38376,53.0467],[5.37777,53.04401],[5.39275,53.04222],[5.39725,53.03235],[5.40323,53.03146],[5.40921,53.04492],[5.40623,53.02966],[5.40024,53.02966],[5.40025,53.02428],[5.41222,53.02069],[5.41074,53.01082],[5.40028,53.00184],[5.40327,53.00095],[5.40328,52.99018],[5.41676,52.96236],[5.41079,52.95967],[5.41378,52.94711],[5.40035,52.94172],[5.4138,52.92108],[5.41083,52.90941],[5.40487,52.90492],[5.39144,52.90401],[5.3646,52.89233],[5.35865,52.88515],[5.36463,52.87438],[5.41983,52.84929],[5.45709,52.85109],[5.45262,52.85198],[5.45858,52.85468],[5.48391,52.85109],[5.54945,52.83221],[5.57926,52.83577],[5.58523,52.83936],[5.58973,52.84922],[5.62401,52.85008],[5.64939,52.85991],[5.66278,52.85361],[5.66273,52.84374],[5.6985,52.84457],[5.71335,52.83646],[5.71487,52.84095],[5.72069,52.84269],[5.71929,52.83738],[5.73203,52.83512],[5.73003,52.84357],[5.75513,52.8391],[5.7907,52.81736],[5.79652,52.80305],[5.82642,52.81733],[5.83976,52.811],[5.8427,52.80561],[5.88583,52.80098],[5.91873,52.81522],[5.93063,52.82321],[5.92932,52.83043],[5.93382,52.83311],[5.95324,52.83752],[5.96212,52.83299],[5.96518,52.83926],[5.97875,52.84166],[5.99326,52.82119],[6.00512,52.81665],[6.032,52.82191],[6.03781,52.81476],[6.06631,52.82623],[6.05902,52.83704],[6.09034,52.83957],[6.19846,52.88387],[6.21492,52.89091],[6.23919,52.9132]]],[[[5.26306,53.25319],[5.25009,53.25531],[5.24367,53.2511],[5.25472,53.24903],[5.27139,53.25208],[5.26306,53.25319]]],[[[5.07861,53.30629],[5.05806,53.30625],[4.99472,53.28653],[4.92528,53.25236],[4.85472,53.22403],[4.84972,53.22014],[4.84972,53.21347],[4.86139,53.20486],[4.88083,53.21653],[4.92528,53.21819],[4.95194,53.23514],[4.97472,53.24042],[5.0025,53.25653],[4.98806,53.26097],[4.99028,53.26625],[5.04639,53.28431],[5.06361,53.29375],[5.08417,53.29681],[5.0925,53.29458],[5.09917,53.30097],[5.09806,53.30403],[5.07861,53.30629]]],[[[5.14195,53.29849],[5.12695,53.29875],[5.11361,53.29014],[5.10972,53.28347],[5.12639,53.27875],[5.15806,53.2957],[5.14195,53.29849]]],[[[5.4825,53.41875],[5.51083,53.42681],[5.51139,53.43069],[5.54194,53.43097],[5.54639,53.44125],[5.5525,53.44236],[5.53972,53.44736],[5.50472,53.44736],[5.37139,53.42097],[5.19583,53.39486],[5.15417,53.36125],[5.1525,53.35431],[5.17472,53.34653],[5.18861,53.34625],[5.20583,53.35653],[5.21806,53.35597],[5.22306,53.3657],[5.24417,53.36597],[5.25806,53.37264],[5.29583,53.37014],[5.29583,53.37625],[5.30417,53.37514],[5.31361,53.38014],[5.32583,53.37736],[5.34417,53.38236],[5.37694,53.39931],[5.39528,53.40375],[5.47417,53.40625],[5.4775,53.41014],[5.4575,53.41542],[5.47472,53.41375],[5.47361,53.41903],[5.4825,53.41875]]],[[[6.06361,53.45708],[6.04972,53.45458],[6.04917,53.44958],[6.06639,53.45264],[6.06361,53.45708]]],[[[5.67583,53.47097],[5.65861,53.47236],[5.62972,53.46486],[5.61583,53.45375],[5.61528,53.44097],[5.63139,53.42986],[5.68139,53.42431],[5.69083,53.42903],[5.70361,53.42903],[5.72417,53.44264],[5.77306,53.43958],[5.77472,53.43597],[5.77028,53.43236],[5.77528,53.43236],[5.77806,53.43764],[5.80639,53.43736],[5.89139,53.4507],[5.9075,53.45681],[5.94861,53.45709],[5.9775,53.46236],[5.95861,53.46819],[5.9325,53.46847],[5.72139,53.45931],[5.67583,53.47097]]],[[[6.04806,53.47986],[6.03528,53.47709],[6.01528,53.46403],[6.02861,53.46069],[6.05361,53.46681],[6.06583,53.46486],[6.06695,53.47264],[6.04806,53.47986]]],[[[6.35639,53.50764],[6.35917,53.50958],[6.16528,53.50292],[6.13528,53.48931],[6.12861,53.47653],[6.13361,53.4668],[6.12806,53.46625],[6.12806,53.46041],[6.13694,53.45236],[6.16028,53.46347],[6.16194,53.46875],[6.1575,53.47014],[6.16194,53.47292],[6.19528,53.47181],[6.24583,53.47597],[6.26306,53.47986],[6.27806,53.48931],[6.35639,53.50764]]]]}},{"type":"Feature","properties":{"gid":"NLD.4_1","name":"海尔德兰省","nameEn":"Gelderland","nameLocal":"","type":"Province","typeEn":"Province","groupZh":"省","area":5089.5,"iso":"NL-GE","engtype":"Province","capital":"阿纳姆","pop":2090000,"blurb":"最大省份，费吕沃森林与瓦尔河。"},"geometry":{"type":"Polygon","coordinates":[[[5.13576,51.73854],[5.1677,51.74311],[5.22585,51.74414],[5.25492,51.73426],[5.27394,51.74063],[5.30582,51.73799],[5.35956,51.756],[5.36536,51.76229],[5.36824,51.77935],[5.37404,51.79012],[5.41184,51.82336],[5.42058,51.82246],[5.43515,51.8117],[5.47154,51.8117],[5.4832,51.81798],[5.48757,51.82696],[5.49629,51.83144],[5.51088,51.82875],[5.52251,51.82066],[5.54242,51.81706],[5.55163,51.81795],[5.5633,51.82782],[5.59535,51.83047],[5.62444,51.82056],[5.64337,51.82054],[5.65354,51.81424],[5.65642,51.80705],[5.66947,51.79536],[5.7,51.78992],[5.71302,51.77732],[5.73918,51.77278],[5.75219,51.76018],[5.77681,51.75294],[5.86126,51.76076],[5.87288,51.75892],[5.87729,51.76429],[5.87442,51.76879],[5.87595,51.77687],[5.90046,51.77842],[5.91945,51.76324],[5.92371,51.75335],[5.94112,51.74969],[5.93817,51.74521],[5.9425,51.7425],[5.95122,51.74247],[5.95142,51.74874],[5.97864,51.75996],[5.99152,51.76916],[5.98232,51.77367],[5.98345,51.77867],[5.99053,51.78319],[5.97458,51.78505],[5.97438,51.79563],[5.97817,51.79723],[5.94651,51.81313],[5.94812,51.81657],[5.95781,51.81716],[5.94503,51.82366],[5.96289,51.83679],[5.98702,51.83056],[6.00164,51.83232],[6.01801,51.84158],[6.02902,51.84509],[6.03501,51.84286],[6.05527,51.8523],[6.05181,51.85663],[6.05952,51.85758],[6.06338,51.86544],[6.09934,51.84949],[6.13629,51.84721],[6.16641,51.84084],[6.16366,51.8535],[6.16682,51.86097],[6.14451,51.86986],[6.13722,51.88563],[6.10334,51.89262],[6.11805,51.90167],[6.12552,51.89831],[6.15717,51.90522],[6.16548,51.89878],[6.16956,51.90134],[6.19112,51.89164],[6.19137,51.88735],[6.1819,51.8859],[6.18524,51.8815],[6.21544,51.8678],[6.26177,51.86813],[6.26982,51.87408],[6.27952,51.87408],[6.29894,51.8679],[6.30656,51.84922],[6.34681,51.85065],[6.36017,51.84579],[6.36294,51.83623],[6.38954,51.83327],[6.40175,51.82729],[6.40778,51.82809],[6.40278,51.83674],[6.40814,51.83659],[6.40242,51.84457],[6.40919,51.85233],[6.38806,51.86195],[6.39082,51.87394],[6.42785,51.86573],[6.43241,51.85939],[6.45107,51.86531],[6.46238,51.85598],[6.47258,51.85381],[6.49958,51.86176],[6.50112,51.86813],[6.52458,51.87371],[6.54446,51.88467],[6.54956,51.88315],[6.55242,51.8862],[6.5604,51.8821],[6.58562,51.89391],[6.63425,51.90104],[6.68423,51.91762],[6.69546,51.91576],[6.69752,51.90987],[6.70367,51.90939],[6.70328,51.90641],[6.72166,51.89618],[6.7752,51.91982],[6.79396,51.93507],[6.79864,51.95882],[6.82851,51.96407],[6.83279,51.97298],[6.82657,51.99353],[6.80775,51.995],[6.81148,51.99815],[6.7662,52.01884],[6.75264,52.02865],[6.71466,52.03989],[6.68773,52.0399],[6.68692,52.05573],[6.69598,52.06435],[6.69465,52.0698],[6.73559,52.07468],[6.74788,52.08202],[6.75122,52.08549],[6.74452,52.09308],[6.75507,52.0949],[6.76063,52.11872],[6.76851,52.11869],[6.7265,52.11915],[6.67259,52.13138],[6.68462,52.14203],[6.68235,52.16629],[6.65472,52.17555],[6.65013,52.16842],[6.64,52.1739],[6.62213,52.1642],[6.61347,52.16967],[6.61652,52.17413],[6.60061,52.18326],[6.56525,52.17821],[6.52131,52.1822],[6.50506,52.17785],[6.48904,52.18338],[6.47899,52.19334],[6.47913,52.19962],[6.46598,52.20242],[6.43856,52.2242],[6.42563,52.23777],[6.42575,52.24315],[6.41989,52.24409],[6.39929,52.24336],[6.39055,52.24702],[6.37575,52.24265],[6.35959,52.24277],[6.3477,52.23658],[6.34752,52.2276],[6.32987,52.22683],[6.30635,52.2261],[6.30204,52.23152],[6.27992,52.22718],[6.22269,52.23205],[6.22554,52.22665],[6.19767,52.22952],[6.19039,52.23494],[6.17418,52.23146],[6.17119,52.22788],[6.17696,52.22157],[6.1725,52.218],[6.16966,52.2243],[6.15504,52.22887],[6.14924,52.23429],[6.15078,52.23877],[6.16264,52.24499],[6.16121,52.24769],[6.13188,52.25235],[6.13495,52.26214],[6.12926,52.27301],[6.12053,52.27934],[6.1192,52.28922],[6.10909,52.30184],[6.09143,52.30193],[6.08724,52.31811],[6.07399,52.31818],[6.08462,52.34057],[6.0833,52.35135],[6.10255,52.35752],[6.08496,52.3648],[6.08801,52.37196],[6.12941,52.37982],[6.13846,52.40044],[6.11805,52.4086],[6.12727,52.43279],[6.10975,52.44545],[6.11135,52.45442],[6.10716,52.4706],[6.07779,52.48332],[6.06171,52.49958],[6.03528,52.50956],[6.03079,52.50599],[6.0145,52.50427],[5.97278,52.47663],[5.96547,52.48384],[5.95808,52.48388],[5.93285,52.4741],[5.90805,52.50561],[5.88307,52.52186],[5.87269,52.5192],[5.84707,52.46633],[5.84264,52.46635],[5.8337,52.4574],[5.82928,52.45921],[5.83381,52.46996],[5.82335,52.45653],[5.83069,52.45113],[5.81727,52.43501],[5.77132,52.41],[5.70623,52.38144],[5.6841,52.37878],[5.66018,52.36591],[5.65013,52.36731],[5.63268,52.35748],[5.62066,52.36266],[5.62404,52.35608],[5.6074,52.33851],[5.56598,52.31522],[5.54676,52.27753],[5.5335,52.26408],[5.50702,52.26499],[5.48055,52.25692],[5.47614,52.26231],[5.46731,52.25602],[5.44085,52.25243],[5.42027,52.24524],[5.40851,52.24704],[5.39825,52.221],[5.41289,52.21385],[5.41441,52.21921],[5.44527,52.20486],[5.44527,52.17165],[5.45261,52.16806],[5.48489,52.16626],[5.47755,52.16357],[5.48929,52.15818],[5.48781,52.151],[5.50541,52.14741],[5.50248,52.14202],[5.52007,52.13663],[5.5186,52.13214],[5.50393,52.13035],[5.50099,52.12497],[5.50245,52.11958],[5.51125,52.12048],[5.51417,52.11419],[5.49219,52.11599],[5.49951,52.1133],[5.49071,52.10612],[5.49217,52.09445],[5.46433,52.08099],[5.48922,52.07022],[5.51119,52.0738],[5.51559,52.07918],[5.52877,52.07828],[5.53756,52.08276],[5.53317,52.08546],[5.53611,52.08994],[5.54344,52.08904],[5.54492,52.09801],[5.5376,52.10251],[5.55666,52.10609],[5.56104,52.1007],[5.56101,52.08813],[5.56831,52.07915],[5.56385,52.04953],[5.57702,52.04862],[5.57407,52.04144],[5.596,52.03514],[5.59306,52.03155],[5.59303,52.02078],[5.59595,52.02077],[5.593,52.01188],[5.59882,52.00192],[5.62071,51.99112],[5.62068,51.98304],[5.63234,51.97495],[5.62646,51.96688],[5.63371,51.9534],[5.61177,51.94356],[5.59281,51.95166],[5.55924,51.95798],[5.54459,51.96877],[5.5169,51.97416],[5.49207,51.98404],[5.44823,51.98584],[5.38829,51.96966],[5.36057,51.97054],[5.33869,51.95795],[5.32263,51.95524],[5.30508,51.9624],[5.27438,51.96595],[5.24657,51.97936],[5.23489,51.97665],[5.22909,51.96766],[5.21014,51.95955],[5.18526,51.96846],[5.12295,51.89919],[5.11719,51.8884],[5.09531,51.88923],[5.0852,51.87663],[5.06044,51.87386],[5.05613,51.86666],[5.06784,51.86131],[5.06494,51.85951],[5.00957,51.85841],[4.99788,51.86106],[5.00387,51.84492],[5.03596,51.84145],[5.03034,51.81899],[5.00556,51.82159],[5.01435,51.81714],[5.02026,51.80818],[5.05237,51.79842],[5.07582,51.77965],[5.09612,51.7878],[5.10485,51.78782],[5.12384,51.778],[5.14278,51.77357],[5.13995,51.76189],[5.14727,51.75563],[5.1299,51.74391],[5.13576,51.73854]]]}},{"type":"Feature","properties":{"gid":"NLD.5_1","name":"格罗宁根省","nameEn":"Groningen","nameLocal":"","type":"Province","typeEn":"Province","groupZh":"省","area":2363.3,"iso":"NL-GR","engtype":"Province","capital":"格罗宁根","pop":592000,"blurb":"东北端，天然气田与大学城。"},"geometry":{"type":"MultiPolygon","coordinates":[[[[6.9171,53.0116],[6.94794,52.99271],[6.98061,52.96384],[7.02359,52.91765],[7.04186,52.91154],[7.02172,52.87205],[7.04393,52.87114],[7.04745,52.86443],[7.06799,52.8513],[7.07389,52.84777],[7.08039,52.84931],[7.07699,52.84515],[7.07842,52.83908],[7.09234,52.83896],[7.08732,52.84993],[7.18157,52.9413],[7.2093,53.00024],[7.21728,53.00698],[7.2128,53.01096],[7.19925,53.08102],[7.20279,53.11328],[7.18287,53.12171],[7.18573,53.12419],[7.18092,53.1277],[7.17894,53.13814],[7.18963,53.14803],[7.19046,53.16176],[7.20374,53.1765],[7.22705,53.17992],[7.20796,53.18848],[7.2176,53.19897],[7.21058,53.2369],[7.17306,53.24127],[7.16361,53.24569],[7.1425,53.24597],[7.13417,53.25014],[7.11139,53.25097],[7.08028,53.26375],[7.07805,53.27125],[7.08472,53.28153],[7.0825,53.29347],[7.09861,53.30819],[7.07639,53.29986],[7.02472,53.30208],[7.00917,53.30597],[7.0125,53.31042],[7.01083,53.31403],[6.99917,53.30958],[6.93472,53.32681],[6.93139,53.32875],[6.93361,53.33208],[6.94472,53.32764],[6.93694,53.3343],[6.90139,53.34736],[6.89639,53.3532],[6.89361,53.35958],[6.89528,53.3693],[6.89194,53.37014],[6.8875,53.38264],[6.88972,53.38903],[6.88417,53.39208],[6.8875,53.39625],[6.87305,53.40764],[6.87361,53.42264],[6.88417,53.43347],[6.88417,53.43819],[6.8625,53.45125],[6.84417,53.45653],[6.84028,53.45542],[6.83806,53.44625],[6.84694,53.44237],[6.82361,53.44514],[6.83028,53.44903],[6.80861,53.4518],[6.81306,53.45458],[6.81306,53.4518],[6.81861,53.45375],[6.83417,53.45014],[6.83583,53.45819],[6.81528,53.46347],[6.79861,53.4543],[6.76472,53.46375],[6.75472,53.46264],[6.7525,53.46569],[6.67417,53.45986],[6.5525,53.43347],[6.38028,53.4193],[6.3375,53.41097],[6.33583,53.40542],[6.31083,53.39653],[6.25528,53.41514],[6.21639,53.40958],[6.19805,53.41208],[6.17399,53.39013],[6.17676,53.37575],[6.1871,53.36313],[6.22769,53.3557],[6.24101,53.34215],[6.2607,53.34741],[6.29375,53.34091],[6.28716,53.31224],[6.30066,53.30945],[6.29756,53.30499],[6.28711,53.3024],[6.27468,53.28989],[6.26113,53.2882],[6.25938,53.27653],[6.26222,53.26753],[6.25014,53.26582],[6.24396,53.25689],[6.23943,53.25602],[6.24237,53.25241],[6.23771,53.24436],[6.22716,53.24263],[6.2301,53.23903],[6.22096,53.2328],[6.23142,53.22915],[6.23722,53.21744],[6.22648,53.20495],[6.20682,53.19789],[6.20673,53.1925],[6.20067,53.18985],[6.18375,53.16662],[6.1832,53.13432],[6.21287,53.11529],[6.26983,53.11403],[6.29068,53.1067],[6.29804,53.09948],[6.35173,53.08653],[6.36415,53.10707],[6.37166,53.10708],[6.37347,53.12225],[6.39055,53.14906],[6.38913,53.15264],[6.41198,53.16774],[6.4152,53.17758],[6.45146,53.18716],[6.45618,53.1961],[6.49242,53.20387],[6.50429,53.19749],[6.51487,53.20009],[6.53879,53.19539],[6.543,53.18369],[6.55037,53.17824],[6.55645,53.18087],[6.56668,53.17001],[6.57236,53.15739],[6.59053,53.16351],[6.59606,53.14551],[6.60954,53.14449],[6.62285,53.13533],[6.64035,53.11906],[6.63578,53.11641],[6.6447,53.11363],[6.64459,53.10559],[6.7034,53.12112],[6.74683,53.11887],[6.9171,53.0116]]],[[[6.59139,53.52514],[6.58194,53.5257],[6.58139,53.52292],[6.59361,53.51931],[6.59472,53.52458],[6.59139,53.52514]]],[[[6.47806,53.55403],[6.45528,53.55069],[6.45972,53.54236],[6.46583,53.53959],[6.46083,53.53597],[6.47028,53.52292],[6.48639,53.52403],[6.49528,53.53014],[6.49195,53.53208],[6.5125,53.53264],[6.48139,53.54625],[6.48695,53.55014],[6.47806,53.55403]]],[[[6.57472,53.54319],[6.57028,53.54403],[6.58028,53.53847],[6.59806,53.54014],[6.57472,53.54319]]]]}},{"type":"Feature","properties":{"gid":"NLD.7_1","name":"林堡省","nameEn":"Limburg","nameLocal":"","type":"Province","typeEn":"Province","groupZh":"省","area":2154.0,"iso":"NL-LI","engtype":"Province","capital":"马斯特里赫特","pop":1120000,"blurb":"南部三角地，马斯特里赫特条约签署地。"},"geometry":{"type":"Polygon","coordinates":[[[6.01553,50.74829],[6.02862,50.72522],[6.0367,50.72349],[6.03315,50.73098],[6.03979,50.73756],[6.04048,50.74551],[6.02139,50.75311],[6.01832,50.76317],[6.0278,50.77374],[5.97486,50.79797],[5.9758,50.80241],[5.98551,50.81056],[6.00348,50.80132],[6.02505,50.81416],[6.02215,50.81684],[6.02627,50.81995],[6.02278,50.82652],[6.02499,50.82766],[6.0188,50.82926],[6.01653,50.8338],[6.01888,50.84628],[6.05484,50.85735],[6.05676,50.85107],[6.07398,50.84678],[6.07729,50.86073],[6.08819,50.87243],[6.07531,50.8934],[6.08098,50.90867],[6.09392,50.92133],[6.089,50.9187],[6.07174,50.92315],[6.05666,50.92177],[6.05389,50.92229],[6.056,50.92714],[6.05087,50.93],[6.04564,50.92803],[6.01816,50.93444],[6.0168,50.95251],[6.00526,50.95684],[6.01557,50.96272],[6.02643,50.98327],[5.98085,50.98311],[5.9682,50.97947],[5.95516,50.98841],[5.8972,50.97485],[5.89267,50.98035],[5.90381,50.9875],[5.90552,51.00216],[5.89574,51.00436],[5.89585,51.01101],[5.87866,51.01814],[5.87459,51.02932],[5.87803,51.03754],[5.86741,51.04625],[5.86625,51.0512],[5.89234,51.05323],[5.91317,51.06673],[5.91896,51.06378],[5.92639,51.04799],[5.93811,51.03514],[5.95789,51.03471],[5.9579,51.04098],[5.96897,51.04665],[5.96985,51.0606],[5.99779,51.08426],[6.01766,51.09454],[6.03747,51.09703],[6.05313,51.10677],[6.06031,51.11593],[6.07575,51.11916],[6.08084,51.12614],[6.08706,51.12463],[6.08441,51.126],[6.09187,51.13498],[6.11593,51.13907],[6.12595,51.14512],[6.16341,51.14884],[6.16273,51.15279],[6.17542,51.15848],[6.13881,51.17333],[6.1807,51.18642],[6.16502,51.19436],[6.12219,51.18118],[6.10009,51.16997],[6.08231,51.17164],[6.07334,51.18297],[6.06797,51.22051],[6.08578,51.22261],[6.07266,51.24259],[6.08504,51.24741],[6.12448,51.27459],[6.12983,51.28657],[6.15408,51.30737],[6.16862,51.33295],[6.19307,51.33473],[6.18984,51.33935],[6.22613,51.36052],[6.21442,51.38963],[6.22638,51.39966],[6.20522,51.39952],[6.21487,51.43438],[6.21393,51.44633],[6.22052,51.44689],[6.2234,51.47494],[6.21302,51.4911],[6.21208,51.51338],[6.20074,51.52658],[6.17702,51.53867],[6.15702,51.56668],[6.1306,51.58107],[6.12128,51.59278],[6.09123,51.60591],[6.09398,51.62213],[6.10004,51.62412],[6.11136,51.64501],[6.10948,51.64683],[6.11711,51.65084],[6.11824,51.65609],[6.10318,51.66031],[6.08804,51.65981],[6.03687,51.67283],[6.02977,51.67823],[6.03248,51.68402],[6.02816,51.68963],[6.03177,51.69273],[6.02623,51.70873],[6.04499,51.71698],[6.03794,51.71994],[6.03543,51.71772],[6.02908,51.72568],[5.99422,51.73827],[5.95512,51.73806],[5.95247,51.74285],[5.9425,51.7425],[5.93817,51.74521],[5.94112,51.74969],[5.92371,51.75335],[5.91945,51.76324],[5.89489,51.77949],[5.87595,51.77687],[5.87442,51.76879],[5.87729,51.76429],[5.87288,51.75892],[5.88445,51.7526],[5.89437,51.72653],[5.96395,51.71099],[5.96384,51.70112],[5.97227,51.67685],[5.97347,51.6544],[5.98068,51.64717],[6.00663,51.6372],[6.03107,51.62092],[6.03511,51.59666],[6.048,51.58493],[6.04779,51.56878],[6.05636,51.55976],[6.04184,51.55714],[6.04035,51.55355],[6.01162,51.57164],[5.94338,51.55489],[5.9144,51.5532],[5.90001,51.56134],[5.8465,51.56781],[5.86042,51.50582],[5.86898,51.49323],[5.88016,51.45189],[5.94012,51.38613],[5.87925,51.35405],[5.68018,51.31688],[5.63249,51.27477],[5.62657,51.23079],[5.57059,51.22145],[5.57688,51.21695],[5.65157,51.19987],[5.65537,51.18644],[5.70956,51.18135],[5.7492,51.19005],[5.76308,51.18758],[5.78269,51.18132],[5.78412,51.1746],[5.78056,51.16963],[5.78612,51.16545],[5.78274,51.15991],[5.82173,51.16263],[5.82801,51.16872],[5.83413,51.16846],[5.84327,51.15404],[5.85876,51.14596],[5.84365,51.13495],[5.82497,51.12928],[5.81707,51.12081],[5.81573,51.11489],[5.83305,51.10917],[5.83637,51.10417],[5.83466,51.10044],[5.82286,51.09465],[5.80319,51.09359],[5.8007,51.08915],[5.80608,51.08079],[5.79976,51.07283],[5.80191,51.06392],[5.78275,51.06509],[5.76405,51.03752],[5.76357,51.03271],[5.77449,51.02516],[5.76781,51.01392],[5.77072,51.01115],[5.76307,50.99235],[5.72579,50.964],[5.72499,50.95996],[5.73097,50.95642],[5.75191,50.95938],[5.7573,50.95304],[5.73222,50.92446],[5.72351,50.90906],[5.70349,50.90611],[5.68769,50.88209],[5.67017,50.88031],[5.65199,50.87251],[5.6475,50.85203],[5.65253,50.8296],[5.6605,50.82199],[5.70107,50.80537],[5.70524,50.78594],[5.6911,50.76114],[5.69544,50.75828],[5.70677,50.76277],[5.73236,50.76266],[5.75456,50.77847],[5.77345,50.78495],[5.78321,50.77985],[5.7907,50.7695],[5.81336,50.76007],[5.83255,50.76397],[5.85586,50.76117],[5.88115,50.76927],[5.90474,50.75517],[5.95965,50.76207],[6.01162,50.75689],[6.01553,50.74829]]]}},{"type":"Feature","properties":{"gid":"NLD.8_1","name":"北布拉班特省","nameEn":"Noord-Brabant","nameLocal":"","type":"Province","typeEn":"Province","groupZh":"省","area":5069.5,"iso":"NL-NB","engtype":"Province","capital":"斯海尔托亨博斯","pop":2590000,"blurb":"南部工业省，埃因霍温高科技与飞利浦。"},"geometry":{"type":"Polygon","coordinates":[[[5.50305,51.29579],[5.51288,51.29303],[5.55148,51.26654],[5.56027,51.22884],[5.57059,51.22145],[5.62657,51.23079],[5.63249,51.27477],[5.68018,51.31688],[5.87925,51.35405],[5.94012,51.38613],[5.88016,51.45189],[5.86898,51.49323],[5.86042,51.50582],[5.8465,51.56781],[5.90001,51.56134],[5.9144,51.5532],[5.94338,51.55489],[6.01162,51.57164],[6.04035,51.55355],[6.04184,51.55714],[6.05636,51.55976],[6.04779,51.56878],[6.048,51.58493],[6.03511,51.59666],[6.03107,51.62092],[6.00663,51.6372],[5.98068,51.64717],[5.97347,51.6544],[5.97227,51.67685],[5.96384,51.70112],[5.96395,51.71099],[5.89437,51.72653],[5.88445,51.7526],[5.87288,51.75892],[5.86126,51.76076],[5.78704,51.75291],[5.76669,51.75476],[5.75219,51.76018],[5.73918,51.77278],[5.71302,51.77732],[5.7,51.78992],[5.66947,51.79536],[5.65642,51.80705],[5.65354,51.81424],[5.64337,51.82054],[5.62444,51.82056],[5.59535,51.83047],[5.5633,51.82782],[5.55163,51.81795],[5.54242,51.81706],[5.52251,51.82066],[5.51088,51.82875],[5.49629,51.83144],[5.48757,51.82696],[5.47737,51.8135],[5.45553,51.8108],[5.43515,51.8117],[5.42058,51.82246],[5.41184,51.82336],[5.37404,51.79012],[5.36824,51.77935],[5.36536,51.76229],[5.35956,51.756],[5.30582,51.73799],[5.27394,51.74063],[5.25492,51.73426],[5.22585,51.74414],[5.1677,51.74311],[5.13285,51.73853],[5.1299,51.74391],[5.14727,51.75563],[5.13995,51.76189],[5.14278,51.77357],[5.12384,51.778],[5.10485,51.78782],[5.09612,51.7878],[5.08163,51.77967],[5.0729,51.78054],[5.05267,51.79824],[5.02026,51.80818],[5.01435,51.81714],[5.00556,51.82159],[4.93122,51.82846],[4.90796,51.82477],[4.85004,51.79935],[4.80059,51.79729],[4.7745,51.78996],[4.75727,51.77864],[4.75183,51.76521],[4.73916,51.75366],[4.68055,51.72484],[4.54011,51.69431],[4.4302,51.70556],[4.39578,51.68122],[4.39025,51.6695],[4.37601,51.6577],[4.37904,51.65234],[4.37021,51.65764],[4.34148,51.64571],[4.31102,51.64541],[4.26057,51.63324],[4.2388,51.63391],[4.21575,51.62828],[4.19863,51.61823],[4.19171,51.6064],[4.19196,51.59751],[4.19952,51.58592],[4.23655,51.55579],[4.23687,51.54412],[4.2218,51.51254],[4.22342,51.50627],[4.22764,51.5108],[4.232,51.50995],[4.24222,51.50647],[4.23947,51.50105],[4.25106,51.50028],[4.25843,51.49496],[4.25267,51.49401],[4.24677,51.49843],[4.22947,51.49646],[4.22986,51.48196],[4.23406,51.48667],[4.25435,51.48505],[4.25286,51.48682],[4.26167,51.48153],[4.26176,51.47794],[4.27503,51.47094],[4.28218,51.47096],[4.28695,51.45395],[4.27554,51.44845],[4.26385,51.45372],[4.25956,51.45188],[4.27756,51.42603],[4.26481,51.41692],[4.271,51.40083],[4.27,51.38376],[4.27577,51.38382],[4.27809,51.37864],[4.33742,51.38128],[4.34643,51.36072],[4.39666,51.36003],[4.42266,51.36784],[4.42747,51.37623],[4.42457,51.38603],[4.39986,51.40363],[4.39226,51.41723],[4.39537,51.44843],[4.40897,51.45883],[4.44281,51.47112],[4.47861,51.481],[4.53778,51.48477],[4.55199,51.47215],[4.53036,51.44706],[4.53715,51.42363],[4.59085,51.4314],[4.64065,51.42398],[4.66284,51.42727],[4.67911,51.42539],[4.67876,51.44445],[4.70746,51.45584],[4.71207,51.46582],[4.72361,51.47019],[4.73693,51.48659],[4.75214,51.49752],[4.77934,51.50382],[4.80493,51.49713],[4.83863,51.47983],[4.83992,51.45812],[4.82922,51.43962],[4.83495,51.42239],[4.78602,51.43195],[4.77328,51.42889],[4.78261,51.41544],[4.79749,51.40946],[4.83293,51.40934],[4.88472,51.41563],[4.92573,51.39862],[4.93607,51.3975],[5.00656,51.4391],[5.01697,51.45514],[5.01492,51.4642],[5.01786,51.47073],[5.03724,51.48539],[5.05102,51.47153],[5.08211,51.46693],[5.09481,51.44893],[5.09751,51.42853],[5.07662,51.40473],[5.07582,51.39513],[5.12241,51.36013],[5.13671,51.31553],[5.20995,51.32352],[5.23302,51.3131],[5.24574,51.30525],[5.2284,51.27313],[5.23021,51.26714],[5.24102,51.26169],[5.26488,51.26691],[5.33409,51.26382],[5.35764,51.27291],[5.42067,51.26113],[5.44781,51.27882],[5.48069,51.28798],[5.48947,51.29738],[5.50305,51.29579]],[[4.93861,51.45126],[4.9631,51.4544],[4.96765,51.44851],[4.95316,51.44454],[4.95205,51.43121],[4.93731,51.42957],[4.92898,51.43224],[4.92711,51.4379],[4.9279,51.4477],[4.93861,51.45126]]]}},{"type":"Feature","properties":{"gid":"NLD.9_1","name":"北荷兰省","nameEn":"Noord-Holland","nameLocal":"","type":"Province","typeEn":"Province","groupZh":"省","area":2864.1,"iso":"NL-NH","engtype":"Province","capital":"哈勒姆","pop":2930000,"blurb":"包括阿姆斯特丹与郁金香花田，运河与海岸。"},"geometry":{"type":"MultiPolygon","coordinates":[[[[4.83937,52.23358],[4.8733,52.25278],[4.91447,52.25297],[4.93191,52.27009],[4.92885,52.27996],[4.97153,52.27925],[4.9876,52.29008],[5.00085,52.28924],[5.00665,52.29824],[5.01543,52.30366],[5.02574,52.3028],[5.02742,52.28126],[5.03324,52.28757],[5.04653,52.28223],[5.06265,52.28946],[5.07008,52.28141],[5.06269,52.28498],[5.0539,52.28136],[5.05247,52.27689],[5.02749,52.27319],[5.0365,52.25437],[5.04678,52.25619],[5.04983,52.24364],[5.06166,52.2356],[5.04407,52.23016],[5.03691,52.20949],[5.03985,52.2095],[5.03992,52.20232],[5.02668,52.20407],[5.04143,52.19783],[5.03715,52.18436],[5.04597,52.18349],[5.05053,52.16555],[5.12819,52.18106],[5.19721,52.17764],[5.22055,52.20462],[5.22779,52.22527],[5.27017,52.2819],[5.31138,52.27747],[5.29957,52.29002],[5.30837,52.29811],[5.32161,52.30082],[5.31276,52.3053],[5.2966,52.2963],[5.27891,52.30435],[5.26122,52.30703],[5.25383,52.31598],[5.25086,52.31149],[5.19645,52.30869],[5.17734,52.30415],[5.16555,52.30592],[5.14781,52.31754],[5.14186,52.32561],[5.11532,52.33002],[5.09757,52.33894],[5.04752,52.33519],[5.04013,52.33786],[5.04017,52.33337],[5.03575,52.33335],[5.02981,52.33872],[5.0386,52.34414],[5.03267,52.3477],[5.00471,52.34401],[4.98542,52.3574],[4.96175,52.36538],[4.96172,52.36807],[4.97944,52.36545],[4.98382,52.36906],[4.96157,52.38064],[4.96745,52.38335],[4.98377,52.37355],[5.00141,52.379],[5.0044,52.37453],[5.01473,52.37367],[5.01611,52.38354],[5.02933,52.38898],[5.03512,52.40067],[5.05566,52.41331],[5.07042,52.41336],[5.07623,52.42415],[5.0909,52.43496],[5.09471,52.44825],[5.13852,52.45992],[5.13555,52.46261],[5.11339,52.46164],[5.103,52.4679],[5.09399,52.48761],[5.10279,52.46664],[5.0928,52.45081],[5.09275,52.43939],[5.08921,52.43564],[5.05247,52.43932],[5.05092,52.44831],[5.05818,52.46178],[5.04638,52.45995],[5.03598,52.4653],[5.07142,52.46811],[5.07287,52.47081],[5.06396,52.47616],[5.06241,52.48513],[5.06679,52.49054],[5.08008,52.49237],[5.08886,52.50317],[5.08434,52.51303],[5.06948,52.52196],[5.04545,52.56047],[5.03355,52.56671],[5.03644,52.57303],[5.0229,52.59539],[5.02731,52.599],[5.01972,52.61782],[5.02257,52.6295],[5.04915,52.64126],[5.06068,52.63715],[5.05813,52.63321],[5.06703,52.63235],[5.06705,52.63679],[5.07294,52.63506],[5.08475,52.64138],[5.09663,52.64052],[5.11005,52.63068],[5.12487,52.63252],[5.13234,52.62536],[5.1309,52.61908],[5.16349,52.62275],[5.18122,52.63356],[5.20196,52.6363],[5.21082,52.6444],[5.23451,52.65253],[5.24042,52.65702],[5.25068,52.68486],[5.27443,52.6867],[5.28332,52.6921],[5.28331,52.69569],[5.30852,52.7047],[5.29215,52.71455],[5.28763,52.7307],[5.29208,52.7325],[5.28611,52.74147],[5.27568,52.74594],[5.2623,52.74502],[5.27419,52.74683],[5.26227,52.7531],[5.19683,52.75476],[5.17908,52.73857],[5.1538,52.7403],[5.13885,52.75103],[5.12693,52.75459],[5.12244,52.75906],[5.12384,52.76984],[5.10745,52.77338],[5.11732,52.84521],[5.05103,52.92308],[5.0406,52.92125],[5.04201,52.93023],[5.05248,52.92847],[5.0425,52.93681],[5.03694,52.93653],[5.03694,52.93986],[5.02639,52.94153],[5.02806,52.93986],[5.02083,52.93458],[5.0025,52.93597],[4.96528,52.92931],[4.95972,52.92653],[4.9525,52.91375],[4.94583,52.90875],[4.9375,52.9082],[4.93972,52.90597],[4.93528,52.90292],[4.90972,52.89597],[4.9075,52.89264],[4.87361,52.88847],[4.81194,52.91014],[4.80194,52.91847],[4.79139,52.93542],[4.79194,52.94431],[4.80305,52.95708],[4.80139,52.96403],[4.79139,52.96347],[4.79583,52.96014],[4.79028,52.95764],[4.79361,52.95403],[4.78139,52.95986],[4.78583,52.9632],[4.77694,52.96514],[4.73917,52.96375],[4.72472,52.95792],[4.71695,52.9468],[4.70972,52.88014],[4.67583,52.79653],[4.65139,52.76292],[4.64028,52.73431],[4.63361,52.68319],[4.5975,52.5182],[4.57194,52.47264],[4.56369,52.46843],[4.54235,52.4671],[4.56806,52.46736],[4.60028,52.47375],[4.60583,52.46819],[4.5825,52.4632],[4.5941,52.45781],[4.57972,52.46236],[4.58574,52.45708],[4.57837,52.46281],[4.56927,52.45867],[4.56899,52.46224],[4.56444,52.46241],[4.56528,52.4582],[4.56028,52.45764],[4.55528,52.46264],[4.53694,52.45903],[4.53139,52.46431],[4.53583,52.4582],[4.54972,52.45958],[4.55434,52.45416],[4.55787,52.44439],[4.55639,52.42597],[4.49417,52.32766],[4.56487,52.3092],[4.57061,52.31643],[4.57506,52.31466],[4.5853,52.31833],[4.61338,52.31314],[4.59047,52.27977],[4.57011,52.26795],[4.57046,52.25],[4.5649,52.2338],[4.55182,52.22652],[4.55844,52.21869],[4.62112,52.21446],[4.64161,52.21819],[4.67225,52.23097],[4.68556,52.22567],[4.706,52.23388],[4.7266,52.23221],[4.7254,52.21605],[4.73731,52.20625],[4.74599,52.21438],[4.76503,52.21808],[4.77959,52.22714],[4.81193,52.22643],[4.83937,52.23358]]],[[[4.98239,52.36457],[5.00076,52.34944],[5.01054,52.35032],[5.00902,52.3548],[4.99569,52.36193],[4.98239,52.36457]]],[[[5.16829,52.99916],[5.04806,52.93986],[5.05688,52.93656],[5.16829,52.99916]]],[[[4.69972,52.97252],[4.7088,52.97388],[4.68861,52.98014],[4.68831,52.98575],[4.6755,52.98715],[4.66548,52.98156],[4.66153,52.97131],[4.66316,52.96526],[4.68039,52.95874],[4.68551,52.96819],[4.69972,52.97252]]],[[[4.86028,53.18208],[4.85139,53.18181],[4.82861,53.16958],[4.73083,53.07736],[4.71972,53.06014],[4.70972,53.03153],[4.70972,53.01125],[4.7175,52.9932],[4.73083,52.9857],[4.74694,52.99347],[4.7675,52.99597],[4.76472,53.00153],[4.74861,53.00847],[4.75028,53.01069],[4.78028,53.00208],[4.79139,53.00236],[4.79639,53.00708],[4.79028,53.00708],[4.81917,53.02958],[4.84806,53.03431],[4.8625,53.04625],[4.86306,53.05181],[4.87195,53.05514],[4.87361,53.07014],[4.88861,53.07264],[4.89806,53.07986],[4.89861,53.11958],[4.90806,53.13597],[4.88972,53.15458],[4.88028,53.15542],[4.87583,53.16014],[4.87417,53.17153],[4.86028,53.18208]]]]}},{"type":"Feature","properties":{"gid":"NLD.10_1","name":"上艾瑟尔省","nameEn":"Overijssel","nameLocal":"","type":"Province","typeEn":"Province","groupZh":"省","area":3360.3,"iso":"NL-OV","engtype":"Province","capital":"兹沃勒","pop":1170000,"blurb":"东部，羊角村水上村落与风车。"},"geometry":{"type":"Polygon","coordinates":[[[6.87309,52.13272],[6.88045,52.15599],[6.90584,52.16998],[6.90823,52.17601],[6.95132,52.18101],[6.97419,52.20517],[6.98511,52.22528],[7.00346,52.22852],[7.02655,52.22572],[7.061,52.23478],[7.06587,52.24126],[7.04244,52.2561],[7.02876,52.27348],[7.02644,52.28956],[7.04131,52.31117],[7.0388,52.31236],[7.04676,52.31618],[7.0471,52.32391],[7.05555,52.33216],[7.05643,52.33806],[7.07217,52.35227],[7.07219,52.37341],[7.0588,52.39933],[7.03583,52.40253],[7.02213,52.42269],[7.01089,52.42907],[6.99397,52.46552],[6.98794,52.46954],[6.97756,52.46548],[6.96183,52.4436],[6.94168,52.43549],[6.86186,52.45142],[6.85261,52.44994],[6.85431,52.4596],[6.77463,52.45961],[6.7531,52.4638],[6.69772,52.48634],[6.70537,52.52026],[6.68087,52.55334],[6.71608,52.54857],[6.72618,52.56321],[6.75234,52.55912],[6.76662,52.56151],[6.71871,52.58868],[6.72714,52.61505],[6.71009,52.62732],[6.71636,52.6399],[6.71349,52.64352],[6.7181,52.64886],[6.62085,52.67407],[6.56126,52.66566],[6.5237,52.64714],[6.52736,52.6148],[6.48891,52.61872],[6.47868,52.6251],[6.47118,52.62157],[6.46957,52.6162],[6.45031,52.61636],[6.44021,52.62901],[6.42813,52.61923],[6.41782,52.62201],[6.41177,52.61667],[6.40289,52.61764],[6.3939,52.61322],[6.38509,52.61688],[6.38383,52.62766],[6.3722,52.63852],[6.37229,52.64301],[6.33405,52.65944],[6.33715,52.6657],[6.33427,52.67021],[6.306,52.66682],[6.30295,52.66236],[6.2912,52.66872],[6.27777,52.66523],[6.26897,52.67067],[6.26005,52.66983],[6.25131,52.67886],[6.22617,52.68441],[6.20981,52.6845],[6.20079,52.67649],[6.19347,52.68282],[6.18752,52.68196],[6.1919,52.67744],[6.19037,52.67476],[6.17115,52.67937],[6.17719,52.68653],[6.16394,52.69287],[6.12771,52.75052],[6.13375,52.75677],[6.17557,52.7673],[6.20876,52.79402],[6.12632,52.85374],[6.08735,52.83869],[6.05902,52.83704],[6.06631,52.82623],[6.03781,52.81476],[6.032,52.82191],[6.00512,52.81665],[5.99326,52.82119],[5.97875,52.84166],[5.96518,52.83926],[5.96212,52.83299],[5.95324,52.83752],[5.93382,52.83311],[5.92932,52.83043],[5.93063,52.82321],[5.91873,52.81522],[5.88583,52.80098],[5.8427,52.80561],[5.83976,52.811],[5.82642,52.81733],[5.80113,52.8058],[5.82469,52.78782],[5.82469,52.78422],[5.85601,52.78405],[5.86802,52.78046],[5.92873,52.75154],[5.94888,52.7148],[5.95887,52.712],[5.97256,52.69842],[5.96938,52.69025],[5.9559,52.68585],[5.94066,52.67473],[5.94251,52.66884],[5.97382,52.66684],[5.99123,52.65696],[6.01048,52.65328],[6.02959,52.63973],[6.02656,52.63526],[6.0177,52.63799],[5.99678,52.62552],[5.99384,52.62733],[5.9938,52.62464],[5.96415,52.62476],[5.96263,52.62118],[5.93289,52.61322],[5.92398,52.61236],[5.896,52.61968],[5.84689,52.61084],[5.83939,52.60099],[5.84232,52.59739],[5.83926,52.58573],[5.78443,52.5832],[5.81997,52.5822],[5.84212,52.57495],[5.84942,52.56236],[5.86265,52.55244],[5.86403,52.54615],[5.8611,52.54527],[5.86551,52.54166],[5.87269,52.5192],[5.88307,52.52186],[5.89045,52.51914],[5.91537,52.49841],[5.93285,52.4741],[5.95808,52.48388],[5.96547,52.48384],[5.97278,52.47663],[6.0145,52.50427],[6.03079,52.50599],[6.03528,52.50956],[6.06171,52.49958],[6.07779,52.48332],[6.10716,52.4706],[6.11135,52.45442],[6.10975,52.44545],[6.12727,52.43279],[6.11805,52.4086],[6.13846,52.40044],[6.12941,52.37982],[6.08801,52.37196],[6.08496,52.3648],[6.10255,52.35752],[6.0833,52.35135],[6.08462,52.34057],[6.07399,52.31818],[6.08724,52.31811],[6.09143,52.30193],[6.10909,52.30184],[6.1192,52.28922],[6.12053,52.27934],[6.12926,52.27301],[6.13495,52.26214],[6.13188,52.25235],[6.16121,52.24769],[6.16264,52.24499],[6.15078,52.23877],[6.14924,52.23429],[6.15504,52.22887],[6.16966,52.2243],[6.1725,52.218],[6.17696,52.22157],[6.17119,52.22788],[6.17418,52.23146],[6.19039,52.23494],[6.19767,52.22952],[6.22554,52.22665],[6.22269,52.23205],[6.27992,52.22718],[6.30204,52.23152],[6.30635,52.2261],[6.34752,52.2276],[6.3477,52.23658],[6.35959,52.24277],[6.37575,52.24265],[6.39055,52.24702],[6.39929,52.24336],[6.41989,52.24409],[6.42575,52.24315],[6.42563,52.23777],[6.43856,52.2242],[6.46598,52.20242],[6.47913,52.19962],[6.47899,52.19334],[6.48904,52.18338],[6.50506,52.17785],[6.52131,52.1822],[6.56525,52.17821],[6.60061,52.18326],[6.61652,52.17413],[6.61347,52.16967],[6.62213,52.1642],[6.64,52.1739],[6.65013,52.16842],[6.65472,52.17555],[6.68235,52.16629],[6.68462,52.14203],[6.67259,52.13138],[6.6886,52.12673],[6.7265,52.11915],[6.82134,52.11821],[6.85539,52.12043],[6.87309,52.13272]]]}},{"type":"Feature","properties":{"gid":"NLD.11_1","name":"乌得勒支省","nameEn":"Utrecht","nameLocal":"","type":"Province","typeEn":"Province","groupZh":"省","area":1552.1,"iso":"NL-UT","engtype":"Province","capital":"乌得勒支","pop":1390000,"blurb":"中心省份，荷兰交通与铁路枢纽。"},"geometry":{"type":"Polygon","coordinates":[[[5.1519,51.93248],[5.18526,51.96846],[5.21014,51.95955],[5.22909,51.96766],[5.24072,51.97935],[5.24949,51.97847],[5.27438,51.96595],[5.30508,51.9624],[5.32263,51.95524],[5.33869,51.95795],[5.35327,51.96874],[5.38829,51.96966],[5.42339,51.97686],[5.44238,51.98584],[5.49207,51.98404],[5.5169,51.97416],[5.54459,51.96877],[5.55924,51.95798],[5.59281,51.95166],[5.61177,51.94356],[5.63371,51.9534],[5.63373,51.95789],[5.62646,51.96688],[5.63234,51.97495],[5.62068,51.98304],[5.62071,51.99112],[5.59882,52.00192],[5.593,52.01188],[5.59595,52.02077],[5.59303,52.02078],[5.59306,52.03155],[5.596,52.03514],[5.57407,52.04144],[5.57702,52.04862],[5.56385,52.04953],[5.56831,52.07915],[5.56101,52.08813],[5.56104,52.1007],[5.55666,52.10609],[5.5376,52.10251],[5.54492,52.09801],[5.54344,52.08904],[5.53611,52.08994],[5.53317,52.08546],[5.53756,52.08276],[5.52877,52.07828],[5.51559,52.07918],[5.51119,52.0738],[5.48922,52.07022],[5.46433,52.08099],[5.49217,52.09445],[5.49071,52.10612],[5.49951,52.1133],[5.49219,52.11599],[5.51417,52.11419],[5.51125,52.12048],[5.50245,52.11958],[5.50099,52.12497],[5.50393,52.13035],[5.5186,52.13214],[5.52007,52.13663],[5.50248,52.14202],[5.50541,52.14741],[5.48781,52.151],[5.48929,52.15818],[5.47755,52.16357],[5.48489,52.16626],[5.45261,52.16806],[5.44527,52.17165],[5.44527,52.20486],[5.41441,52.21921],[5.41289,52.21385],[5.39825,52.221],[5.40851,52.24704],[5.37908,52.25959],[5.36877,52.26855],[5.27017,52.2819],[5.22779,52.22527],[5.22055,52.20462],[5.19721,52.17764],[5.12819,52.18106],[5.05053,52.16555],[5.04597,52.18349],[5.03715,52.18436],[5.04143,52.19783],[5.02668,52.20407],[5.03992,52.20232],[5.03985,52.2095],[5.03691,52.20949],[5.04407,52.23016],[5.06166,52.2356],[5.04983,52.24364],[5.04678,52.25619],[5.0365,52.25437],[5.02749,52.27319],[5.05247,52.27689],[5.0539,52.28136],[5.06269,52.28498],[5.07008,52.28141],[5.06265,52.28946],[5.04653,52.28223],[5.03324,52.28757],[5.02742,52.28126],[5.02574,52.3028],[5.01543,52.30366],[5.00665,52.29824],[5.00085,52.28924],[4.9876,52.29008],[4.97153,52.27925],[4.92885,52.27996],[4.93191,52.27009],[4.91447,52.25297],[4.8733,52.25278],[4.83391,52.23103],[4.79723,52.22635],[4.80471,52.21741],[4.80495,52.20126],[4.8167,52.20132],[4.84044,52.18349],[4.85812,52.1791],[4.89502,52.16222],[4.8775,52.15585],[4.87772,52.1388],[4.85868,52.13691],[4.83658,52.14397],[4.82487,52.14212],[4.81319,52.13847],[4.8104,52.12857],[4.79437,52.1222],[4.8283,52.10713],[4.82539,52.10532],[4.82875,52.07482],[4.83756,52.07307],[4.83326,52.06676],[4.87716,52.06878],[4.86981,52.06242],[4.83203,52.0497],[4.81468,52.03435],[4.81187,52.02625],[4.80169,52.02261],[4.80619,52.01455],[4.85002,52.01838],[4.86042,52.00586],[4.82102,52.00027],[4.84913,51.97528],[4.86374,51.96824],[4.87571,51.95388],[4.88176,51.93775],[4.91529,51.94239],[4.92978,51.95144],[4.93566,51.94877],[4.94318,51.92905],[4.95189,51.93358],[4.95938,51.91656],[4.97697,51.90855],[4.97855,51.89779],[4.99891,51.90326],[5.00348,51.88442],[4.99918,51.87722],[5.00067,51.87364],[5.0312,51.88273],[5.0255,51.86924],[5.03142,51.85939],[5.05766,51.85859],[5.06784,51.86131],[5.05613,51.86666],[5.06044,51.87386],[5.0852,51.87663],[5.09531,51.88923],[5.11864,51.8893],[5.13597,51.91448],[5.15337,51.92979],[5.1519,51.93248]]]}},{"type":"Feature","properties":{"gid":"NLD.12_1","name":"泽兰省","nameEn":"Zeeland","nameLocal":"","type":"Province","typeEn":"Province","groupZh":"省","area":1801.9,"iso":"NL-ZE","engtype":"Province","capital":"米德尔堡","pop":391000,"blurb":"西南三角洲，堤坝与海滩，洪水防线。"},"geometry":{"type":"MultiPolygon","coordinates":[[[[3.67419,51.29042],[3.71371,51.27449],[3.7554,51.27392],[3.76475,51.26506],[3.79932,51.25763],[3.78952,51.24107],[3.78871,51.21524],[3.80801,51.20494],[3.8763,51.21355],[3.8842,51.20115],[3.9021,51.19895],[3.92419,51.21054],[3.96249,51.21604],[3.99969,51.24134],[4.05698,51.24804],[4.10438,51.26794],[4.18348,51.30554],[4.23713,51.35126],[4.22344,51.35921],[4.22217,51.36575],[4.2167,51.37012],[4.21417,51.36812],[4.20583,51.37514],[4.19639,51.37653],[4.18305,51.37292],[4.18361,51.36542],[4.18639,51.36486],[4.18194,51.36514],[4.18139,51.37041],[4.17528,51.36542],[4.17695,51.36153],[4.19139,51.35486],[4.17306,51.36125],[4.1725,51.37264],[4.15139,51.36819],[4.15139,51.36292],[4.15917,51.35431],[4.18583,51.3532],[4.1575,51.35264],[4.16028,51.34903],[4.1725,51.34819],[4.16417,51.34736],[4.16972,51.34153],[4.16806,51.33958],[4.16194,51.34625],[4.14639,51.35292],[4.13917,51.36208],[4.1225,51.36458],[4.11194,51.36125],[4.12194,51.35458],[4.13028,51.35403],[4.1275,51.34819],[4.13639,51.34319],[4.13306,51.34125],[4.13639,51.33625],[4.14695,51.33403],[4.1425,51.33347],[4.13306,51.33708],[4.11417,51.35375],[4.0875,51.36347],[4.05028,51.36597],[4.02306,51.39764],[3.98805,51.40625],[3.97472,51.40625],[3.96639,51.39903],[3.96806,51.38514],[3.9625,51.38153],[3.95861,51.36653],[3.94806,51.36736],[3.91417,51.36014],[3.88972,51.34708],[3.87583,51.34625],[3.8675,51.33625],[3.85528,51.33514],[3.84306,51.33514],[3.82583,51.34236],[3.81972,51.33931],[3.79417,51.34597],[3.78917,51.35069],[3.77083,51.34958],[3.77028,51.34597],[3.76694,51.34819],[3.7725,51.34208],[3.76417,51.34069],[3.77195,51.33847],[3.76805,51.33569],[3.75472,51.34236],[3.75972,51.34764],[3.72583,51.34875],[3.69694,51.36264],[3.69417,51.35931],[3.69361,51.36431],[3.68528,51.36597],[3.69083,51.36708],[3.68694,51.37125],[3.61861,51.37958],[3.59972,51.38653],[3.58528,51.38736],[3.57694,51.39542],[3.56639,51.39875],[3.52417,51.40708],[3.50361,51.40708],[3.49972,51.40208],[3.4825,51.39625],[3.45417,51.3932],[3.4375,51.38597],[3.43194,51.39014],[3.42305,51.38958],[3.38194,51.37847],[3.37083,51.37208],[3.37305,51.36958],[3.36937,51.36708],[3.37418,51.36009],[3.36078,51.36764],[3.37279,51.35727],[3.37198,51.34899],[3.38672,51.3361],[3.38698,51.33063],[3.37696,51.32466],[3.37184,51.31604],[3.37678,51.29185],[3.38433,51.28851],[3.38255,51.27727],[3.39427,51.27462],[3.4062,51.26391],[3.42353,51.2609],[3.43008,51.25024],[3.44086,51.24598],[3.52504,51.24884],[3.51396,51.28894],[3.55244,51.292],[3.5559,51.29784],[3.56103,51.29836],[3.57918,51.29178],[3.58339,51.30204],[3.59186,51.30759],[3.64316,51.29162],[3.67419,51.29042]]],[[[3.69306,51.44347],[3.7125,51.43264],[3.72639,51.41514],[3.74417,51.41153],[3.75694,51.41542],[3.76583,51.41042],[3.77695,51.41097],[3.77583,51.40542],[3.81139,51.38569],[3.81917,51.38569],[3.85861,51.39125],[3.87639,51.39764],[3.90028,51.39514],[3.92528,51.43542],[3.92139,51.44347],[3.92528,51.44542],[3.92361,51.4507],[3.93472,51.44931],[3.9375,51.45319],[3.94083,51.45125],[3.97694,51.46181],[4.00306,51.44375],[4.00917,51.4432],[4.00806,51.43958],[4.01139,51.45292],[4.01583,51.44016],[4.05083,51.42986],[4.04695,51.42569],[4.0525,51.41958],[4.07694,51.4082],[4.15195,51.39486],[4.19972,51.40653],[4.20694,51.40014],[4.23482,51.39236],[4.22116,51.37613],[4.27809,51.37864],[4.26847,51.38733],[4.271,51.40083],[4.26481,51.41692],[4.27756,51.42603],[4.26105,51.4501],[4.2469,51.43919],[4.24815,51.44638],[4.24214,51.45529],[4.22445,51.46389],[4.22042,51.45686],[4.22521,51.43985],[4.2224,51.43713],[4.18178,51.44388],[4.15176,51.43277],[4.13447,51.43168],[4.12854,51.437],[4.09508,51.44649],[4.08456,51.45894],[4.05945,51.4766],[4.05432,51.50257],[4.05874,51.49993],[4.05429,51.50347],[4.0442,51.50245],[4.01472,51.52005],[3.95793,51.53101],[3.94076,51.52541],[3.92879,51.53692],[3.9316,51.53965],[3.9271,51.54408],[3.8664,51.54148],[3.86476,51.54684],[3.87316,51.55504],[3.8933,51.5589],[3.8989,51.56436],[3.87333,51.59185],[3.86142,51.60067],[3.84971,51.6041],[3.79893,51.60519],[3.7802,51.60223],[3.77457,51.59766],[3.76147,51.59927],[3.72263,51.59152],[3.7196,51.59507],[3.68139,51.59903],[3.65861,51.59069],[3.62917,51.58625],[3.60861,51.59264],[3.57639,51.59403],[3.49472,51.56653],[3.4375,51.54097],[3.43417,51.52542],[3.43861,51.52542],[3.43917,51.52208],[3.4625,51.50792],[3.49583,51.49458],[3.52639,51.46236],[3.56139,51.44764],[3.56917,51.44042],[3.60083,51.43986],[3.59639,51.44486],[3.59917,51.44959],[3.6025,51.44209],[3.6075,51.44014],[3.62083,51.44403],[3.63695,51.44264],[3.64306,51.44847],[3.65583,51.45153],[3.66639,51.46236],[3.67583,51.45681],[3.68139,51.46236],[3.68806,51.46069],[3.69972,51.46431],[3.7075,51.47014],[3.70306,51.47709],[3.71528,51.47014],[3.72028,51.4743],[3.71361,51.46819],[3.71694,51.46403],[3.71083,51.46625],[3.69195,51.45958],[3.70361,51.45319],[3.7125,51.45292],[3.7275,51.45958],[3.72583,51.45542],[3.7125,51.45236],[3.71972,51.44458],[3.71083,51.44764],[3.70306,51.44347],[3.70694,51.45042],[3.68361,51.45764],[3.67806,51.45014],[3.69306,51.44347]],[[3.62868,51.58561],[3.6445,51.58855],[3.64319,51.58494],[3.65245,51.57071],[3.68627,51.55776],[3.69895,51.56693],[3.68924,51.55601],[3.70137,51.54182],[3.69731,51.53458],[3.70344,51.5257],[3.71463,51.53574],[3.76022,51.55526],[3.80393,51.5478],[3.82534,51.55618],[3.83692,51.55634],[3.85325,51.5449],[3.86463,51.54417],[3.862,51.54322],[3.86646,51.53969],[3.8491,51.53945],[3.84457,51.54477],[3.81978,51.54982],[3.79258,51.54135],[3.75325,51.54798],[3.73327,51.5405],[3.725,51.52961],[3.72809,51.52427],[3.70379,51.51672],[3.70826,51.5132],[3.7169,51.51422],[3.70251,51.51222],[3.68309,51.52808],[3.66919,51.55032],[3.63975,51.56244],[3.62926,51.57126],[3.62868,51.58561]]],[[[3.68253,51.61653],[3.68817,51.62064],[3.69838,51.619],[3.69099,51.62248],[3.69655,51.62885],[3.704,51.62357],[3.70687,51.62451],[3.7038,51.62895],[3.70956,51.62994],[3.72136,51.62473],[3.7312,51.63295],[3.72236,51.63641],[3.72975,51.63293],[3.72416,51.62746],[3.71094,51.63175],[3.71426,51.6418],[3.70306,51.63819],[3.69861,51.64014],[3.69972,51.63653],[3.68528,51.62542],[3.6675,51.62153],[3.67917,51.62236],[3.68139,51.61764],[3.67417,51.61931],[3.68253,51.61653]]],[[[4.23402,51.53757],[4.23655,51.55579],[4.19952,51.58592],[4.19196,51.59751],[4.19171,51.6064],[4.20573,51.62369],[4.2388,51.63391],[4.20093,51.6398],[4.19663,51.63796],[4.20398,51.63445],[4.19838,51.6272],[4.20113,51.63262],[4.19523,51.63615],[4.19208,51.64509],[4.1817,51.65306],[4.16709,51.65649],[4.16992,51.65921],[4.18445,51.65847],[4.18437,51.66117],[4.15393,51.65994],[4.15976,51.6591],[4.15701,51.65369],[4.18915,51.64596],[4.19363,51.64152],[4.1938,51.63524],[4.14986,51.65002],[4.12073,51.65418],[4.10074,51.64318],[4.09943,51.63867],[4.10109,51.63151],[4.11873,51.62363],[4.12774,51.61296],[4.15962,51.61332],[4.17543,51.61798],[4.17839,51.61622],[4.17432,51.60629],[4.11789,51.60297],[4.12092,51.59852],[4.10463,51.61],[4.06397,51.61222],[4.02385,51.59738],[3.99497,51.59433],[3.98506,51.58702],[3.98382,51.58072],[4.02479,51.56776],[4.03078,51.56155],[4.02802,51.55703],[4.04987,51.5528],[4.05293,51.54745],[4.0617,51.54486],[4.06036,51.54125],[4.0649,51.53502],[4.07819,51.5262],[4.13752,51.52599],[4.14343,51.52156],[4.16508,51.5236],[4.17832,51.51566],[4.17277,51.50752],[4.17578,51.50307],[4.21511,51.49272],[4.21957,51.48827],[4.21942,51.49366],[4.17424,51.50664],[4.17979,51.51478],[4.20894,51.50702],[4.22163,51.51883],[4.21854,51.52597],[4.22705,51.53235],[4.22435,51.52513],[4.22727,51.52427],[4.23402,51.53757]]],[[[3.71861,51.6507],[3.72616,51.65083],[3.72748,51.65444],[3.72179,51.66074],[3.72231,51.65569],[3.71472,51.65458],[3.71861,51.6507]]],[[[4.15764,51.68242],[4.12584,51.67758],[4.11563,51.67926],[4.09418,51.66824],[4.08534,51.67262],[4.07666,51.67162],[4.04577,51.68472],[4.01521,51.68705],[4.00743,51.70311],[3.98225,51.71806],[3.98509,51.71989],[3.98344,51.72616],[3.97457,51.73053],[3.97033,51.72689],[3.97306,51.73231],[3.9701,51.73407],[3.91349,51.73155],[3.89126,51.74382],[3.82603,51.73845],[3.82709,51.74924],[3.83711,51.75386],[3.83433,51.75024],[3.84011,51.75121],[3.84282,51.75664],[3.83972,51.75792],[3.82695,51.75236],[3.82472,51.74264],[3.81917,51.73986],[3.77028,51.74292],[3.70472,51.72875],[3.68972,51.72125],[3.67861,51.70458],[3.67972,51.69097],[3.68694,51.68014],[3.70583,51.66819],[3.72083,51.66653],[3.72158,51.66282],[3.72548,51.66878],[3.79298,51.68942],[3.78572,51.6885],[3.79281,51.69581],[3.81442,51.69789],[3.82484,51.69085],[3.82365,51.68365],[3.84419,51.67765],[3.85725,51.67783],[3.87649,51.66731],[3.8752,51.6628],[3.8856,51.65576],[3.89039,51.64326],[3.88931,51.63247],[3.91072,51.64263],[3.89508,51.63344],[3.92571,51.62846],[3.93561,51.63577],[3.94612,51.62513],[3.96822,51.61464],[4.01016,51.61786],[4.05032,51.63181],[4.05768,51.62831],[4.06775,51.63112],[4.09771,51.64763],[4.1019,51.65307],[4.09757,51.65212],[4.10466,51.65759],[4.09421,51.66734],[4.10711,51.67287],[4.14334,51.67508],[4.15049,51.67875],[4.15958,51.66539],[4.17549,51.66736],[4.16235,51.6699],[4.15785,51.67524],[4.15764,51.68242]]]]}},{"type":"Feature","properties":{"gid":"NLD.14_1","name":"南荷兰省","nameEn":"Zuid-Holland","nameLocal":"","type":"NA","typeEn":"NA","groupZh":"NA","area":3135.0,"iso":"NA","engtype":"NA","capital":"海牙","pop":3800000,"blurb":"人口最多省，海牙（政府）、鹿特丹（欧洲最大港）与代尔夫特。"},"geometry":{"type":"Polygon","coordinates":[[[4.36117,51.66149],[4.37487,51.67388],[4.38009,51.68367],[4.39606,51.69609],[4.39984,51.69383],[4.397,51.69111],[4.4081,51.6923],[4.4302,51.70556],[4.54011,51.69431],[4.68055,51.72484],[4.73916,51.75366],[4.75183,51.76521],[4.75727,51.77864],[4.7745,51.78996],[4.80059,51.79729],[4.85004,51.79935],[4.90796,51.82477],[4.93995,51.8285],[5.03034,51.81899],[5.03596,51.84145],[5.00387,51.84492],[4.99788,51.86106],[5.03142,51.85939],[5.0255,51.86924],[5.0312,51.88273],[5.00067,51.87364],[4.99918,51.87722],[5.00348,51.88442],[4.99891,51.90326],[4.97855,51.89779],[4.97697,51.90855],[4.95938,51.91656],[4.95189,51.93358],[4.94318,51.92905],[4.93566,51.94877],[4.92978,51.95144],[4.91529,51.94239],[4.88176,51.93775],[4.87571,51.95388],[4.86374,51.96824],[4.84913,51.97528],[4.82102,52.00027],[4.86042,52.00586],[4.85002,52.01838],[4.80619,52.01455],[4.80169,52.02261],[4.81187,52.02625],[4.81468,52.03435],[4.83203,52.0497],[4.86981,52.06242],[4.87716,52.06878],[4.83326,52.06676],[4.83756,52.07307],[4.82875,52.07482],[4.82539,52.10532],[4.8283,52.10713],[4.79437,52.1222],[4.8104,52.12857],[4.81319,52.13847],[4.82487,52.14212],[4.83658,52.14397],[4.85868,52.13691],[4.87772,52.1388],[4.8775,52.15585],[4.89502,52.16222],[4.85812,52.1791],[4.84044,52.18349],[4.8167,52.20132],[4.80495,52.20126],[4.80471,52.21741],[4.79723,52.22635],[4.78839,52.22809],[4.77959,52.22714],[4.76503,52.21808],[4.74599,52.21438],[4.73731,52.20625],[4.7254,52.21605],[4.7266,52.23221],[4.706,52.23388],[4.68556,52.22567],[4.67225,52.23097],[4.64161,52.21819],[4.62112,52.21446],[4.55844,52.21869],[4.55182,52.22652],[4.5649,52.2338],[4.57046,52.25],[4.57011,52.26795],[4.59047,52.27977],[4.61338,52.31314],[4.5853,52.31833],[4.57506,52.31466],[4.57061,52.31643],[4.56487,52.3092],[4.49417,52.32766],[4.44583,52.26347],[4.37305,52.18458],[4.30805,52.1307],[4.28583,52.11625],[4.27806,52.11792],[4.2825,52.11403],[4.17639,52.03986],[4.12972,51.99958],[4.10306,51.98819],[4.08825,51.97315],[4.03694,51.98375],[4.0375,51.98736],[4.02139,51.98486],[4.00938,51.98743],[3.97838,51.98138],[3.96805,51.97247],[3.96093,51.96143],[3.96378,51.94896],[3.98408,51.91476],[4.03861,51.92375],[4.05417,51.91653],[4.05194,51.90708],[4.03028,51.88792],[4.06861,51.85153],[4.06806,51.84403],[4.05306,51.83764],[4.04139,51.82736],[4.03528,51.82847],[4.03528,51.82542],[4.01639,51.8343],[4.01139,51.8418],[3.99917,51.84319],[4.00361,51.84597],[3.99806,51.84681],[3.8675,51.81847],[3.85472,51.80486],[3.86528,51.78764],[3.86583,51.77819],[3.85417,51.76264],[3.83972,51.75792],[3.86485,51.75065],[3.8749,51.75438],[3.89009,51.75087],[3.90053,51.76131],[3.91749,51.76849],[3.94816,51.77371],[3.99905,51.75871],[4.01014,51.73913],[4.03167,51.72739],[4.03559,51.70977],[4.04864,51.69476],[4.15136,51.6853],[4.19709,51.66196],[4.26656,51.64387],[4.36117,51.66149]]]}}]}