{"type":"FeatureCollection","features":[{"type":"Feature","properties":{"gid":"DEU.1_1","name":"巴登-符腾堡州","nameEn":"Baden-Württemberg","nameLocal":"Baden-Württemberg","type":"州","typeEn":"State","groupZh":"州","area":35976.1,"iso":"NA","engtype":"State","capital":"斯图加特","pop":11104040,"blurb":"汽车与机械制造重镇，奔驰、保时捷总部所在。"},"geometry":{"type":"MultiPolygon","coordinates":[[[[8.35,47.5706],[8.4865,47.5775],[8.4566,47.6023],[8.5083,47.6175],[8.5177,47.6343],[8.5693,47.6172],[8.5665,47.5971],[8.6034,47.6111],[8.5957,47.6431],[8.629,47.6505],[8.6066,47.6721],[8.5334,47.6632],[8.5315,47.6458],[8.4737,47.6498],[8.4735,47.6383],[8.4654,47.6571],[8.4056,47.6745],[8.4206,47.6839],[8.4044,47.6981],[8.455,47.7223],[8.4498,47.7386],[8.4737,47.7645],[8.5773,47.7817],[8.5619,47.7927],[8.5679,47.8085],[8.6186,47.7983],[8.6277,47.7593],[8.653,47.7734],[8.657,47.8003],[8.6809,47.7867],[8.6894,47.7579],[8.7271,47.7623],[8.7414,47.7482],[8.7113,47.7301],[8.7363,47.7162],[8.728,47.6927],[8.7959,47.6753],[8.8101,47.6933],[8.7698,47.7181],[8.8064,47.7383],[8.8188,47.7129],[8.8727,47.7042],[8.8515,47.6975],[8.8506,47.6812],[8.8985,47.6484],[9.0322,47.6865],[9.1758,47.6539],[9.2759,47.6561],[9.5625,47.5399],[9.5611,47.5024],[9.7313,47.5347],[9.7122,47.5508],[9.6808,47.5423],[9.6795,47.5568],[9.6021,47.5843],[9.6433,47.5898],[9.6346,47.6027],[9.6577,47.6117],[9.7063,47.6018],[9.7457,47.6173],[9.7478,47.6037],[9.8422,47.6777],[9.9595,47.6523],[10.029,47.6865],[10.0305,47.6745],[10.0593,47.6806],[10.0773,47.6393],[10.0884,47.6736],[10.1293,47.6761],[10.1394,47.7033],[10.1164,47.7193],[10.119,47.7596],[10.0647,47.7859],[10.138,47.8096],[10.1072,47.8529],[10.0916,47.8456],[10.1046,47.8646],[10.083,47.8557],[10.0768,47.8678],[10.1057,47.879],[10.0953,47.8852],[10.111,47.9349],[10.0849,47.9613],[10.115,47.9763],[10.1343,48.0176],[10.1404,48.0989],[10.1071,48.1321],[10.0607,48.2401],[10.0658,48.2818],[9.9981,48.3475],[9.9999,48.3635],[9.9673,48.3744],[10.0424,48.4297],[10.0281,48.4369],[10.0389,48.4599],[10.1049,48.4775],[10.1339,48.4549],[10.1718,48.4578],[10.1801,48.4755],[10.2414,48.492],[10.2308,48.5105],[10.312,48.5229],[10.3008,48.5451],[10.313,48.5671],[10.2931,48.5898],[10.3231,48.6091],[10.2595,48.6549],[10.2687,48.7035],[10.3175,48.6829],[10.3374,48.689],[10.3611,48.6528],[10.4089,48.6988],[10.4374,48.6931],[10.4106,48.661],[10.4957,48.6884],[10.4715,48.7028],[10.4834,48.7081],[10.4557,48.729],[10.465,48.7348],[10.4479,48.728],[10.4162,48.7481],[10.4282,48.7559],[10.4131,48.7721],[10.4343,48.7762],[10.4211,48.7994],[10.4486,48.812],[10.4491,48.8303],[10.4274,48.843],[10.4541,48.8603],[10.4502,48.8931],[10.4213,48.9058],[10.457,48.9171],[10.4379,48.9334],[10.4514,48.9387],[10.4037,48.9668],[10.4013,48.9862],[10.3522,49.006],[10.3503,49.0284],[10.2518,49.0393],[10.264,49.0617],[10.2342,49.0764],[10.2506,49.0928],[10.205,49.0981],[10.2569,49.1291],[10.248,49.1493],[10.2184,49.1635],[10.1968,49.1558],[10.1812,49.1824],[10.1249,49.1997],[10.1401,49.2089],[10.1198,49.2474],[10.1332,49.2531],[10.1099,49.2583],[10.1566,49.2808],[10.1323,49.3003],[10.1401,49.3256],[10.1048,49.3384],[10.1246,49.3561],[10.1073,49.3788],[10.1617,49.3955],[10.1386,49.4031],[10.1517,49.4123],[10.1337,49.4371],[10.0947,49.4479],[10.1223,49.4639],[10.1,49.4917],[10.1213,49.511],[10.0841,49.5118],[10.0855,49.5422],[10.0614,49.5451],[10.04,49.529],[10.0561,49.5149],[10.0208,49.4861],[9.9266,49.4848],[9.9137,49.4933],[9.9245,49.5612],[9.8982,49.5624],[9.9124,49.5859],[9.8757,49.5786],[9.8593,49.546],[9.8102,49.5573],[9.8728,49.6101],[9.8554,49.6415],[9.8301,49.6517],[9.8234,49.6732],[9.8412,49.6834],[9.8,49.7309],[9.753,49.7101],[9.7394,49.6882],[9.7097,49.7271],[9.6772,49.7162],[9.6761,49.6933],[9.6325,49.6932],[9.6411,49.7232],[9.6277,49.732],[9.6469,49.7391],[9.6487,49.7915],[9.5618,49.7806],[9.5634,49.7446],[9.5465,49.7664],[9.5145,49.7638],[9.5016,49.7887],[9.4583,49.7695],[9.4251,49.7896],[9.3915,49.7701],[9.3157,49.7683],[9.3231,49.7438],[9.2964,49.7387],[9.3742,49.728],[9.344,49.7186],[9.3574,49.7043],[9.3825,49.7075],[9.3856,49.7309],[9.4187,49.7119],[9.4201,49.6902],[9.3979,49.6707],[9.4164,49.6539],[9.3836,49.6428],[9.3676,49.6587],[9.3439,49.6443],[9.3041,49.6549],[9.2707,49.634],[9.285,49.6148],[9.2387,49.5813],[9.1083,49.5793],[9.0989,49.5606],[9.0731,49.5749],[9.0854,49.5434],[9.1264,49.5169],[9.1061,49.5098],[9.0996,49.5262],[9.065,49.5296],[9.0428,49.499],[8.9518,49.5056],[8.9546,49.482],[8.9319,49.4706],[8.9503,49.455],[8.9009,49.4434],[8.8924,49.4209],[8.8505,49.3954],[8.8035,49.4036],[8.8066,49.4192],[8.8365,49.4302],[8.8254,49.467],[8.8519,49.4836],[8.8765,49.4667],[8.8996,49.5037],[8.8312,49.4923],[8.8219,49.5246],[8.7986,49.5117],[8.7277,49.5183],[8.7359,49.5248],[8.7027,49.5353],[8.681,49.5755],[8.698,49.5998],[8.6721,49.6112],[8.6923,49.6237],[8.5939,49.6109],[8.6213,49.545],[8.5814,49.5198],[8.5526,49.5205],[8.4643,49.5895],[8.4224,49.5834],[8.4147,49.5539],[8.4638,49.4704],[8.4427,49.4502],[8.5082,49.4345],[8.4962,49.4021],[8.4635,49.3844],[8.4732,49.3734],[8.5004,49.389],[8.4968,49.3642],[8.4505,49.3231],[8.4891,49.2931],[8.3893,49.234],[8.3848,49.2196],[8.405,49.2204],[8.3684,49.1681],[8.3581,49.0978],[8.3117,49.0543],[8.2858,48.9966],[8.1964,48.9565],[8.1352,48.8875],[8.0943,48.8083],[8.0303,48.7874],[8.0143,48.761],[7.972,48.7581],[7.9633,48.7215],[7.89,48.6626],[7.842,48.6437],[7.8021,48.5888],[7.8061,48.5164],[7.7682,48.4897],[7.7316,48.3917],[7.7446,48.3278],[7.6936,48.3017],[7.6657,48.2205],[7.577,48.1191],[7.5685,48.0352],[7.622,47.9728],[7.5563,47.8775],[7.5629,47.8427],[7.5298,47.7813],[7.5476,47.7298],[7.5116,47.6968],[7.5211,47.6638],[7.5674,47.6317],[7.6045,47.5778],[7.6936,47.6005],[7.6717,47.5874],[7.6859,47.5656],[7.6341,47.5611],[7.6782,47.533],[7.7889,47.5548],[7.8231,47.588],[7.8914,47.5876],[7.9115,47.5513],[7.9432,47.5438],[7.9591,47.5583],[8.0897,47.5578],[8.1095,47.5823],[8.2041,47.6209],[8.2266,47.6051],[8.289,47.6102],[8.3006,47.587],[8.35,47.5706]]],[[[8.6741,47.6979],[8.6585,47.6907],[8.7177,47.6907],[8.7013,47.7152],[8.6646,47.7134],[8.6741,47.6979]]]]}},{"type":"Feature","properties":{"gid":"DEU.2_1","name":"巴伐利亚州","nameEn":"Bayern","nameLocal":"Bayern","type":"州","typeEn":"Free State","groupZh":"州","area":70348.2,"iso":"DE-BY","engtype":"Free State","capital":"慕尼黑","pop":13038724,"blurb":"面积最大州，啤酒、宝马与阿尔卑斯山。"},"geometry":{"type":"Polygon","coordinates":[[[11.4101,47.4954],[11.4426,47.5185],[11.5061,47.5053],[11.5729,47.5151],[11.6063,47.5816],[11.634,47.5812],[11.6367,47.5951],[11.8447,47.5817],[11.8555,47.6029],[12.0091,47.6258],[12.0225,47.6117],[12.2036,47.607],[12.163,47.7017],[12.2042,47.708],[12.2576,47.7436],[12.2656,47.7331],[12.2419,47.695],[12.2558,47.68],[12.3386,47.6976],[12.3642,47.6844],[12.4407,47.6958],[12.4414,47.6745],[12.4998,47.6257],[12.5757,47.6329],[12.608,47.6743],[12.7329,47.6802],[12.7579,47.6636],[12.7818,47.6744],[12.7592,47.6521],[12.8252,47.6126],[12.7798,47.5797],[12.795,47.5576],[12.8483,47.5465],[12.9094,47.4975],[12.9665,47.4754],[12.9787,47.4852],[13.0073,47.4649],[13.0483,47.4927],[13.048,47.522],[13.0316,47.5331],[13.0582,47.5627],[13.0444,47.5839],[13.0714,47.5875],[13.0633,47.602],[13.0996,47.6357],[13.0815,47.6876],[13.019,47.7234],[12.9745,47.7077],[12.906,47.724],[12.9455,47.765],[12.9302,47.7734],[13.0042,47.8503],[12.9389,47.9439],[12.8746,47.9645],[12.8509,48.0168],[12.7602,48.0758],[12.7589,48.1268],[12.7872,48.124],[12.8708,48.2019],[12.9575,48.2101],[13.023,48.2586],[13.1801,48.2954],[13.2574,48.2943],[13.3302,48.3239],[13.4127,48.3759],[13.44,48.4313],[13.4279,48.4575],[13.459,48.5125],[13.4385,48.5578],[13.4762,48.5567],[13.5098,48.5913],[13.7314,48.5154],[13.7549,48.5642],[13.7709,48.5542],[13.8018,48.5742],[13.8022,48.598],[13.8267,48.6192],[13.8144,48.6925],[13.8383,48.7012],[13.7958,48.7157],[13.8402,48.7712],[13.8039,48.7811],[13.8153,48.7969],[13.7931,48.8302],[13.7647,48.8342],[13.7379,48.8858],[13.6762,48.8787],[13.6552,48.8935],[13.6223,48.939],[13.6287,48.9492],[13.6085,48.9405],[13.5855,48.9685],[13.5292,48.9741],[13.5071,48.9691],[13.5083,48.9422],[13.4956,48.9413],[13.4029,48.9873],[13.3971,49.051],[13.2892,49.1186],[13.2364,49.1136],[13.1828,49.1345],[13.1709,49.1736],[13.11,49.2032],[13.1141,49.2184],[13.0861,49.2294],[13.0808,49.2474],[13.0339,49.2639],[13.0291,49.3043],[12.943,49.3442],[12.8802,49.3505],[12.8889,49.333],[12.8768,49.3324],[12.7863,49.3454],[12.7576,49.3948],[12.7087,49.4247],[12.6559,49.4345],[12.6338,49.4762],[12.6442,49.523],[12.5885,49.5385],[12.5607,49.6196],[12.5282,49.6182],[12.5216,49.6868],[12.4429,49.7037],[12.4007,49.7538],[12.4727,49.7859],[12.4729,49.8336],[12.498,49.8376],[12.4978,49.8569],[12.5497,49.9011],[12.5477,49.9203],[12.4755,49.9379],[12.4705,49.949],[12.4995,49.972],[12.4674,49.9929],[12.4315,49.9844],[12.4312,50.0026],[12.3389,50.0396],[12.3254,50.033],[12.3173,50.0534],[12.2609,50.0584],[12.2754,50.0765],[12.1996,50.1112],[12.1952,50.143],[12.216,50.1682],[12.1975,50.1988],[12.1595,50.2112],[12.1513,50.2357],[12.0908,50.2524],[12.1399,50.2776],[12.1256,50.3076],[12.0913,50.3326],[12.0469,50.325],[11.9772,50.3515],[11.9839,50.3887],[11.9494,50.3948],[11.9544,50.4071],[11.9347,50.4237],[11.8243,50.3898],[11.8255,50.4044],[11.7803,50.4188],[11.6246,50.3869],[11.5732,50.4001],[11.5199,50.3743],[11.5189,50.3957],[11.4787,50.4012],[11.4816,50.4316],[11.4434,50.4208],[11.4513,50.431],[11.4206,50.4434],[11.4188,50.4935],[11.4409,50.5],[11.4293,50.5122],[11.3466,50.5215],[11.291,50.4753],[11.2891,50.4856],[11.2471,50.4773],[11.2471,50.4489],[11.268,50.4322],[11.2581,50.4],[11.2843,50.3603],[11.2624,50.3524],[11.2771,50.336],[11.2613,50.3379],[11.2703,50.3067],[11.252,50.2993],[11.2523,50.269],[11.1978,50.2919],[11.1871,50.2696],[11.1459,50.285],[11.1318,50.3081],[11.1592,50.3304],[11.1391,50.3535],[11.1168,50.3493],[11.1153,50.367],[11.043,50.3447],[11.0334,50.3614],[10.9935,50.3655],[10.9995,50.352],[10.9858,50.3473],[10.9376,50.3919],[10.8931,50.3803],[10.8762,50.3965],[10.8304,50.3926],[10.7859,50.3854],[10.7545,50.3582],[10.7153,50.3636],[10.7143,50.3463],[10.7289,50.3479],[10.7144,50.3255],[10.7707,50.2927],[10.8026,50.292],[10.8039,50.2798],[10.8464,50.2751],[10.852,50.2516],[10.824,50.2375],[10.8006,50.2514],[10.7696,50.2408],[10.7322,50.2518],[10.7312,50.2127],[10.7166,50.2048],[10.6867,50.2259],[10.612,50.2241],[10.5971,50.2462],[10.6113,50.2491],[10.5978,50.2626],[10.6073,50.2713],[10.591,50.2718],[10.6053,50.2935],[10.5924,50.3081],[10.6006,50.3337],[10.5618,50.3371],[10.5444,50.3645],[10.4924,50.3551],[10.4944,50.3694],[10.4637,50.376],[10.4495,50.403],[10.3945,50.3937],[10.3845,50.4089],[10.4038,50.4248],[10.3707,50.4319],[10.3813,50.4389],[10.3362,50.4659],[10.3306,50.4943],[10.2308,50.5118],[10.232,50.5311],[10.2039,50.5547],[10.1404,50.5429],[10.1071,50.5637],[10.0397,50.5156],[10.0335,50.4811],[9.9578,50.4232],[9.86,50.3975],[9.7621,50.4259],[9.7329,50.3561],[9.7459,50.3104],[9.7034,50.2808],[9.6524,50.2697],[9.6368,50.2515],[9.6636,50.2337],[9.5829,50.2215],[9.5012,50.2435],[9.4948,50.2267],[9.5162,50.1996],[9.4984,50.1752],[9.5312,50.1609],[9.5076,50.1456],[9.5125,50.0944],[9.4131,50.0841],[9.3756,50.1297],[9.2219,50.1494],[9.1831,50.1384],[9.1916,50.1275],[9.1492,50.0906],[9.1536,50.1179],[9.1202,50.1265],[9.0143,50.109],[8.9759,50.0488],[9.0313,50.0396],[9.0485,49.9939],[9.0157,49.989],[9.0323,49.9247],[9.0234,49.9101],[9.0505,49.8676],[9.0333,49.8665],[9.0361,49.8465],[9.0595,49.847],[9.064,49.8318],[9.0847,49.8475],[9.077,49.8182],[9.0909,49.7907],[9.1317,49.7949],[9.1069,49.7587],[9.1508,49.7429],[9.1225,49.7148],[9.1261,49.7],[9.0896,49.6933],[9.102,49.6422],[9.0659,49.6197],[9.0664,49.6024],[9.1177,49.5737],[9.1944,49.574],[9.2489,49.5845],[9.285,49.6148],[9.2707,49.634],[9.3041,49.6549],[9.406,49.6453],[9.4195,49.6589],[9.3981,49.6715],[9.4223,49.6961],[9.4,49.7288],[9.3574,49.7043],[9.344,49.7186],[9.3742,49.728],[9.2957,49.7405],[9.3231,49.7438],[9.3157,49.7683],[9.3915,49.7701],[9.4228,49.7893],[9.457,49.7695],[9.5032,49.7884],[9.5145,49.7638],[9.5465,49.7664],[9.5623,49.7445],[9.5618,49.7806],[9.6487,49.7915],[9.6469,49.7391],[9.6277,49.732],[9.6411,49.7232],[9.6254,49.7037],[9.6535,49.6871],[9.7097,49.7271],[9.7394,49.6882],[9.753,49.7101],[9.8,49.7309],[9.8412,49.6834],[9.8234,49.6732],[9.8301,49.6517],[9.8554,49.6415],[9.8728,49.6101],[9.8115,49.5557],[9.8593,49.546],[9.8757,49.5786],[9.9124,49.5859],[9.898,49.5648],[9.9269,49.5516],[9.9137,49.4933],[9.9519,49.4804],[10.0208,49.4861],[10.0561,49.5149],[10.04,49.529],[10.0614,49.5451],[10.0855,49.5422],[10.0841,49.5118],[10.1213,49.511],[10.1,49.4917],[10.1223,49.4639],[10.0947,49.4479],[10.1337,49.4371],[10.1517,49.4123],[10.1386,49.4031],[10.1617,49.3955],[10.1073,49.3788],[10.1246,49.3561],[10.1048,49.3384],[10.1401,49.3256],[10.1323,49.3003],[10.1566,49.2808],[10.1099,49.2583],[10.1332,49.2531],[10.1198,49.2474],[10.1401,49.2089],[10.1249,49.1997],[10.1812,49.1824],[10.1968,49.1558],[10.2184,49.1635],[10.248,49.1493],[10.2569,49.1291],[10.205,49.0981],[10.2506,49.0928],[10.2342,49.0764],[10.264,49.0617],[10.25,49.0408],[10.3503,49.0284],[10.3522,49.006],[10.4118,48.979],[10.4037,48.9668],[10.4188,48.9686],[10.4567,48.9205],[10.4213,48.9058],[10.4502,48.8931],[10.4541,48.8603],[10.4274,48.843],[10.4491,48.8303],[10.4486,48.812],[10.4211,48.7994],[10.4343,48.7762],[10.4131,48.7721],[10.4282,48.7559],[10.4162,48.7481],[10.4479,48.728],[10.465,48.7348],[10.4557,48.729],[10.4834,48.7081],[10.4715,48.7028],[10.4951,48.6872],[10.4106,48.661],[10.4374,48.6931],[10.4089,48.6988],[10.3611,48.6528],[10.3374,48.689],[10.3175,48.6829],[10.2687,48.7035],[10.2595,48.6549],[10.3231,48.6091],[10.2931,48.5898],[10.313,48.5671],[10.3008,48.5451],[10.312,48.5229],[10.2308,48.5105],[10.2414,48.492],[10.1801,48.4755],[10.1718,48.4578],[10.1339,48.4549],[10.1049,48.4775],[10.0389,48.4599],[10.0281,48.4369],[10.0424,48.4297],[9.9673,48.3744],[9.9999,48.3635],[9.9981,48.3475],[10.0658,48.2818],[10.0607,48.2401],[10.1071,48.1321],[10.1404,48.0989],[10.1343,48.0176],[10.115,47.9763],[10.0849,47.9613],[10.111,47.9349],[10.0953,47.8852],[10.1057,47.879],[10.0768,47.8678],[10.083,47.8557],[10.1046,47.8646],[10.0916,47.8456],[10.1072,47.8529],[10.138,47.8096],[10.0647,47.7859],[10.119,47.7596],[10.1164,47.7193],[10.1394,47.7033],[10.1301,47.6773],[10.0884,47.6736],[10.0773,47.6393],[10.0593,47.6806],[10.0305,47.6745],[10.029,47.6865],[9.9595,47.6523],[9.8422,47.6777],[9.7478,47.6037],[9.7457,47.6173],[9.7063,47.6018],[9.6577,47.6117],[9.6346,47.6027],[9.6433,47.5898],[9.6021,47.5843],[9.6067,47.5734],[9.7336,47.5343],[9.7659,47.5897],[9.8025,47.5966],[9.8276,47.5806],[9.816,47.5483],[9.8748,47.5292],[9.8815,47.5488],[9.9222,47.5303],[9.9709,47.5464],[9.9655,47.5215],[9.996,47.5034],[10.0011,47.4827],[10.045,47.4882],[10.0703,47.4566],[10.0919,47.4596],[10.1059,47.4293],[10.0694,47.4108],[10.1001,47.3554],[10.1196,47.3762],[10.1662,47.3695],[10.1822,47.393],[10.2366,47.3824],[10.1998,47.3271],[10.2163,47.3117],[10.1799,47.2966],[10.1743,47.2708],[10.2327,47.2711],[10.3307,47.3054],[10.3951,47.3762],[10.4371,47.381],[10.4365,47.4116],[10.4763,47.4334],[10.4683,47.4777],[10.4317,47.5044],[10.4548,47.5564],[10.5715,47.5341],[10.5983,47.5703],[10.6914,47.5594],[10.695,47.5454],[10.7589,47.5351],[10.7779,47.5145],[10.8907,47.5379],[10.9184,47.5142],[10.8724,47.501],[10.8716,47.4823],[10.9365,47.4825],[10.93,47.4708],[10.984,47.4306],[10.9708,47.4007],[11.0054,47.3947],[11.1153,47.396],[11.1285,47.4128],[11.2074,47.4345],[11.2539,47.4288],[11.2254,47.3958],[11.273,47.3986],[11.2915,47.4276],[11.339,47.4505],[11.4217,47.4452],[11.4099,47.4673],[11.3843,47.4728],[11.4101,47.4954]],[[10.4548,47.5564],[10.4294,47.5782],[10.4824,47.5851],[10.4548,47.5564]]]}},{"type":"Feature","properties":{"gid":"DEU.3_1","name":"柏林州","nameEn":"Berlin","nameLocal":"Berlin","type":"州","typeEn":"State","groupZh":"州","area":897.9,"iso":"DE-BE","engtype":"State","capital":"柏林","pop":3596999,"blurb":"联邦首都，既是州也是市。"},"geometry":{"type":"Polygon","coordinates":[[[13.5002,52.6138],[13.5231,52.6454],[13.4754,52.6749],[13.4508,52.6627],[13.47,52.6521],[13.4244,52.6356],[13.3967,52.6483],[13.3582,52.6234],[13.3024,52.6276],[13.31,52.6574],[13.2829,52.6608],[13.2643,52.6269],[13.2207,52.6282],[13.2016,52.6064],[13.2173,52.5875],[13.1643,52.5989],[13.129,52.5874],[13.153,52.5728],[13.1457,52.5529],[13.1306,52.5564],[13.1174,52.517],[13.1665,52.5101],[13.1178,52.479],[13.1092,52.4506],[13.1232,52.4394],[13.0902,52.4124],[13.1116,52.4131],[13.1336,52.3869],[13.2223,52.4204],[13.2458,52.4208],[13.2498,52.405],[13.2961,52.4165],[13.3119,52.3992],[13.3432,52.4116],[13.3885,52.378],[13.421,52.3762],[13.4188,52.4099],[13.4623,52.4206],[13.4799,52.396],[13.5384,52.4007],[13.5357,52.389],[13.5928,52.3942],[13.607,52.375],[13.6434,52.3774],[13.6363,52.347],[13.6484,52.3382],[13.7,52.3751],[13.6876,52.3858],[13.7345,52.402],[13.7295,52.4174],[13.7596,52.4363],[13.7545,52.4469],[13.6482,52.4788],[13.6115,52.4706],[13.6569,52.5299],[13.5854,52.5485],[13.5815,52.5709],[13.5082,52.5922],[13.5002,52.6138]]]}},{"type":"Feature","properties":{"gid":"DEU.4_1","name":"勃兰登堡州","nameEn":"Brandenburg","nameLocal":"Brandenburg","type":"州","typeEn":"State","groupZh":"州","area":29549.3,"iso":"DE-BB","engtype":"State","capital":"波茨坦","pop":2534075,"blurb":"环绕柏林，湖泊密布，波茨坦宫是普鲁士旧都。"},"geometry":{"type":"Polygon","coordinates":[[[13.3222,51.4367],[13.3766,51.4246],[13.3729,51.4378],[13.4021,51.4541],[13.4281,51.4312],[13.4214,51.4215],[13.4459,51.4314],[13.4738,51.4179],[13.4633,51.4118],[13.5212,51.4021],[13.5426,51.3693],[13.57,51.3857],[13.5941,51.3694],[13.7666,51.3707],[13.7633,51.359],[13.8332,51.3838],[13.8826,51.3751],[13.961,51.3972],[13.9702,51.3758],[14.0007,51.3726],[14.0036,51.3956],[14.0281,51.3959],[14.0159,51.4051],[14.0628,51.4455],[14.033,51.4751],[14.0873,51.4774],[14.0738,51.4927],[14.0961,51.4981],[14.1078,51.5218],[14.1424,51.5228],[14.1367,51.5433],[14.2736,51.5324],[14.3323,51.505],[14.3872,51.5418],[14.5155,51.5542],[14.5696,51.5812],[14.5982,51.5725],[14.6099,51.5501],[14.674,51.5506],[14.7065,51.5765],[14.6966,51.5967],[14.7299,51.5818],[14.7649,51.607],[14.7578,51.661],[14.7382,51.6871],[14.6681,51.7258],[14.6459,51.7951],[14.5901,51.821],[14.611,51.857],[14.6944,51.9021],[14.7214,51.9516],[14.7048,51.9761],[14.7214,51.9938],[14.714,52.0037],[14.7483,52.0318],[14.759,52.0648],[14.6816,52.1167],[14.6796,52.1449],[14.7054,52.1696],[14.6852,52.1941],[14.716,52.2355],[14.6927,52.2557],[14.576,52.2884],[14.5849,52.3065],[14.5344,52.395],[14.5495,52.4336],[14.5793,52.4417],[14.6345,52.4923],[14.6039,52.5313],[14.6391,52.573],[14.5962,52.6107],[14.4651,52.6613],[14.351,52.7515],[14.2788,52.7745],[14.2175,52.8169],[14.1229,52.8377],[14.1616,52.8881],[14.1437,52.9614],[14.2916,53.02],[14.3661,53.0794],[14.3877,53.143],[14.3663,53.172],[14.3773,53.2017],[14.4059,53.2107],[14.4503,53.2606],[14.4212,53.2761],[14.4122,53.3296],[14.3166,53.3123],[14.3019,53.2862],[14.2622,53.2766],[14.266,53.2596],[14.0988,53.2617],[14.2234,53.3586],[14.2431,53.3923],[14.2377,53.4273],[14.177,53.4229],[14.1218,53.4417],[14.0823,53.411],[14.0012,53.435],[13.9164,53.4223],[13.9029,53.432],[13.9182,53.456],[13.8756,53.4735],[13.8793,53.5041],[13.8217,53.5181],[13.7913,53.5586],[13.7777,53.5137],[13.8271,53.4987],[13.8121,53.4843],[13.7154,53.4823],[13.6405,53.4472],[13.6252,53.4093],[13.5501,53.3991],[13.5564,53.3761],[13.5169,53.3521],[13.5235,53.3201],[13.5028,53.3273],[13.4831,53.2912],[13.4382,53.2998],[13.4424,53.2865],[13.4052,53.2464],[13.3864,53.2441],[13.3605,53.278],[13.2978,53.2809],[13.2527,53.2623],[13.2294,53.2166],[13.2027,53.2221],[13.1819,53.2507],[13.1519,53.2511],[13.1099,53.2402],[13.1065,53.2153],[13.0795,53.2002],[12.9805,53.1625],[12.942,53.1743],[12.9753,53.1983],[12.8801,53.1797],[12.846,53.2014],[12.7644,53.1889],[12.7395,53.1996],[12.7576,53.2242],[12.6712,53.2295],[12.6657,53.2533],[12.606,53.2444],[12.5298,53.2648],[12.4453,53.2499],[12.428,53.275],[12.3918,53.2851],[12.3942,53.3018],[12.3108,53.3272],[12.2602,53.3239],[12.2294,53.3582],[12.1686,53.3391],[12.152,53.3615],[12.0921,53.3449],[12.0616,53.3714],[12.0453,53.371],[12.0573,53.3493],[12.0146,53.3344],[12.0185,53.2996],[11.9739,53.2992],[11.9495,53.2718],[11.8926,53.279],[11.8617,53.2482],[11.7957,53.2532],[11.8289,53.2287],[11.729,53.2171],[11.7004,53.2441],[11.6288,53.2424],[11.5513,53.2085],[11.5695,53.1666],[11.5346,53.1253],[11.4218,53.1409],[11.3956,53.14],[11.3938,53.1103],[11.2657,53.122],[11.2732,53.0972],[11.3402,53.0548],[11.4484,53.0784],[11.5099,53.0475],[11.6376,53.0395],[11.6263,53.0126],[11.678,53.0077],[11.6902,52.9791],[11.743,52.9887],[11.7863,52.961],[11.846,52.9516],[11.8231,52.9233],[11.834,52.9104],[11.9816,52.876],[12.0226,52.8904],[12.1126,52.8757],[12.1246,52.8936],[12.1237,52.8538],[12.1969,52.878],[12.2341,52.8594],[12.2575,52.8049],[12.2447,52.7872],[12.2202,52.7901],[12.206,52.7609],[12.2232,52.7397],[12.1975,52.7184],[12.2329,52.689],[12.2369,52.6289],[12.172,52.6259],[12.1811,52.5752],[12.1423,52.5283],[12.1887,52.5324],[12.1673,52.515],[12.1847,52.496],[12.2217,52.5007],[12.2361,52.5237],[12.2582,52.5179],[12.2714,52.4875],[12.3299,52.4969],[12.3083,52.4803],[12.3308,52.4786],[12.2893,52.4307],[12.297,52.4238],[12.2745,52.4161],[12.3023,52.405],[12.2918,52.3861],[12.306,52.3774],[12.2838,52.3643],[12.3081,52.3447],[12.2628,52.2951],[12.2445,52.248],[12.2973,52.2275],[12.2484,52.2109],[12.2483,52.1842],[12.2168,52.1701],[12.2767,52.104],[12.4302,52.0183],[12.4806,52.0333],[12.4988,52.0089],[12.5363,52.0029],[12.5394,51.9849],[12.603,51.9811],[12.6692,52.0129],[12.7743,51.9784],[12.7776,51.9646],[12.8442,51.9677],[12.8527,51.935],[12.9606,51.9349],[12.956,51.9227],[12.9765,51.9199],[12.9727,51.9009],[13.0454,51.9005],[13.0292,51.881],[13.0392,51.8709],[13.139,51.8795],[13.1509,51.8596],[13.1247,51.8507],[13.1701,51.787],[13.1475,51.7666],[13.1871,51.7156],[13.1655,51.7176],[13.1701,51.7081],[13.1542,51.7107],[13.1617,51.6906],[13.051,51.6477],[13.0863,51.6081],[13.121,51.6189],[13.155,51.6002],[13.1432,51.5675],[13.1856,51.5581],[13.208,51.5244],[13.2013,51.4917],[13.1823,51.492],[13.2031,51.451],[13.1743,51.4283],[13.1998,51.4332],[13.2142,51.3966],[13.2685,51.3848],[13.26,51.4004],[13.2864,51.3993],[13.3283,51.4266],[13.3222,51.4367]],[[13.3963,52.6482],[13.4327,52.6375],[13.4735,52.654],[13.4508,52.6627],[13.4595,52.6689],[13.4882,52.6706],[13.4908,52.6547],[13.5231,52.6454],[13.4968,52.6051],[13.5082,52.5922],[13.5815,52.5709],[13.5854,52.5485],[13.6354,52.5416],[13.6259,52.5301],[13.6569,52.5299],[13.6115,52.4706],[13.6482,52.4788],[13.7044,52.4543],[13.7013,52.4681],[13.7596,52.4363],[13.738,52.4341],[13.7345,52.402],[13.6876,52.3858],[13.7,52.3751],[13.6484,52.3382],[13.6363,52.347],[13.6434,52.3774],[13.607,52.375],[13.5928,52.3942],[13.5357,52.389],[13.5384,52.4007],[13.4799,52.396],[13.4623,52.4206],[13.4188,52.4099],[13.421,52.3762],[13.3885,52.378],[13.3432,52.4116],[13.3119,52.3992],[13.2961,52.4165],[13.2498,52.405],[13.2458,52.4208],[13.2223,52.4204],[13.1336,52.3869],[13.1116,52.4131],[13.0903,52.4121],[13.1232,52.4394],[13.1092,52.4506],[13.1178,52.479],[13.1665,52.5101],[13.1174,52.517],[13.1306,52.5564],[13.1457,52.5529],[13.153,52.5728],[13.129,52.5874],[13.1643,52.5989],[13.2173,52.5875],[13.2016,52.6064],[13.2207,52.6282],[13.2643,52.6269],[13.2829,52.6608],[13.31,52.6574],[13.3024,52.6276],[13.3365,52.6227],[13.3963,52.6482]]]}},{"type":"Feature","properties":{"gid":"DEU.5_1","name":"不来梅州","nameEn":"Bremen","nameLocal":"Bremen","type":"州","typeEn":"State","groupZh":"州","area":396.5,"iso":"DE-HB","engtype":"State","capital":"不来梅","pop":693204,"blurb":"最小的州之一，汉萨港口与宇航产业。"},"geometry":{"type":"MultiPolygon","coordinates":[[[[8.675,53.1781],[8.628,53.1984],[8.5804,53.19],[8.5961,53.2134],[8.5537,53.2078],[8.5173,53.2285],[8.4817,53.2264],[8.5333,53.1873],[8.6208,53.1666],[8.6665,53.0916],[8.7091,53.0763],[8.7098,53.046],[8.7315,53.0349],[8.7707,53.0534],[8.8222,53.0212],[8.8668,53.0221],[8.867,53.0408],[8.9158,53.011],[8.9803,53.0467],[8.9614,53.0852],[8.9908,53.0966],[8.947,53.1161],[8.9842,53.1261],[8.9566,53.1472],[8.864,53.1317],[8.8292,53.1644],[8.7761,53.1586],[8.7144,53.183],[8.675,53.1781]]],[[[8.5264,53.5935],[8.5753,53.5304],[8.5608,53.5104],[8.5098,53.4983],[8.4927,53.4724],[8.6059,53.4842],[8.6506,53.5108],[8.6464,53.5555],[8.6168,53.5744],[8.6497,53.6032],[8.5923,53.5929],[8.5214,53.6065],[8.5264,53.5935]]]]}},{"type":"Feature","properties":{"gid":"DEU.6_1","name":"汉堡州","nameEn":"Hamburg","nameLocal":"Hamburg","type":"州","typeEn":"State","groupZh":"州","area":734.8,"iso":"DE-HH","engtype":"State","capital":"汉堡","pop":1808846,"blurb":"德国最大港口城，也是城市州。"},"geometry":{"type":"MultiPolygon","coordinates":[[[[10.1757,53.7111],[10.1937,53.731],[10.1629,53.7381],[10.1211,53.7134],[10.0818,53.7204],[10.0606,53.6885],[10.0693,53.6795],[9.9987,53.6815],[9.9848,53.6473],[9.9048,53.6518],[9.8897,53.6223],[9.8288,53.5853],[9.7637,53.6275],[9.7344,53.5652],[9.936,53.5444],[9.8234,53.5477],[9.81,53.5412],[9.8165,53.5293],[9.7654,53.5411],[9.7783,53.5195],[9.7638,53.5081],[9.8021,53.4932],[9.7998,53.4696],[9.8624,53.4299],[9.9016,53.4573],[9.9215,53.4366],[9.9066,53.4158],[9.9492,53.431],[9.9844,53.4154],[10.0293,53.4352],[10.0209,53.4469],[10.0457,53.4467],[10.0518,53.4639],[10.169,53.398],[10.2385,53.3961],[10.326,53.4496],[10.301,53.4436],[10.2186,53.4991],[10.2106,53.52],[10.1632,53.521],[10.1521,53.5768],[10.2014,53.5841],[10.189,53.613],[10.2218,53.6337],[10.1896,53.6382],[10.1961,53.6547],[10.1412,53.6782],[10.1757,53.7111]]],[[[8.4997,53.931],[8.4875,53.914],[8.5181,53.9212],[8.4997,53.931]]]]}},{"type":"Feature","properties":{"gid":"DEU.7_1","name":"黑森州","nameEn":"Hessen","nameLocal":"Hessen","type":"州","typeEn":"State","groupZh":"州","area":21037.9,"iso":"DE-HE","engtype":"State","capital":"威斯巴登","pop":6207278,"blurb":"中部的交通与金融枢纽，法兰克福是欧洲央行所在。"},"geometry":{"type":"Polygon","coordinates":[[[8.8861,49.417],[8.9009,49.4434],[8.9503,49.455],[8.9319,49.4706],[8.9546,49.482],[8.9518,49.5056],[9.0428,49.499],[9.065,49.5296],[9.0996,49.5262],[9.1061,49.5098],[9.1264,49.5169],[9.0854,49.5434],[9.0731,49.5749],[9.0989,49.5606],[9.1026,49.5793],[9.0653,49.6163],[9.102,49.6422],[9.0896,49.6933],[9.1261,49.7],[9.1225,49.7148],[9.1508,49.7429],[9.1069,49.7587],[9.1317,49.7949],[9.0909,49.7907],[9.077,49.8182],[9.0847,49.8475],[9.064,49.8318],[9.0595,49.847],[9.0361,49.8465],[9.0333,49.8665],[9.0505,49.8676],[9.0234,49.9101],[9.0323,49.9247],[9.0157,49.989],[9.0485,49.9939],[9.0313,50.0396],[8.9759,50.0488],[9.0143,50.109],[9.1202,50.1265],[9.1536,50.1179],[9.1492,50.0906],[9.1916,50.1275],[9.1831,50.1384],[9.2219,50.1494],[9.3756,50.1297],[9.4131,50.0841],[9.5125,50.0944],[9.5076,50.1456],[9.5312,50.1609],[9.4984,50.1752],[9.5162,50.1996],[9.4948,50.2267],[9.5012,50.2435],[9.5829,50.2215],[9.6636,50.2337],[9.6368,50.2515],[9.6524,50.2697],[9.7034,50.2808],[9.7459,50.3104],[9.7329,50.3561],[9.7603,50.4245],[9.8026,50.424],[9.86,50.3975],[9.9578,50.4232],[10.0335,50.4811],[10.0383,50.529],[10.0618,50.5567],[10.0372,50.6129],[10.081,50.62],[10.083,50.6337],[10.0489,50.6739],[9.9515,50.6659],[9.9689,50.6413],[9.9607,50.6295],[9.8773,50.6387],[9.8813,50.6734],[9.924,50.6951],[9.9089,50.7045],[9.9414,50.7418],[9.9201,50.7596],[9.9284,50.7766],[9.9521,50.7733],[9.9523,50.8214],[10.0231,50.8316],[10.0386,50.8531],[10.0219,50.8479],[10.0219,50.8645],[10.0598,50.8854],[10.0156,50.9206],[9.9715,50.9074],[9.992,50.9345],[9.9571,50.9226],[9.9501,50.9422],[10.0623,50.9438],[10.0195,50.9807],[10.0364,51.0124],[10.1208,51.0117],[10.1469,50.9938],[10.2029,51.0081],[10.1926,51.0185],[10.2152,51.0264],[10.1988,51.0401],[10.1406,51.0585],[10.1746,51.1169],[10.1183,51.1396],[10.1687,51.1533],[10.2,51.113],[10.2073,51.1649],[10.2358,51.1867],[10.1384,51.2202],[10.0724,51.2248],[10.079,51.2428],[10.047,51.2534],[10.0599,51.2759],[9.973,51.2844],[9.9699,51.3003],[9.9406,51.3063],[9.9476,51.3264],[9.9233,51.368],[9.9311,51.3927],[9.906,51.4211],[9.8783,51.4045],[9.8507,51.4144],[9.8653,51.3716],[9.8401,51.3836],[9.8406,51.4026],[9.8035,51.4104],[9.7926,51.4024],[9.8014,51.3869],[9.7021,51.3646],[9.7382,51.3194],[9.7725,51.3363],[9.7682,51.3067],[9.7323,51.2952],[9.6694,51.3177],[9.6285,51.3119],[9.6334,51.3259],[9.568,51.34],[9.5484,51.359],[9.577,51.3696],[9.564,51.387],[9.6436,51.4183],[9.6276,51.4442],[9.6438,51.4692],[9.5863,51.5193],[9.6203,51.5325],[9.6091,51.5573],[9.6478,51.5525],[9.6268,51.582],[9.684,51.5665],[9.6909,51.5763],[9.6378,51.6088],[9.626,51.6369],[9.5077,51.6271],[9.4919,51.6347],[9.4931,51.6575],[9.3371,51.6147],[9.3735,51.591],[9.317,51.5524],[9.3083,51.5126],[9.2407,51.4972],[9.2166,51.4812],[9.2165,51.4596],[9.1814,51.4653],[9.1584,51.4431],[9.0894,51.4466],[9.0772,51.4649],[9.0923,51.4944],[9.021,51.5186],[8.9133,51.4916],[8.8909,51.4776],[8.9218,51.4461],[8.9188,51.4303],[8.9481,51.4282],[8.9395,51.3895],[8.6938,51.3768],[8.6537,51.3398],[8.605,51.3237],[8.5563,51.2775],[8.5894,51.25],[8.722,51.2737],[8.7417,51.2184],[8.7682,51.2089],[8.7495,51.1977],[8.7582,51.1772],[8.6922,51.1328],[8.7197,51.1103],[8.6566,51.0949],[8.5281,51.097],[8.5017,51.0795],[8.5276,51.0634],[8.5051,51.0414],[8.5388,51.0194],[8.4597,50.9667],[8.4564,50.9165],[8.4334,50.9182],[8.3586,50.8607],[8.3055,50.8611],[8.2922,50.8817],[8.2698,50.8812],[8.1255,50.7884],[8.1668,50.7357],[8.1102,50.6709],[8.1409,50.6302],[8.126,50.6101],[8.1516,50.5994],[8.1379,50.5509],[8.1034,50.5326],[8.0461,50.557],[8.0281,50.5506],[7.9789,50.4954],[8.0108,50.4527],[7.9752,50.4376],[7.9878,50.4279],[7.9642,50.4122],[8.0238,50.4008],[8.0143,50.3845],[8.0598,50.3753],[8.0719,50.3318],[8.1027,50.327],[8.1219,50.2772],[8.1031,50.2598],[8.0359,50.2712],[8.0217,50.2583],[8.0589,50.2344],[8.0351,50.2156],[7.9902,50.2387],[7.8828,50.1813],[7.8905,50.1629],[7.9329,50.1439],[7.9301,50.1037],[7.854,50.1283],[7.8301,50.098],[7.8372,50.0841],[7.774,50.0665],[7.8866,49.9719],[7.9674,49.9778],[8.1809,50.0352],[8.2446,50.0276],[8.3376,49.9561],[8.3546,49.9158],[8.344,49.8801],[8.3836,49.8557],[8.3784,49.8248],[8.4176,49.7725],[8.4792,49.7642],[8.4382,49.7223],[8.3573,49.6921],[8.382,49.6273],[8.4224,49.5834],[8.4643,49.5895],[8.5526,49.5205],[8.5814,49.5198],[8.6213,49.545],[8.5939,49.6109],[8.6923,49.6237],[8.6721,49.6112],[8.698,49.5998],[8.681,49.5755],[8.7027,49.5353],[8.7359,49.5248],[8.7277,49.5183],[8.7986,49.5117],[8.8219,49.5246],[8.8312,49.4923],[8.8996,49.5037],[8.8765,49.4667],[8.8519,49.4836],[8.8266,49.4693],[8.8365,49.4302],[8.8066,49.4192],[8.8035,49.4036],[8.8505,49.3954],[8.8861,49.417]]]}},{"type":"Feature","properties":{"gid":"DEU.8_1","name":"梅克伦堡-前波美拉尼亚州","nameEn":"Mecklenburg-Vorpommern","nameLocal":"Mecklenburg-Vorpommern","type":"州","typeEn":"State","groupZh":"州","area":23292.8,"iso":"DE-MV","engtype":"State","capital":"什未林","pop":1570817,"blurb":"波罗的海海岸州，人口密度全国最低。"},"geometry":{"type":"MultiPolygon","coordinates":[[[[11.5694,53.1678],[11.5513,53.2085],[11.6288,53.2424],[11.7004,53.2441],[11.729,53.2171],[11.8289,53.2287],[11.7957,53.2532],[11.8617,53.2482],[11.8926,53.279],[11.9495,53.2718],[11.9739,53.2992],[12.0185,53.2996],[12.0146,53.3344],[12.0573,53.3493],[12.0453,53.371],[12.0616,53.3714],[12.0921,53.3449],[12.152,53.3615],[12.1686,53.3391],[12.2294,53.3582],[12.2602,53.3239],[12.3108,53.3272],[12.3942,53.3018],[12.3918,53.2851],[12.428,53.275],[12.4453,53.2499],[12.5298,53.2648],[12.606,53.2444],[12.6657,53.2533],[12.6712,53.2295],[12.7576,53.2242],[12.7395,53.1996],[12.7644,53.1889],[12.846,53.2014],[12.8801,53.1797],[12.9753,53.1983],[12.942,53.1743],[12.9805,53.1625],[13.0795,53.2002],[13.1065,53.2153],[13.1099,53.2402],[13.1519,53.2511],[13.1819,53.2507],[13.2027,53.2221],[13.2294,53.2166],[13.2527,53.2623],[13.2978,53.2809],[13.3605,53.278],[13.3864,53.2441],[13.4052,53.2464],[13.4424,53.2865],[13.4382,53.2998],[13.4831,53.2912],[13.5028,53.3273],[13.5235,53.3201],[13.5169,53.3521],[13.5564,53.3761],[13.5501,53.3991],[13.6252,53.4093],[13.6405,53.4472],[13.7154,53.4823],[13.8121,53.4843],[13.8271,53.4987],[13.7777,53.5137],[13.7913,53.5586],[13.8217,53.5181],[13.8793,53.5041],[13.8756,53.4735],[13.9182,53.456],[13.9029,53.432],[13.9164,53.4223],[14.0012,53.435],[14.0823,53.411],[14.1218,53.4417],[14.177,53.4229],[14.2377,53.4273],[14.2431,53.3923],[14.2234,53.3586],[14.0988,53.2617],[14.266,53.2596],[14.2622,53.2766],[14.3019,53.2862],[14.3166,53.3123],[14.4124,53.3296],[14.3903,53.3537],[14.3713,53.4564],[14.358,53.4573],[14.3506,53.496],[14.3269,53.5038],[14.3026,53.5534],[14.3169,53.6181],[14.2839,53.6344],[14.2848,53.6587],[14.2708,53.666],[14.2837,53.6826],[14.2668,53.6987],[14.267,53.7535],[14.2836,53.7723],[14.2139,53.8654],[14.2058,53.9106],[14.1901,53.9121],[14.2264,53.9291],[14.0142,54.0543],[13.8708,54.1015],[13.8036,54.1785],[13.7492,54.159],[13.7575,54.1346],[13.8125,54.099],[13.7903,54.0488],[13.7636,54.031],[13.7692,54.019],[13.8014,54.0185],[13.8581,54.0485],[13.8792,54.0401],[13.8531,54.0137],[13.8625,53.9993],[13.9242,54.0354],[13.9086,54.0429],[13.9108,54.0643],[13.9742,54.0638],[14.0036,54.0107],[14.0297,54.0176],[14.0469,53.9965],[14.0425,53.9421],[14.0125,53.9493],[14.0253,53.9621],[13.9836,53.9626],[13.9631,53.9574],[13.9597,53.934],[13.9503,53.959],[13.9736,53.9704],[13.9653,53.9901],[13.9058,53.9899],[13.8953,53.9665],[13.9231,53.9504],[13.9375,53.9085],[13.8931,53.8765],[13.8247,53.8662],[13.8236,53.8774],[13.9142,53.9224],[13.8797,53.9512],[13.8519,53.9529],[13.8347,53.9843],[13.7442,54.0293],[13.7853,54.0493],[13.7747,54.0604],[13.7903,54.0643],[13.8069,54.1032],[13.7575,54.119],[13.7497,54.1393],[13.6964,54.149],[13.7186,54.1635],[13.6964,54.1718],[13.6281,54.1401],[13.4892,54.1237],[13.4764,54.116],[13.5008,54.0851],[13.4569,54.0907],[13.4114,54.1565],[13.3825,54.1424],[13.4225,54.1662],[13.4158,54.1751],[13.3181,54.1599],[13.3464,54.1804],[13.3275,54.1838],[13.2864,54.2351],[13.2164,54.241],[13.1847,54.2665],[13.1431,54.2537],[13.1792,54.2701],[13.1058,54.2818],[13.1119,54.3046],[13.0758,54.3454],[13.0936,54.3668],[13.0253,54.3965],[13.0353,54.4313],[13.0197,54.439],[12.8975,54.4018],[12.8786,54.3654],[12.8103,54.3451],[12.7869,54.3963],[12.7675,54.371],[12.7436,54.3838],[12.7347,54.3707],[12.6997,54.3988],[12.6781,54.3701],[12.6886,54.3999],[12.7153,54.4043],[12.6575,54.4082],[12.6697,54.3907],[12.5919,54.3574],[12.5531,54.3796],[12.5342,54.3654],[12.5531,54.359],[12.5353,54.3387],[12.4731,54.3299],[12.4792,54.3043],[12.4092,54.2799],[12.4181,54.2579],[12.4603,54.2485],[12.3636,54.266],[12.3831,54.2793],[12.3603,54.3063],[12.3969,54.3235],[12.3892,54.3426],[12.4181,54.3363],[12.4147,54.3654],[12.4358,54.3787],[12.5247,54.3699],[12.5519,54.3896],[12.5931,54.3835],[12.5769,54.4035],[12.6175,54.4071],[12.6369,54.4249],[12.6664,54.4085],[12.6932,54.4323],[12.8014,54.4082],[12.927,54.428],[12.9203,54.4449],[12.5581,54.454],[12.5181,54.4843],[12.3392,54.2979],[12.1958,54.2429],[12.1281,54.1857],[12.0953,54.181],[12.1008,54.169],[12.1425,54.1724],[12.1247,54.1501],[12.0919,54.1521],[12.0875,54.1832],[11.8536,54.1451],[11.6825,54.1532],[11.5253,54.0718],[11.5325,54.049],[11.6036,54.1026],[11.6258,54.0896],[11.6225,54.076],[11.5814,54.0635],[11.5725,54.0326],[11.5192,54.0321],[11.5347,54.021],[11.4914,53.9935],[11.4903,53.9682],[11.4675,53.974],[11.4925,54.0229],[11.3781,53.9974],[11.3881,53.9654],[11.4281,53.961],[11.4281,53.9865],[11.4447,53.9971],[11.4436,53.9604],[11.4836,53.9685],[11.4814,53.9274],[11.4436,53.9104],[11.4547,53.9004],[11.3353,53.9585],[11.2869,53.9304],[11.2586,53.934],[11.2408,53.9524],[11.2586,53.9849],[11.2147,53.9849],[11.1808,54.0154],[11.0881,54.014],[10.9037,53.9565],[10.8951,53.9245],[10.9671,53.9072],[10.911,53.898],[10.9113,53.9152],[10.8826,53.9245],[10.7477,53.8515],[10.7733,53.7924],[10.758,53.7475],[10.8059,53.7392],[10.811,53.72],[10.8509,53.7001],[10.9221,53.6995],[10.9526,53.6484],[10.9296,53.6287],[10.9104,53.5718],[10.8226,53.575],[10.8243,53.5137],[10.7864,53.5105],[10.756,53.4834],[10.7017,53.4783],[10.693,53.4551],[10.6323,53.4548],[10.6169,53.3846],[10.595,53.3639],[10.7008,53.37],[10.7597,53.33],[10.8358,53.305],[10.9194,53.3484],[10.988,53.3334],[11.0095,53.2815],[11.0801,53.2205],[11.1941,53.1812],[11.1719,53.1566],[11.1879,53.1351],[11.2234,53.1438],[11.2904,53.1169],[11.3938,53.1103],[11.3956,53.14],[11.5346,53.1253],[11.5694,53.1678]],[[12.6989,54.4303],[12.7314,54.4162],[12.6742,54.4182],[12.6989,54.4303]],[[12.9535,54.4424],[12.9625,54.4376],[12.9236,54.4351],[12.9535,54.4424]]],[[[13.7169,54.2854],[13.7325,54.3296],[13.7669,54.3415],[13.7231,54.3563],[13.6736,54.4007],[13.6097,54.4049],[13.5697,54.4618],[13.6075,54.4979],[13.6686,54.5207],[13.6797,54.5626],[13.6336,54.5851],[13.4208,54.5779],[13.3892,54.6007],[13.3758,54.6351],[13.4314,54.6629],[13.4292,54.6846],[13.2497,54.6599],[13.2192,54.6396],[13.2219,54.6024],[13.1608,54.559],[13.2286,54.5871],[13.2269,54.6249],[13.2803,54.6463],[13.2886,54.6274],[13.2458,54.5574],[13.3347,54.5826],[13.3281,54.5938],[13.3686,54.6146],[13.3836,54.5812],[13.4458,54.5515],[13.4904,54.5508],[13.5111,54.5661],[13.4912,54.5586],[13.5147,54.5157],[13.5008,54.4879],[13.5481,54.4749],[13.5469,54.4568],[13.524,54.448],[13.5572,54.4385],[13.5197,54.4317],[13.5413,54.4193],[13.4763,54.4246],[13.4835,54.4429],[13.514,54.4432],[13.4708,54.454],[13.5002,54.4799],[13.4508,54.4732],[13.4131,54.4938],[13.4142,54.5196],[13.3775,54.559],[13.3542,54.5468],[13.3877,54.5313],[13.3445,54.5214],[13.3618,54.5419],[13.3381,54.549],[13.3686,54.5793],[13.2975,54.5524],[13.3053,54.514],[13.2875,54.5218],[13.2947,54.5376],[13.2553,54.5521],[13.1397,54.5421],[13.1597,54.5354],[13.1614,54.5026],[13.2303,54.511],[13.2275,54.486],[13.2681,54.4799],[13.1997,54.4474],[13.1692,54.4535],[13.1497,54.429],[13.2114,54.4299],[13.2381,54.4099],[13.2369,54.3882],[13.2619,54.3829],[13.2203,54.3676],[13.1275,54.3713],[13.1147,54.3318],[13.1847,54.301],[13.1547,54.3046],[13.1419,54.2807],[13.1942,54.2968],[13.1997,54.2701],[13.2181,54.2793],[13.2697,54.2538],[13.3208,54.2576],[13.3103,54.2657],[13.3353,54.2782],[13.3214,54.2451],[13.2903,54.2513],[13.3936,54.221],[13.4236,54.2382],[13.4181,54.2549],[13.3658,54.2643],[13.3597,54.2476],[13.3525,54.2696],[13.3947,54.2713],[13.4208,54.3035],[13.4664,54.3215],[13.4547,54.3357],[13.5519,54.3393],[13.5753,54.3529],[13.6136,54.3307],[13.6825,54.3496],[13.6108,54.3162],[13.7042,54.3262],[13.6464,54.2965],[13.7019,54.2954],[13.7075,54.2807],[13.6847,54.2832],[13.7086,54.269],[13.7253,54.2735],[13.7169,54.2854]]],[[[13.1887,54.4935],[13.1486,54.4818],[13.1208,54.4424],[13.2269,54.4688],[13.2153,54.4671],[13.2281,54.4849],[13.1887,54.4935]]],[[[13.0515,54.459],[12.9669,54.4376],[13.0381,54.4413],[13.0597,54.4504],[13.0515,54.459]]],[[[13.1381,54.604],[13.0975,54.5904],[13.0636,54.4576],[13.0847,54.5182],[13.1169,54.5376],[13.1108,54.5838],[13.1392,54.5968],[13.1419,54.5746],[13.1458,54.5882],[13.1581,54.5793],[13.1381,54.604]]]]}},{"type":"Feature","properties":{"gid":"DEU.9_1","name":"下萨克森州","nameEn":"Niedersachsen","nameLocal":"Niedersachsen","type":"州","typeEn":"State","groupZh":"州","area":47408.3,"iso":"DE-NI","engtype":"State","capital":"汉诺威","pop":7943265,"blurb":"面积第二大州，大众汽车总部沃尔夫斯堡。"},"geometry":{"type":"MultiPolygon","coordinates":[[[[10.3677,51.5552],[10.3786,51.5627],[10.37,51.5875],[10.4292,51.5925],[10.519,51.5538],[10.6043,51.5796],[10.6607,51.5608],[10.6663,51.5781],[10.6344,51.5943],[10.6335,51.6079],[10.649,51.6065],[10.6382,51.6194],[10.7014,51.6422],[10.6705,51.6669],[10.6683,51.7099],[10.6261,51.759],[10.5912,51.769],[10.5742,51.8111],[10.5884,51.8358],[10.5791,51.8483],[10.6493,51.8891],[10.6482,51.9082],[10.6133,51.9215],[10.6133,51.9395],[10.6513,51.9576],[10.6199,51.9577],[10.5612,52.0041],[10.626,52.0082],[10.6555,52.0247],[10.6479,52.0417],[10.6874,52.0481],[10.9644,52.0566],[10.9709,52.086],[10.9422,52.1031],[11.0441,52.1337],[11.0603,52.1724],[11.0178,52.1793],[11.0136,52.1996],[11.0862,52.2286],[11.0138,52.2866],[11.036,52.3104],[10.9837,52.3417],[11.0575,52.3503],[11.0745,52.3744],[11.0152,52.3881],[10.9337,52.461],[10.95,52.4956],[11.0088,52.4967],[10.9376,52.5674],[10.9398,52.5896],[10.9756,52.6068],[10.977,52.6241],[10.9214,52.6104],[10.8297,52.7161],[10.7967,52.7143],[10.7917,52.7482],[10.7553,52.7848],[10.7647,52.8405],[10.9396,52.8533],[10.9855,52.882],[11.0021,52.9115],[11.0987,52.9129],[11.0932,52.8995],[11.1064,52.8962],[11.1553,52.9062],[11.2206,52.8977],[11.2411,52.879],[11.2907,52.8891],[11.2954,52.8749],[11.3142,52.8782],[11.505,52.941],[11.4923,52.9597],[11.5125,53.0074],[11.5564,52.9987],[11.5978,53.0359],[11.5075,53.0481],[11.4484,53.0784],[11.3365,53.056],[11.2732,53.0972],[11.2457,53.1364],[11.1848,53.1363],[11.1719,53.1566],[11.1941,53.1812],[11.0893,53.2146],[11.0095,53.2815],[10.988,53.3334],[10.9282,53.3481],[10.8358,53.305],[10.7597,53.33],[10.7008,53.37],[10.5749,53.3602],[10.3117,53.433],[10.2301,53.395],[10.1677,53.3985],[10.0518,53.4639],[10.0457,53.4467],[10.0209,53.4469],[10.0293,53.4352],[9.9844,53.4154],[9.9492,53.431],[9.9066,53.4158],[9.9215,53.4366],[9.9016,53.4573],[9.8624,53.4299],[9.7998,53.4696],[9.8021,53.4932],[9.7638,53.5081],[9.7783,53.5195],[9.7721,53.5434],[9.685,53.5479],[9.541,53.6125],[9.4938,53.6787],[9.4081,53.7333],[9.3262,53.826],[9.2654,53.8592],[9.0842,53.8618],[9.0164,53.836],[8.8836,53.8279],[8.7569,53.8426],[8.6825,53.8918],[8.6086,53.879],[8.5458,53.8151],[8.4836,53.6943],[8.4836,53.6557],[8.5262,53.6038],[8.5923,53.5929],[8.6506,53.6026],[8.6168,53.5744],[8.6464,53.5555],[8.6506,53.5108],[8.6059,53.4842],[8.4927,53.4724],[8.5147,53.5079],[8.5569,53.5249],[8.5497,53.5385],[8.5164,53.5563],[8.3942,53.5701],[8.3325,53.616],[8.2792,53.6124],[8.2408,53.5788],[8.2308,53.5204],[8.3164,53.5221],[8.3164,53.4663],[8.2919,53.4229],[8.2525,53.399],[8.2025,53.404],[8.1525,53.4479],[8.0992,53.4457],[8.0736,53.4649],[8.0647,53.506],[8.1553,53.5137],[8.1719,53.5368],[8.1592,53.5313],[8.1697,53.5412],[8.1597,53.556],[8.1725,53.5546],[8.1403,53.5768],[8.1569,53.5851],[8.1319,53.5824],[8.1208,53.5974],[8.1131,53.6149],[8.1258,53.6221],[8.0964,53.6296],[8.1103,53.6424],[8.0447,53.6418],[8.0203,53.6885],[8.0314,53.7054],[7.9953,53.7137],[7.7042,53.7021],[7.5303,53.6715],[7.2969,53.6807],[7.1836,53.641],[7.0925,53.5807],[7.1036,53.556],[7.1425,53.5418],[7.1336,53.5324],[7.0953,53.5193],[7.0342,53.5332],[7.0497,53.5076],[7.0253,53.4835],[6.9981,53.3718],[7.0158,53.3415],[7.2492,53.3299],[7.2447,53.3183],[7.1911,53.3176],[7.2169,53.2145],[7.208,53.1885],[7.2271,53.1805],[7.2037,53.1765],[7.1789,53.1381],[7.2028,53.1133],[7.2173,53.007],[7.1816,52.9413],[7.0873,52.8499],[7.0556,52.6434],[7.0419,52.6327],[6.8731,52.6531],[6.7526,52.6481],[6.7101,52.6273],[6.7271,52.6151],[6.7187,52.5887],[6.7666,52.5615],[6.6809,52.5533],[6.7054,52.5203],[6.6977,52.4863],[6.7531,52.4638],[6.8543,52.4596],[6.9417,52.4355],[6.9918,52.4675],[7.0109,52.4291],[7.0588,52.3993],[7.0722,52.3734],[7.0263,52.2874],[7.0659,52.2413],[7.1557,52.2665],[7.2979,52.264],[7.5047,52.3608],[7.5826,52.3764],[7.5713,52.3812],[7.6027,52.421],[7.5643,52.4323],[7.6137,52.4736],[7.6884,52.4537],[7.7138,52.401],[7.8071,52.3714],[7.8918,52.3805],[7.9367,52.365],[7.9486,52.3351],[7.9906,52.3095],[7.93,52.3022],[7.9565,52.2725],[7.9256,52.2628],[7.9265,52.2265],[7.8998,52.2068],[7.934,52.1769],[8.017,52.1721],[8.023,52.1602],[7.9974,52.1545],[8.0078,52.1153],[7.8852,52.0849],[7.9169,52.0516],[7.9811,52.0355],[8.0327,52.0684],[8.0964,52.0571],[8.1515,52.0764],[8.1925,52.0726],[8.2667,52.1323],[8.4049,52.1115],[8.4129,52.1376],[8.5174,52.185],[8.4424,52.2133],[8.4681,52.2471],[8.458,52.302],[8.4721,52.3154],[8.4435,52.3627],[8.314,52.4057],[8.322,52.4262],[8.2972,52.4565],[8.4181,52.4442],[8.4543,52.461],[8.4589,52.4917],[8.5088,52.5147],[8.5569,52.4991],[8.6525,52.5314],[8.7021,52.5035],[8.7033,52.4432],[8.7181,52.4294],[8.7075,52.3954],[8.8551,52.3892],[8.8925,52.4057],[8.9376,52.4021],[8.9411,52.4163],[8.9871,52.4325],[8.9784,52.4507],[9.0172,52.4599],[9.0523,52.5001],[9.0994,52.4975],[9.1367,52.4755],[9.0945,52.4428],[9.1238,52.4215],[9.1216,52.4017],[9.0955,52.3867],[9.0837,52.3548],[8.9983,52.3262],[8.9881,52.2876],[8.9635,52.279],[8.9749,52.2626],[9.0767,52.2318],[9.0358,52.2245],[9.0453,52.1838],[8.9858,52.1946],[9.0216,52.1718],[9.0178,52.1324],[9.063,52.1485],[9.1533,52.1291],[9.1593,52.1198],[9.133,52.0966],[9.1556,52.0978],[9.1933,52.0703],[9.1722,52.0474],[9.1974,52.0116],[9.1793,52.0027],[9.1968,51.9969],[9.1762,51.9804],[9.2089,51.9599],[9.2169,51.9736],[9.2744,51.9736],[9.2863,51.9571],[9.2639,51.9481],[9.2721,51.9323],[9.3408,51.908],[9.3443,51.8802],[9.3233,51.8551],[9.4596,51.8628],[9.4333,51.8407],[9.4422,51.8292],[9.4273,51.8105],[9.4482,51.7948],[9.3755,51.744],[9.4017,51.7017],[9.3747,51.6498],[9.4942,51.6574],[9.4919,51.6347],[9.5163,51.6262],[9.5436,51.6399],[9.5707,51.6247],[9.626,51.6369],[9.6378,51.6088],[9.6909,51.5763],[9.684,51.5665],[9.6268,51.582],[9.6478,51.5525],[9.6091,51.5573],[9.6203,51.5325],[9.5863,51.5193],[9.6438,51.4692],[9.6276,51.4442],[9.6436,51.4183],[9.564,51.387],[9.577,51.3696],[9.5484,51.359],[9.568,51.34],[9.6334,51.3259],[9.6285,51.3119],[9.6694,51.3177],[9.7323,51.2952],[9.7682,51.3067],[9.7725,51.3363],[9.7382,51.3194],[9.7021,51.3646],[9.8014,51.3869],[9.7971,51.4084],[9.8406,51.4026],[9.8401,51.3836],[9.8653,51.3716],[9.8507,51.4144],[9.8783,51.4045],[9.906,51.4211],[9.9311,51.3927],[9.9283,51.3753],[10.0004,51.4037],[10.0093,51.4206],[10.0378,51.42],[10.0467,51.4368],[10.0691,51.4184],[10.0801,51.4346],[10.1504,51.4294],[10.14,51.4426],[10.1743,51.4463],[10.1902,51.4807],[10.2332,51.4708],[10.2997,51.4939],[10.3677,51.5552]],[[8.4877,53.2199],[8.5173,53.2285],[8.5537,53.2078],[8.599,53.2125],[8.5811,53.1987],[8.5935,53.1845],[8.628,53.1984],[8.6638,53.1762],[8.6994,53.1855],[8.7754,53.1587],[8.8292,53.1644],[8.864,53.1317],[8.9121,53.1326],[8.9451,53.152],[8.9842,53.1261],[8.947,53.1161],[8.9908,53.0966],[8.9614,53.0852],[8.9803,53.0467],[8.9158,53.011],[8.867,53.0408],[8.8668,53.0221],[8.8222,53.0212],[8.7707,53.0534],[8.7315,53.0349],[8.7098,53.046],[8.7091,53.0763],[8.6665,53.0916],[8.6208,53.1666],[8.5333,53.1873],[8.4877,53.2199]]],[[[9.6911,53.5615],[9.6629,53.5642],[9.7833,53.5511],[9.6911,53.5615]]],[[[9.4525,53.7173],[9.4407,53.7198],[9.4772,53.699],[9.4525,53.7173]]],[[[6.7686,53.6174],[6.6697,53.6037],[6.6358,53.6132],[6.6308,53.5979],[6.7497,53.5568],[6.7558,53.569],[6.7214,53.5838],[6.8114,53.6026],[6.7686,53.6174]]],[[[8.1686,53.7279],[8.1325,53.7196],[8.1542,53.7121],[8.1686,53.7279]]],[[[6.9057,53.6521],[6.8647,53.639],[6.8975,53.6263],[6.9057,53.6521]]],[[[6.8308,53.6504],[6.8219,53.6396],[6.8475,53.6404],[6.8308,53.6504]]],[[[7.3225,53.7221],[7.1842,53.721],[7.1381,53.7051],[7.2714,53.7038],[7.3425,53.7207],[7.3225,53.7221]]],[[[7.4019,53.7335],[7.3603,53.7268],[7.4297,53.7251],[7.4019,53.7335]]],[[[7.5847,53.756],[7.4869,53.7554],[7.4675,53.7271],[7.4947,53.7226],[7.5136,53.7435],[7.6275,53.7485],[7.5847,53.756]]],[[[7.7108,53.7782],[7.6669,53.7588],[7.8058,53.7746],[7.7108,53.7782]]],[[[7.9058,53.7926],[7.8464,53.7868],[7.8658,53.7738],[7.8758,53.7882],[7.9681,53.7749],[7.9058,53.7926]]],[[[8.0114,53.784],[7.9875,53.7701],[8.0225,53.7449],[8.0308,53.759],[8.0114,53.784]]]]}},{"type":"Feature","properties":{"gid":"DEU.10_1","name":"北莱茵-威斯特法伦州","nameEn":"Nordrhein-Westfalen","nameLocal":"Nordrhein-Westfalen","type":"州","typeEn":"State","groupZh":"州","area":33995.3,"iso":"DE-NW","engtype":"State","capital":"杜塞尔多夫","pop":17890489,"blurb":"人口最多的州，鲁尔工业区的核心。"},"geometry":{"type":"Polygon","coordinates":[[[6.5796,50.3771],[6.6031,50.3882],[6.6379,50.3453],[6.6674,50.372],[6.6992,50.3361],[6.8007,50.3618],[6.7693,50.3927],[6.7851,50.4206],[6.7455,50.4359],[6.7666,50.4586],[6.7446,50.4726],[6.8009,50.4913],[6.8586,50.4533],[6.9015,50.4691],[6.9071,50.5026],[6.8821,50.527],[6.9293,50.5331],[6.931,50.5605],[6.9981,50.565],[7.0561,50.6062],[7.0874,50.586],[7.1151,50.6118],[7.1479,50.6003],[7.1898,50.6239],[7.2038,50.6497],[7.2124,50.6234],[7.3335,50.6384],[7.359,50.6495],[7.3721,50.6821],[7.3571,50.6979],[7.374,50.7182],[7.4328,50.7099],[7.5519,50.7463],[7.5915,50.7403],[7.601,50.7663],[7.6555,50.7679],[7.6822,50.7954],[7.661,50.8204],[7.7,50.8254],[7.7293,50.8505],[7.7622,50.8451],[7.7483,50.8672],[7.7604,50.9004],[7.7355,50.9178],[7.7928,50.9423],[7.8515,50.9258],[7.8293,50.8824],[7.9783,50.8333],[7.9642,50.7838],[8.0403,50.7257],[8.0397,50.6974],[8.0992,50.7036],[8.1258,50.6858],[8.1668,50.7357],[8.1255,50.7884],[8.2698,50.8812],[8.2922,50.8817],[8.3055,50.8611],[8.3586,50.8607],[8.4334,50.9182],[8.4564,50.9165],[8.4597,50.9667],[8.5388,51.0194],[8.5051,51.0414],[8.5276,51.0629],[8.5032,51.0746],[8.508,51.0854],[8.551,51.1028],[8.6566,51.0949],[8.7197,51.1103],[8.6922,51.1328],[8.7582,51.1772],[8.7495,51.1977],[8.7682,51.2089],[8.7417,51.2184],[8.722,51.2737],[8.6092,51.2467],[8.5563,51.2775],[8.6211,51.3365],[8.6537,51.3398],[8.6938,51.3768],[8.9395,51.3895],[8.9481,51.4282],[8.9188,51.4303],[8.9218,51.4461],[8.8904,51.4819],[8.9457,51.5012],[9.021,51.5186],[9.0393,51.5019],[9.0765,51.5035],[9.0923,51.4944],[9.0772,51.4649],[9.0864,51.4491],[9.1493,51.442],[9.1851,51.4663],[9.2165,51.4596],[9.2166,51.4812],[9.2407,51.4972],[9.3083,51.5126],[9.317,51.5524],[9.3735,51.591],[9.3371,51.6147],[9.4451,51.6441],[9.3747,51.6498],[9.4017,51.7017],[9.3754,51.7436],[9.4482,51.7948],[9.4273,51.8105],[9.4422,51.8292],[9.4331,51.8403],[9.4614,51.8577],[9.3233,51.8551],[9.3443,51.8802],[9.3408,51.908],[9.2721,51.9323],[9.2639,51.9481],[9.2863,51.9571],[9.2744,51.9736],[9.2169,51.9736],[9.2089,51.9599],[9.1762,51.9804],[9.1968,51.9969],[9.1793,52.0027],[9.1974,52.0116],[9.1722,52.0474],[9.1933,52.0703],[9.1556,52.0978],[9.133,52.0966],[9.1593,52.1198],[9.1533,52.1291],[9.0716,52.1483],[9.011,52.1358],[9.0216,52.1718],[8.9858,52.1946],[9.0453,52.1838],[9.0358,52.2245],[9.0768,52.2334],[8.9749,52.2626],[8.9635,52.279],[8.9881,52.2876],[8.9983,52.3262],[9.0274,52.3456],[9.0579,52.3396],[9.0851,52.3559],[9.1254,52.4128],[9.0945,52.4428],[9.1326,52.4834],[9.0527,52.5003],[9.0172,52.4599],[8.9784,52.4507],[8.9871,52.4325],[8.9411,52.4163],[8.9376,52.4021],[8.8925,52.4057],[8.8551,52.3892],[8.7075,52.3954],[8.7181,52.4294],[8.7033,52.4432],[8.7021,52.5035],[8.6525,52.5314],[8.5569,52.4991],[8.5088,52.5147],[8.4589,52.4917],[8.4543,52.461],[8.4181,52.4442],[8.3034,52.459],[8.304,52.4343],[8.322,52.4262],[8.314,52.4057],[8.4435,52.3627],[8.4721,52.3154],[8.458,52.302],[8.4681,52.2471],[8.4424,52.2133],[8.5174,52.185],[8.4129,52.1376],[8.4049,52.1115],[8.2667,52.1323],[8.1925,52.0726],[8.1515,52.0764],[8.0964,52.0571],[8.0327,52.0684],[7.9811,52.0355],[7.9169,52.0516],[7.8852,52.0849],[8.0078,52.1153],[7.9974,52.1545],[8.023,52.1602],[8.017,52.1721],[7.934,52.1769],[7.8998,52.2068],[7.9265,52.2265],[7.9256,52.2628],[7.9565,52.2725],[7.93,52.3022],[7.9906,52.3095],[7.9486,52.3351],[7.9367,52.365],[7.8918,52.3805],[7.8071,52.3714],[7.7138,52.401],[7.6884,52.4537],[7.6035,52.475],[7.5643,52.4323],[7.6027,52.421],[7.5713,52.3812],[7.5826,52.3764],[7.5047,52.3608],[7.2979,52.264],[7.1496,52.2658],[7.039,52.2276],[6.9892,52.2269],[6.9513,52.181],[6.9068,52.1752],[6.8554,52.1204],[6.7606,52.1187],[6.7512,52.0855],[6.6947,52.0698],[6.6877,52.0399],[6.7526,52.0286],[6.8266,51.9935],[6.8329,51.9718],[6.7326,51.8987],[6.6842,51.9176],[6.4726,51.8538],[6.3908,51.8739],[6.4092,51.8523],[6.4018,51.8273],[6.3468,51.8506],[6.3066,51.8492],[6.2795,51.8741],[6.2154,51.8678],[6.1696,51.9013],[6.118,51.9017],[6.1033,51.8926],[6.1372,51.8856],[6.1668,51.861],[6.1664,51.8408],[6.0634,51.8654],[6.035,51.8429],[5.945,51.8237],[5.9905,51.7832],[5.9905,51.7662],[5.9514,51.7487],[5.9551,51.7381],[6.0291,51.7257],[6.045,51.717],[6.0264,51.7093],[6.0307,51.6771],[6.1182,51.6561],[6.0912,51.6059],[6.2121,51.5134],[6.2232,51.4689],[6.2052,51.3995],[6.2264,51.3997],[6.2144,51.3896],[6.2261,51.3605],[6.1686,51.333],[6.1245,51.2746],[6.0727,51.2426],[6.0858,51.2226],[6.068,51.2205],[6.0823,51.1716],[6.165,51.1944],[6.1807,51.1864],[6.1388,51.1733],[6.1754,51.1585],[6.0919,51.135],[5.9978,51.0843],[5.9579,51.0347],[5.9381,51.0351],[5.9132,51.0667],[5.8663,51.0512],[5.8787,51.0181],[5.9055,51.0022],[5.8927,50.9803],[6.0264,50.9833],[6.0053,50.9568],[6.0182,50.9344],[6.0939,50.9213],[6.0753,50.8934],[6.0882,50.8724],[6.074,50.8468],[6.0548,50.8574],[6.0189,50.8463],[6.0251,50.8142],[5.9749,50.798],[6.0278,50.7737],[6.0183,50.7632],[6.0405,50.7455],[6.039,50.7184],[6.1192,50.7197],[6.1726,50.6568],[6.1761,50.6259],[6.2694,50.625],[6.2451,50.593],[6.1744,50.5575],[6.178,50.5416],[6.2246,50.4949],[6.2699,50.5045],[6.3513,50.4883],[6.3402,50.4626],[6.3718,50.4556],[6.3776,50.4394],[6.3422,50.38],[6.3983,50.3457],[6.405,50.3233],[6.4253,50.323],[6.4241,50.3338],[6.385,50.3842],[6.413,50.3895],[6.43,50.3632],[6.4486,50.3713],[6.4612,50.359],[6.453,50.3364],[6.5796,50.3771]]]}},{"type":"Feature","properties":{"gid":"DEU.11_1","name":"莱茵兰-普法尔茨州","nameEn":"Rheinland-Pfalz","nameLocal":"Rheinland-Pfalz","type":"州","typeEn":"State","groupZh":"州","area":19786.6,"iso":"DE-RP","engtype":"State","capital":"美因茨","pop":4094169,"blurb":"莱茵河谷葡萄酒之乡。"},"geometry":{"type":"Polygon","coordinates":[[[7.6411,49.0528],[7.7611,49.0455],[7.7944,49.0657],[7.8668,49.0329],[7.8891,49.049],[7.917,49.0409],[7.9328,49.0581],[7.9748,49.0268],[8.049,49.0143],[8.0877,48.9898],[8.2392,48.9693],[8.2876,48.9984],[8.3117,49.0543],[8.3581,49.0978],[8.3684,49.1681],[8.405,49.2204],[8.3848,49.2196],[8.3908,49.2361],[8.4883,49.2917],[8.4505,49.3231],[8.4968,49.3642],[8.5004,49.389],[8.4732,49.3734],[8.4635,49.3844],[8.4962,49.4021],[8.5084,49.4328],[8.4427,49.4502],[8.4638,49.4704],[8.4147,49.5539],[8.4231,49.5819],[8.3561,49.6797],[8.3634,49.6986],[8.436,49.721],[8.4792,49.7642],[8.4207,49.7698],[8.3796,49.8226],[8.3843,49.8545],[8.3465,49.8748],[8.3542,49.9176],[8.3223,49.9736],[8.2446,50.0276],[8.1863,50.0355],[7.9674,49.9778],[7.8775,49.9729],[7.8545,50.0108],[7.7726,50.0585],[7.8035,50.0846],[7.8372,50.0841],[7.8301,50.098],[7.854,50.1283],[7.9301,50.1037],[7.9329,50.1439],[7.884,50.1696],[7.9111,50.2037],[7.9902,50.2387],[8.0351,50.2156],[8.0589,50.2344],[8.0217,50.2583],[8.0359,50.2712],[8.1031,50.2598],[8.1219,50.2772],[8.1027,50.327],[8.0719,50.3318],[8.0598,50.3753],[8.0143,50.3845],[8.0238,50.4008],[7.9642,50.4122],[7.9878,50.4279],[7.9752,50.4376],[8.0108,50.4527],[7.9792,50.4846],[7.9929,50.5221],[8.0416,50.557],[8.0705,50.538],[8.1177,50.5345],[8.1112,50.5437],[8.1379,50.5509],[8.1522,50.5937],[8.126,50.6101],[8.1409,50.6302],[8.1101,50.6572],[8.1258,50.6858],[8.0992,50.7036],[8.0397,50.6974],[8.0403,50.7257],[7.9689,50.7739],[7.9783,50.8333],[7.8293,50.8824],[7.8515,50.9258],[7.7928,50.9423],[7.7355,50.9178],[7.7604,50.9004],[7.7483,50.8672],[7.7622,50.8451],[7.7293,50.8505],[7.7,50.8254],[7.661,50.8204],[7.6822,50.7954],[7.6555,50.7679],[7.601,50.7663],[7.5915,50.7403],[7.5519,50.7463],[7.4328,50.7099],[7.374,50.7182],[7.3571,50.6979],[7.3721,50.6821],[7.359,50.6495],[7.3335,50.6384],[7.2124,50.6234],[7.2038,50.6497],[7.1898,50.6239],[7.1479,50.6003],[7.1151,50.6118],[7.0874,50.586],[7.0561,50.6062],[6.9981,50.565],[6.931,50.5605],[6.9293,50.5331],[6.8821,50.527],[6.9071,50.5026],[6.9015,50.4691],[6.8586,50.4533],[6.8009,50.4913],[6.7446,50.4726],[6.7666,50.4586],[6.7455,50.4359],[6.7851,50.4206],[6.7693,50.3927],[6.8027,50.3693],[6.7956,50.3595],[6.6992,50.3361],[6.6674,50.372],[6.6362,50.3454],[6.6031,50.3882],[6.4516,50.3364],[6.4612,50.359],[6.4486,50.3713],[6.43,50.3632],[6.413,50.3895],[6.385,50.3842],[6.4253,50.323],[6.3826,50.322],[6.3633,50.3054],[6.3065,50.3201],[6.2779,50.2664],[6.1757,50.2354],[6.1664,50.22],[6.1889,50.2053],[6.1928,50.1819],[6.1398,50.1693],[6.1475,50.1606],[6.1321,50.1536],[6.1547,50.1419],[6.1296,50.1216],[6.133,50.0932],[6.1161,50.0743],[6.1293,50.0736],[6.1124,50.0605],[6.1459,50.0227],[6.1298,50.0188],[6.1496,50.0089],[6.138,49.9982],[6.1724,49.9848],[6.1778,49.954],[6.191,49.9688],[6.1976,49.9484],[6.2239,49.9499],[6.218,49.9235],[6.2336,49.9004],[6.311,49.8699],[6.3226,49.838],[6.3642,49.8508],[6.4291,49.8109],[6.4709,49.8226],[6.5114,49.8018],[6.5293,49.8094],[6.506,49.7901],[6.5186,49.7625],[6.5005,49.7521],[6.5172,49.7236],[6.496,49.726],[6.507,49.7126],[6.4282,49.6669],[6.4408,49.6559],[6.4214,49.62],[6.3749,49.5919],[6.381,49.5772],[6.3579,49.5738],[6.3801,49.5511],[6.5174,49.5275],[6.564,49.5406],[6.6047,49.5173],[6.6525,49.5512],[6.6904,49.5352],[6.8134,49.592],[6.8354,49.5829],[6.8664,49.6087],[6.9296,49.6124],[6.9409,49.6349],[6.9915,49.6355],[6.986,49.6207],[7.028,49.6394],[7.0877,49.5996],[7.1737,49.5991],[7.1735,49.5851],[7.2134,49.5658],[7.2687,49.5841],[7.2764,49.538],[7.3099,49.5232],[7.2857,49.5169],[7.2781,49.4843],[7.3048,49.4724],[7.2464,49.4455],[7.2502,49.4352],[7.2901,49.4147],[7.2893,49.3888],[7.3558,49.3798],[7.3669,49.3632],[7.3998,49.3717],[7.3899,49.3498],[7.4038,49.3461],[7.3777,49.3204],[7.3944,49.3147],[7.3747,49.2829],[7.3345,49.2783],[7.344,49.2704],[7.3246,49.2481],[7.3065,49.2561],[7.2897,49.2387],[7.304,49.2221],[7.2958,49.2053],[7.3627,49.1584],[7.3651,49.1718],[7.4456,49.1842],[7.4334,49.1652],[7.494,49.1694],[7.506,49.1505],[7.4896,49.1365],[7.5287,49.0971],[7.6293,49.0736],[7.6411,49.0528]]]}},{"type":"Feature","properties":{"gid":"DEU.12_1","name":"萨尔州","nameEn":"Saarland","nameLocal":"Saarland","type":"州","typeEn":"State","groupZh":"州","area":2557.1,"iso":"DE-SL","engtype":"State","capital":"萨尔布吕肯","pop":1006864,"blurb":"面积最小的非城市州，煤钢传统。"},"geometry":{"type":"Polygon","coordinates":[[[7.1973,49.1189],[7.2451,49.1301],[7.2932,49.1149],[7.3214,49.1414],[7.3627,49.1431],[7.3688,49.1615],[7.2958,49.2053],[7.304,49.2221],[7.2891,49.2378],[7.3065,49.2561],[7.3246,49.2481],[7.344,49.2704],[7.3345,49.2783],[7.3747,49.2829],[7.3944,49.3147],[7.3777,49.3204],[7.4038,49.3461],[7.3899,49.3498],[7.3998,49.3717],[7.3669,49.3632],[7.3558,49.3798],[7.2893,49.3888],[7.2901,49.4147],[7.2502,49.4352],[7.2464,49.4455],[7.3048,49.4724],[7.2781,49.4843],[7.2857,49.5169],[7.3099,49.5232],[7.2764,49.538],[7.2687,49.5841],[7.2134,49.5658],[7.1735,49.5851],[7.1737,49.5991],[7.0877,49.5996],[7.028,49.6394],[6.986,49.6207],[6.9915,49.6355],[6.9514,49.6251],[6.9452,49.6359],[6.9296,49.6124],[6.8664,49.6087],[6.8354,49.5829],[6.8134,49.592],[6.6904,49.5352],[6.6525,49.5512],[6.6047,49.5173],[6.564,49.5406],[6.5174,49.5275],[6.4303,49.549],[6.3801,49.5511],[6.3573,49.5321],[6.375,49.4641],[6.4291,49.4762],[6.5559,49.421],[6.5408,49.4012],[6.6022,49.3671],[6.5657,49.3477],[6.6151,49.3013],[6.6702,49.2803],[6.6614,49.2581],[6.69,49.2496],[6.6958,49.2153],[6.7235,49.2188],[6.7314,49.206],[6.7112,49.1883],[6.7386,49.1637],[6.7827,49.1682],[6.8341,49.1511],[6.8618,49.1788],[6.838,49.2135],[6.9381,49.2224],[6.9596,49.2031],[7.035,49.1914],[7.0276,49.1703],[7.0517,49.113],[7.0894,49.1302],[7.0822,49.1521],[7.1011,49.156],[7.1132,49.152],[7.1041,49.1384],[7.1973,49.1189]]]}},{"type":"Feature","properties":{"gid":"DEU.14_1","name":"萨克森州","nameEn":"Sachsen","nameLocal":"Sachsen","type":"州","typeEn":"State","groupZh":"州","area":18384.5,"iso":"DE-SN","engtype":"State","capital":"德累斯顿","pop":4038131,"blurb":"前东德最富的州，德累斯顿与莱比锡。"},"geometry":{"type":"Polygon","coordinates":[[[12.3547,50.248],[12.3649,50.2803],[12.4006,50.2952],[12.398,50.3212],[12.4312,50.3227],[12.4694,50.355],[12.4893,50.3498],[12.4865,50.3708],[12.512,50.3973],[12.6731,50.4169],[12.7071,50.3973],[12.7346,50.4322],[12.7949,50.4494],[12.8106,50.4311],[12.8194,50.4598],[12.948,50.4043],[13.0199,50.4467],[13.0317,50.5097],[13.0853,50.5003],[13.1327,50.5183],[13.1367,50.5064],[13.1953,50.5033],[13.2484,50.5921],[13.2788,50.593],[13.2909,50.575],[13.3237,50.5816],[13.3247,50.608],[13.3777,50.6277],[13.371,50.6505],[13.4648,50.6019],[13.5242,50.6393],[13.5128,50.6537],[13.5444,50.6774],[13.5268,50.705],[13.6643,50.7319],[13.7065,50.7169],[13.7583,50.7358],[13.8552,50.7271],[13.8618,50.7429],[13.8982,50.7445],[13.8875,50.7705],[13.9011,50.7934],[13.9392,50.79],[13.9903,50.82],[14.0307,50.8042],[14.0784,50.8124],[14.2233,50.8592],[14.2332,50.8875],[14.2675,50.8953],[14.3048,50.884],[14.3876,50.8991],[14.3967,50.9365],[14.3117,50.9538],[14.3026,50.9653],[14.3284,50.9735],[14.3236,50.9854],[14.2586,50.9875],[14.2606,51.0088],[14.2863,51.027],[14.2738,51.0398],[14.3019,51.055],[14.3826,51.0386],[14.4084,51.0188],[14.4538,51.0359],[14.4927,51.0234],[14.4912,51.0435],[14.5082,51.0432],[14.4986,51.0221],[14.5321,51.0165],[14.5347,51.0037],[14.5645,51.0101],[14.5992,50.9871],[14.5648,50.9184],[14.6502,50.9315],[14.6529,50.9055],[14.6189,50.8577],[14.7087,50.8409],[14.7223,50.8221],[14.7969,50.8211],[14.8247,50.867],[14.8196,50.8851],[14.8966,50.9406],[14.9172,50.9952],[14.9647,51.0501],[14.9809,51.1161],[14.9978,51.1224],[15.0098,51.2135],[15.0379,51.244],[15.0234,51.2503],[15.0418,51.2726],[15.0335,51.2939],[14.9652,51.3612],[14.9837,51.3736],[14.9582,51.3957],[14.9692,51.3981],[14.9586,51.4312],[14.9742,51.4419],[14.9224,51.4823],[14.7358,51.526],[14.7112,51.5627],[14.7299,51.5818],[14.7002,51.5972],[14.7065,51.5765],[14.674,51.5506],[14.6099,51.5501],[14.5982,51.5725],[14.5696,51.5812],[14.5155,51.5542],[14.3872,51.5418],[14.3323,51.505],[14.2736,51.5324],[14.1367,51.5433],[14.1424,51.5228],[14.1078,51.5218],[14.0961,51.4981],[14.0738,51.4927],[14.0873,51.4774],[14.033,51.4751],[14.0628,51.4455],[14.0159,51.4051],[14.0281,51.3959],[14.0036,51.3956],[14.0007,51.3726],[13.9702,51.3758],[13.961,51.3972],[13.8826,51.3751],[13.8332,51.3838],[13.7633,51.359],[13.7666,51.3707],[13.5941,51.3694],[13.57,51.3857],[13.5426,51.3693],[13.5212,51.4021],[13.4633,51.4118],[13.4738,51.4179],[13.4459,51.4314],[13.4214,51.4215],[13.4281,51.4312],[13.4011,51.4542],[13.3729,51.4378],[13.3766,51.4246],[13.3203,51.4375],[13.3283,51.4266],[13.2864,51.3993],[13.26,51.4004],[13.2637,51.385],[13.2142,51.3966],[13.1985,51.4339],[13.1743,51.4283],[13.2031,51.451],[13.1823,51.492],[13.2013,51.4917],[13.208,51.5244],[13.1856,51.5581],[13.1432,51.5675],[13.155,51.6002],[13.121,51.6189],[13.0863,51.6081],[13.051,51.6477],[13.0235,51.6373],[13.0175,51.66],[12.9963,51.6692],[12.9668,51.6657],[12.9715,51.6502],[12.9422,51.638],[12.8975,51.6474],[12.8892,51.6669],[12.8658,51.655],[12.8439,51.685],[12.7727,51.6475],[12.6882,51.6624],[12.6491,51.6204],[12.6083,51.6106],[12.6292,51.6252],[12.5803,51.6261],[12.56,51.6085],[12.507,51.6085],[12.483,51.5932],[12.4864,51.6043],[12.444,51.6099],[12.4254,51.5821],[12.337,51.5862],[12.2932,51.5606],[12.2412,51.5661],[12.1928,51.5313],[12.2031,51.4851],[12.1486,51.4631],[12.1572,51.4327],[12.1898,51.4209],[12.1735,51.4103],[12.1848,51.3876],[12.1721,51.3842],[12.19,51.3795],[12.1945,51.3303],[12.1477,51.32],[12.1723,51.2857],[12.1661,51.2661],[12.1995,51.2384],[12.2051,51.2142],[12.1737,51.1903],[12.2131,51.1835],[12.1962,51.1419],[12.2416,51.1307],[12.2212,51.1099],[12.2531,51.0973],[12.3316,51.1038],[12.361,51.0798],[12.4584,51.0845],[12.4629,51.0669],[12.5015,51.0641],[12.5074,51.0173],[12.5389,51.0243],[12.5275,50.9989],[12.5837,50.9816],[12.6075,50.9967],[12.6244,50.9397],[12.6541,50.9191],[12.6401,50.9031],[12.5079,50.9037],[12.5111,50.8941],[12.4593,50.8804],[12.4375,50.8424],[12.4202,50.8396],[12.4152,50.8565],[12.3741,50.8532],[12.3476,50.8236],[12.2986,50.8299],[12.3024,50.8172],[12.2897,50.824],[12.2799,50.8097],[12.2508,50.8183],[12.2532,50.7888],[12.2902,50.7834],[12.2639,50.7605],[12.2407,50.7672],[12.227,50.7382],[12.2648,50.7375],[12.2734,50.7282],[12.2534,50.7157],[12.2628,50.6953],[12.3189,50.684],[12.3176,50.6635],[12.2643,50.6434],[12.2655,50.6308],[12.1982,50.6413],[12.1828,50.6121],[12.1499,50.6288],[12.1472,50.6061],[12.1102,50.5887],[12.1561,50.5856],[12.156,50.5735],[12.0836,50.5786],[12.0727,50.5551],[12.0303,50.5494],[12.0175,50.5678],[12.035,50.5946],[12.0055,50.612],[12.0221,50.6255],[12.0039,50.6348],[11.9793,50.6214],[11.9867,50.6095],[11.9236,50.5857],[11.926,50.5568],[11.8715,50.5398],[11.8882,50.5167],[11.9253,50.5263],[11.9642,50.487],[11.9377,50.4717],[11.9508,50.4541],[11.9319,50.4642],[11.8885,50.4436],[11.9278,50.4325],[11.9193,50.4247],[11.9456,50.4163],[11.9494,50.3948],[11.9839,50.3887],[11.9772,50.3515],[12.0469,50.325],[12.1845,50.3223],[12.2013,50.309],[12.2015,50.2728],[12.266,50.2587],[12.2396,50.2462],[12.2939,50.2213],[12.2747,50.1967],[12.2949,50.1747],[12.3375,50.1734],[12.3237,50.1813],[12.3382,50.1925],[12.3231,50.2075],[12.3279,50.2347],[12.3547,50.248]]]}},{"type":"Feature","properties":{"gid":"DEU.13_1","name":"萨克森-安哈尔特州","nameEn":"Sachsen-Anhalt","nameLocal":"Sachsen-Anhalt","type":"州","typeEn":"State","groupZh":"州","area":20475.6,"iso":"DE-ST","engtype":"State","capital":"马格德堡","pop":2146443,"blurb":"易北河畔，工业与中世纪古城。"},"geometry":{"type":"Polygon","coordinates":[[[12.2404,50.9621],[12.293,51.0216],[12.2814,51.0402],[12.2503,51.0379],[12.2846,51.0912],[12.2304,51.1036],[12.2203,51.1228],[12.2416,51.1307],[12.1962,51.1419],[12.2131,51.1835],[12.1737,51.1903],[12.2051,51.2142],[12.1995,51.2384],[12.1661,51.2661],[12.1723,51.2857],[12.1477,51.32],[12.1945,51.3303],[12.19,51.3795],[12.1721,51.3842],[12.1848,51.3876],[12.1735,51.4103],[12.1898,51.4209],[12.1572,51.4327],[12.1486,51.4631],[12.2031,51.4851],[12.1928,51.5313],[12.2432,51.5669],[12.2932,51.5606],[12.337,51.5862],[12.4254,51.5821],[12.444,51.6099],[12.4864,51.6043],[12.483,51.5932],[12.507,51.6085],[12.56,51.6085],[12.5803,51.6261],[12.6292,51.6252],[12.6083,51.6106],[12.6491,51.6204],[12.6882,51.6624],[12.7727,51.6475],[12.8439,51.685],[12.8658,51.655],[12.8892,51.6669],[12.8975,51.6474],[12.9422,51.638],[12.9715,51.6502],[12.9668,51.6657],[12.9963,51.6692],[13.0175,51.66],[13.0235,51.6373],[13.1545,51.6867],[13.1542,51.7107],[13.1871,51.7156],[13.1554,51.7415],[13.1633,51.7549],[13.1475,51.7666],[13.1701,51.787],[13.1235,51.8546],[13.1509,51.8596],[13.1496,51.8723],[13.1245,51.8829],[13.0392,51.8709],[13.0292,51.881],[13.0454,51.9005],[12.9727,51.9009],[12.9765,51.9199],[12.956,51.9227],[12.9606,51.9349],[12.8527,51.935],[12.8442,51.9677],[12.7776,51.9646],[12.7743,51.9784],[12.6692,52.0129],[12.6152,51.9823],[12.5394,51.9849],[12.5363,52.0029],[12.4988,52.0089],[12.4806,52.0333],[12.4302,52.0183],[12.2761,52.1046],[12.2168,52.1701],[12.2483,52.1842],[12.2484,52.2109],[12.2973,52.2275],[12.2445,52.248],[12.2628,52.2951],[12.3081,52.3447],[12.2838,52.3643],[12.306,52.3774],[12.2918,52.3861],[12.3023,52.405],[12.2745,52.4161],[12.297,52.4238],[12.2893,52.4307],[12.3308,52.4786],[12.3094,52.4863],[12.3304,52.4964],[12.2714,52.4875],[12.2582,52.5179],[12.2356,52.5238],[12.2217,52.5007],[12.1847,52.496],[12.1673,52.515],[12.1887,52.5324],[12.1423,52.5283],[12.1811,52.5752],[12.172,52.6259],[12.2369,52.6289],[12.2329,52.689],[12.1976,52.7192],[12.2232,52.7397],[12.206,52.7609],[12.2202,52.7901],[12.2447,52.7872],[12.2575,52.8049],[12.2341,52.8594],[12.1969,52.878],[12.1263,52.8532],[12.1246,52.8936],[12.1126,52.8757],[12.0226,52.8904],[11.9816,52.876],[11.834,52.9104],[11.8231,52.9233],[11.846,52.9516],[11.7863,52.961],[11.743,52.9887],[11.6912,52.9788],[11.678,53.0077],[11.6276,53.0113],[11.6419,53.0354],[11.623,53.0418],[11.5592,53.0131],[11.5564,52.9987],[11.5125,53.0074],[11.4923,52.9597],[11.505,52.941],[11.3142,52.8782],[11.2954,52.8749],[11.2907,52.8891],[11.2411,52.879],[11.2206,52.8977],[11.1553,52.9062],[11.1064,52.8962],[11.0932,52.8995],[11.0987,52.9129],[11.0021,52.9115],[10.9855,52.882],[10.9396,52.8533],[10.7667,52.8422],[10.7553,52.7848],[10.7917,52.7482],[10.7967,52.7143],[10.8297,52.7161],[10.9214,52.6104],[10.977,52.6241],[10.9756,52.6068],[10.9398,52.5896],[10.9376,52.5674],[11.0088,52.4967],[10.95,52.4956],[10.9337,52.461],[11.0152,52.3881],[11.0745,52.3744],[11.0575,52.3503],[10.9837,52.3417],[11.036,52.3104],[11.0138,52.2866],[11.0862,52.2286],[11.0136,52.1996],[11.0178,52.1793],[11.0603,52.1724],[11.0441,52.1337],[10.9422,52.1031],[10.9709,52.086],[10.9644,52.0566],[10.6874,52.0481],[10.6479,52.0417],[10.6555,52.0247],[10.626,52.0082],[10.5612,52.0041],[10.6199,51.9577],[10.6513,51.9576],[10.6133,51.9395],[10.6133,51.9215],[10.6398,51.9151],[10.6504,51.8913],[10.5791,51.8483],[10.5815,51.78],[10.6261,51.759],[10.6683,51.7099],[10.6705,51.6669],[10.696,51.643],[10.7645,51.649],[10.8182,51.639],[10.8226,51.6235],[10.8586,51.6329],[10.8866,51.6121],[10.922,51.6184],[10.9141,51.6102],[10.9371,51.6035],[10.9312,51.5915],[10.8945,51.6018],[10.8821,51.5805],[10.9005,51.5507],[10.948,51.5376],[10.9273,51.5209],[10.9733,51.482],[10.9608,51.4712],[10.9667,51.4324],[11.0107,51.4253],[10.992,51.4179],[11.0614,51.4298],[11.1418,51.4026],[11.2239,51.4132],[11.2485,51.3951],[11.3213,51.4104],[11.3308,51.3903],[11.3969,51.3813],[11.3994,51.3448],[11.4288,51.3428],[11.4136,51.3331],[11.4752,51.2981],[11.4126,51.2411],[11.3846,51.2456],[11.3648,51.2214],[11.3898,51.2175],[11.3914,51.2035],[11.4309,51.2125],[11.4686,51.1927],[11.4708,51.1698],[11.4855,51.168],[11.451,51.1467],[11.4632,51.1131],[11.5456,51.1025],[11.5717,51.1194],[11.6202,51.0975],[11.667,51.1108],[11.6924,51.0998],[11.7008,51.0694],[11.7323,51.0684],[11.7597,51.0429],[11.8888,51.0558],[11.9109,51.045],[11.9119,51.0282],[11.9771,51.0165],[11.9699,50.9943],[12.0066,50.991],[12.0141,50.9687],[12.0922,50.9765],[12.1635,50.9586],[12.1825,50.9759],[12.2138,50.9584],[12.2146,50.938],[12.2404,50.9621]]]}},{"type":"Feature","properties":{"gid":"DEU.15_1","name":"石勒苏益格-荷尔斯泰因州","nameEn":"Schleswig-Holstein","nameLocal":"Schleswig-Holstein","type":"州","typeEn":"State","groupZh":"州","area":15501.7,"iso":"DE-SH","engtype":"State","capital":"基尔","pop":2927542,"blurb":"连接北海与波罗的海，基尔运河要冲。"},"geometry":{"type":"MultiPolygon","coordinates":[[[[10.5109,53.3721],[10.595,53.3639],[10.6169,53.3846],[10.6323,53.4548],[10.693,53.4551],[10.7017,53.4783],[10.756,53.4834],[10.7864,53.5105],[10.8243,53.5137],[10.8232,53.5753],[10.8637,53.5646],[10.9238,53.5842],[10.9296,53.6287],[10.9547,53.6564],[10.9387,53.6656],[10.9418,53.6845],[10.9053,53.7033],[10.8509,53.7001],[10.811,53.72],[10.8059,53.7392],[10.758,53.7475],[10.7733,53.7924],[10.7477,53.8515],[10.8826,53.9245],[10.9113,53.9152],[10.911,53.898],[10.9684,53.9089],[10.8984,53.9223],[10.9085,53.9506],[10.8869,53.9574],[10.8758,53.9879],[10.7869,53.9965],[10.7508,54.0488],[10.8047,54.096],[10.8792,54.0885],[10.9536,54.1404],[11.0936,54.1979],[11.0753,54.3462],[11.0586,54.3543],[11.0781,54.3449],[11.1297,54.3896],[11.0964,54.3937],[11.0258,54.3676],[10.9825,54.3793],[11.0225,54.3807],[10.9286,54.3818],[10.7886,54.3115],[10.7047,54.3049],[10.6036,54.3626],[10.3186,54.4357],[10.2281,54.4135],[10.1781,54.361],[10.1703,54.3332],[10.1842,54.3279],[10.1319,54.3112],[10.1575,54.3368],[10.1408,54.3529],[10.1481,54.3693],[10.1919,54.3899],[10.1686,54.434],[10.1992,54.456],[10.1275,54.4851],[9.8686,54.4474],[9.8403,54.4674],[9.9658,54.5029],[10.0275,54.5504],[10.0336,54.6579],[10.0147,54.6607],[10.0342,54.6699],[9.9481,54.6738],[9.9381,54.6235],[9.7486,54.5465],[9.7369,54.5249],[9.7003,54.5149],[9.7147,54.4912],[9.6242,54.5115],[9.5808,54.501],[9.5736,54.4754],[9.5775,54.5004],[9.5486,54.5124],[9.5869,54.5102],[9.6275,54.5311],[9.6331,54.5143],[9.7122,54.5201],[9.7703,54.5807],[9.8103,54.579],[9.8047,54.5885],[9.9081,54.6346],[9.9331,54.6276],[9.9381,54.6729],[9.9775,54.6826],[9.9825,54.701],[9.9914,54.6813],[10.0147,54.6926],[10.0331,54.6724],[10.0375,54.6826],[9.9619,54.7141],[9.9215,54.7099],[9.914,54.7301],[9.8807,54.7207],[9.8702,54.7411],[9.7857,54.731],[9.7689,54.7479],[9.7845,54.7773],[9.7616,54.8011],[9.6003,54.8338],[9.59,54.8522],[9.6132,54.8772],[9.4991,54.8233],[9.465,54.8225],[9.4367,54.7887],[9.4111,54.8423],[9.3827,54.8392],[9.3436,54.8002],[9.2948,54.8019],[9.2501,54.8097],[9.2401,54.85],[9.1433,54.873],[9.0482,54.8719],[8.9479,54.9026],[8.728,54.8927],[8.638,54.9113],[8.5966,54.8881],[8.4297,54.8776],[8.3669,54.9024],[8.3536,54.9685],[8.3792,54.9968],[8.4425,55.016],[8.3969,55.036],[8.3992,55.0504],[8.4631,55.0462],[8.4125,55.0565],[8.3869,55.0401],[8.2914,54.8918],[8.2797,54.7518],[8.2986,54.7421],[8.3003,54.8507],[8.3325,54.8632],[8.3031,54.859],[8.3103,54.8743],[8.3658,54.8754],[8.4164,54.8471],[8.5103,54.8821],[8.594,54.8817],[8.6053,54.8413],[8.6931,54.7699],[8.7064,54.7399],[8.6875,54.7299],[8.7447,54.7082],[8.7514,54.6813],[8.8225,54.646],[8.8419,54.6149],[8.8131,54.5974],[8.8792,54.6063],[8.8903,54.5926],[8.8697,54.5632],[8.8719,54.5282],[8.8053,54.4979],[8.8186,54.4871],[8.8064,54.4704],[8.9086,54.4621],[8.9814,54.521],[9.0125,54.4904],[9.0047,54.479],[9.0236,54.4735],[8.9614,54.4579],[8.8664,54.4043],[8.8064,54.4129],[8.6092,54.3865],[8.6064,54.3704],[8.6808,54.3685],[8.6731,54.3601],[8.6858,54.3571],[8.6381,54.3401],[8.6047,54.3582],[8.5797,54.3096],[8.6208,54.2821],[8.5925,54.3004],[8.6119,54.2924],[8.6031,54.3101],[8.6453,54.2726],[8.8231,54.2915],[8.8464,54.2629],[8.8597,54.2785],[8.8436,54.2885],[8.8619,54.2687],[8.9519,54.3129],[8.9386,54.2837],[8.9031,54.2601],[8.8358,54.2518],[8.8347,54.2179],[8.8075,54.1751],[8.8592,54.1226],[8.9275,54.1318],[8.9858,54.0612],[8.9642,54.0351],[8.8781,54.0462],[8.8197,54.0243],[8.8353,54.0235],[8.9147,53.9254],[8.9719,53.8924],[9.219,53.8887],[9.3276,53.8601],[9.4017,53.8242],[9.4011,53.7949],[9.4427,53.7405],[9.522,53.7134],[9.5799,53.6235],[9.5555,53.6207],[9.6747,53.571],[9.7344,53.5652],[9.7637,53.6275],[9.7981,53.5959],[9.8367,53.5875],[9.8897,53.6223],[9.9048,53.6518],[9.9848,53.6473],[9.9987,53.6815],[10.0693,53.6795],[10.0606,53.6885],[10.0818,53.7204],[10.1211,53.7134],[10.1629,53.7381],[10.1937,53.731],[10.1403,53.6801],[10.1961,53.6547],[10.1896,53.6382],[10.2218,53.6337],[10.189,53.613],[10.2014,53.5841],[10.1521,53.5768],[10.1637,53.5204],[10.2106,53.52],[10.2186,53.4991],[10.301,53.4436],[10.326,53.4496],[10.308,53.4332],[10.375,53.424],[10.5109,53.3721]]],[[[9.564,53.634],[9.5418,53.6649],[9.5356,53.6443],[9.5548,53.6256],[9.564,53.634]]],[[[9.5115,53.6868],[9.5268,53.6643],[9.5197,53.6988],[9.496,53.711],[9.5115,53.6868]]],[[[11.0713,54.5335],[11.0192,54.4971],[11.0092,54.4413],[11.0464,54.4285],[11.0214,54.4432],[11.0947,54.4457],[11.0947,54.4096],[11.1186,54.4026],[11.1781,54.4015],[11.1658,54.4132],[11.1864,54.4201],[11.2119,54.4171],[11.1975,54.406],[11.3136,54.4021],[11.2342,54.5068],[11.0713,54.5335]]],[[[9.4056,53.7705],[9.4168,53.7574],[9.3888,53.7998],[9.4056,53.7705]]],[[[8.6919,54.0635],[8.6764,54.0532],[8.6903,54.0474],[8.6919,54.0635]]],[[[8.4753,54.471],[8.4497,54.4526],[8.4703,54.4218],[8.4897,54.4126],[8.5258,54.4335],[8.4819,54.4515],[8.4753,54.471]]],[[[8.4808,54.544],[8.4658,54.5363],[8.4719,54.496],[8.4986,54.5057],[8.4919,54.5251],[8.5047,54.531],[8.4808,54.544]]],[[[8.7014,54.5557],[8.5925,54.5335],[8.5892,54.5118],[8.6231,54.489],[8.6719,54.4946],[8.7064,54.5382],[8.7014,54.5557]]],[[[8.8114,54.5546],[8.7903,54.5515],[8.8369,54.5515],[8.8114,54.5546]]],[[[8.5569,54.579],[8.5092,54.574],[8.5725,54.5582],[8.5569,54.579]]],[[[8.4803,54.5807],[8.4553,54.5588],[8.5014,54.5582],[8.4803,54.5807]]],[[[8.3831,54.6312],[8.3392,54.6893],[8.3569,54.7115],[8.2919,54.6704],[8.3625,54.6085],[8.3992,54.6154],[8.3858,54.6237],[8.4003,54.6296],[8.3831,54.6312]]],[[[8.7369,54.6429],[8.7097,54.6318],[8.7297,54.6288],[8.7369,54.6429]]],[[[8.6642,54.6586],[8.5292,54.6265],[8.5486,54.6171],[8.6486,54.6396],[8.6642,54.6586]]],[[[8.7164,54.6896],[8.6814,54.6726],[8.7097,54.6721],[8.7164,54.6896]]],[[[8.5231,54.6807],[8.5681,54.6807],[8.5953,54.7179],[8.5836,54.7443],[8.4731,54.7526],[8.4214,54.7432],[8.3964,54.7176],[8.4025,54.7004],[8.5231,54.6807]]]]}},{"type":"Feature","properties":{"gid":"DEU.16_1","name":"图林根州","nameEn":"Thüringen","nameLocal":"Thüringen","type":"州","typeEn":"State","groupZh":"州","area":16123.4,"iso":"NA","engtype":"State","capital":"埃尔福特","pop":2110396,"blurb":"「德国绿色心脏」，光学工业与古典音乐之城。"},"geometry":{"type":"Polygon","coordinates":[[[11.2532,50.2705],[11.252,50.2993],[11.2703,50.3067],[11.2613,50.3379],[11.2771,50.336],[11.2624,50.3524],[11.2843,50.3603],[11.2581,50.4],[11.268,50.4322],[11.2471,50.4489],[11.2515,50.4807],[11.291,50.4753],[11.3466,50.5215],[11.4246,50.5159],[11.441,50.5007],[11.4188,50.4935],[11.4206,50.4434],[11.4513,50.431],[11.4434,50.4208],[11.4816,50.4316],[11.4787,50.4012],[11.5189,50.3957],[11.5199,50.3743],[11.5732,50.4001],[11.6246,50.3869],[11.7803,50.4188],[11.8255,50.4044],[11.8235,50.3897],[11.8658,50.4007],[11.9242,50.4263],[11.8885,50.4436],[11.9319,50.4642],[11.9508,50.4541],[11.9377,50.4717],[11.9648,50.4849],[11.931,50.523],[11.8882,50.5167],[11.8715,50.5398],[11.926,50.5568],[11.9236,50.5857],[11.9888,50.6107],[11.9793,50.6214],[12.0039,50.6348],[12.0215,50.6268],[12.0048,50.6138],[12.0356,50.5814],[12.0175,50.5678],[12.0303,50.5494],[12.0521,50.551],[12.0766,50.558],[12.0836,50.5786],[12.156,50.5735],[12.1561,50.5856],[12.1102,50.5887],[12.1472,50.6061],[12.1536,50.6305],[12.1828,50.6121],[12.1982,50.6413],[12.2655,50.6308],[12.2643,50.6434],[12.3176,50.6635],[12.3189,50.684],[12.2628,50.6953],[12.2534,50.7157],[12.2734,50.7282],[12.2648,50.7375],[12.227,50.7382],[12.2407,50.7672],[12.2639,50.7605],[12.2902,50.7834],[12.2532,50.7888],[12.2508,50.8183],[12.2799,50.8097],[12.2897,50.824],[12.3024,50.8172],[12.2986,50.8299],[12.3476,50.8236],[12.3741,50.8532],[12.4152,50.8565],[12.4202,50.8396],[12.4375,50.8424],[12.4593,50.8804],[12.5111,50.8941],[12.5079,50.9037],[12.6401,50.9031],[12.6529,50.9237],[12.6244,50.9397],[12.6075,50.9967],[12.5837,50.9816],[12.5283,50.9983],[12.5389,51.0243],[12.5074,51.0173],[12.5045,51.0608],[12.4629,51.0669],[12.4584,51.0845],[12.3724,51.0775],[12.3316,51.1038],[12.2846,51.0912],[12.2503,51.0379],[12.287,51.0376],[12.2917,51.0187],[12.2146,50.938],[12.2138,50.9584],[12.1825,50.9759],[12.1635,50.9586],[12.0922,50.9765],[12.0141,50.9687],[12.0066,50.991],[11.9699,50.9943],[11.9771,51.0165],[11.9119,51.0282],[11.9109,51.045],[11.8888,51.0558],[11.7597,51.0429],[11.7323,51.0684],[11.7008,51.0694],[11.6924,51.0998],[11.667,51.1108],[11.6202,51.0975],[11.5717,51.1194],[11.5456,51.1025],[11.4852,51.1025],[11.4632,51.1131],[11.451,51.1467],[11.4853,51.1656],[11.4708,51.1698],[11.4686,51.1927],[11.4309,51.2125],[11.3914,51.2035],[11.3898,51.2175],[11.3648,51.2214],[11.3846,51.2456],[11.4126,51.2411],[11.4752,51.2981],[11.4136,51.3331],[11.4288,51.3428],[11.3994,51.3448],[11.3969,51.3813],[11.3308,51.3903],[11.3213,51.4104],[11.2485,51.3951],[11.2239,51.4132],[11.1418,51.4026],[11.0614,51.4298],[10.992,51.4179],[11.0107,51.4253],[10.9667,51.4324],[10.9608,51.4712],[10.9733,51.482],[10.9273,51.5209],[10.948,51.5376],[10.9005,51.5507],[10.8821,51.5805],[10.8945,51.6018],[10.9312,51.5915],[10.9365,51.6041],[10.9141,51.6102],[10.922,51.6184],[10.8866,51.6121],[10.8586,51.6329],[10.8226,51.6235],[10.8182,51.639],[10.7645,51.649],[10.6392,51.6212],[10.649,51.6065],[10.6335,51.6079],[10.6387,51.5841],[10.6663,51.5781],[10.6568,51.5583],[10.6043,51.5796],[10.519,51.5538],[10.4444,51.5897],[10.37,51.5875],[10.3677,51.543],[10.3423,51.5195],[10.3088,51.5151],[10.2997,51.4939],[10.2332,51.4708],[10.202,51.4865],[10.1783,51.47],[10.1743,51.4463],[10.14,51.4426],[10.1504,51.4294],[10.0801,51.4346],[10.0691,51.4184],[10.0467,51.4368],[10.0378,51.42],[10.0093,51.4206],[10.0004,51.4037],[9.9255,51.3721],[9.9476,51.3264],[9.9398,51.3071],[9.9699,51.3003],[9.972,51.2849],[10.0537,51.279],[10.047,51.2534],[10.079,51.2428],[10.0687,51.2266],[10.1384,51.2202],[10.236,51.1848],[10.2073,51.1649],[10.2,51.113],[10.1687,51.1533],[10.1183,51.1396],[10.1746,51.1169],[10.1406,51.0585],[10.1988,51.0401],[10.2152,51.0264],[10.1926,51.0185],[10.2029,51.0081],[10.1469,50.9938],[10.1208,51.0117],[10.0364,51.0124],[10.0195,50.9807],[10.0623,50.9438],[9.9501,50.9422],[9.9571,50.9226],[9.992,50.9345],[9.9715,50.9074],[10.0156,50.9206],[10.0598,50.8854],[10.0219,50.8645],[10.0219,50.8479],[10.0386,50.8531],[10.0231,50.8316],[9.9523,50.8214],[9.9521,50.7733],[9.9284,50.7766],[9.9201,50.7596],[9.9396,50.7559],[9.9415,50.7391],[9.9089,50.7045],[9.9231,50.6942],[9.8813,50.6734],[9.8786,50.6348],[9.9607,50.6295],[9.9689,50.6413],[9.9515,50.6659],[10.0511,50.6729],[10.083,50.6337],[10.081,50.62],[10.0372,50.6129],[10.0618,50.5567],[10.0413,50.5165],[10.1194,50.5642],[10.1404,50.5429],[10.2039,50.5547],[10.232,50.5311],[10.2308,50.5118],[10.3306,50.4943],[10.3362,50.4659],[10.3813,50.4389],[10.3707,50.4319],[10.4038,50.4248],[10.3845,50.4089],[10.3945,50.3937],[10.4495,50.403],[10.4637,50.376],[10.4944,50.3694],[10.4924,50.3551],[10.5444,50.3645],[10.5618,50.3371],[10.6006,50.3337],[10.5924,50.3081],[10.6053,50.2935],[10.591,50.2718],[10.6073,50.2713],[10.5978,50.2626],[10.6113,50.2491],[10.5971,50.2462],[10.612,50.2241],[10.6867,50.2259],[10.7166,50.2048],[10.7312,50.2127],[10.7322,50.2518],[10.8477,50.245],[10.8464,50.2751],[10.7154,50.3212],[10.7289,50.3479],[10.7125,50.3546],[10.7545,50.3582],[10.7859,50.3854],[10.8727,50.3968],[10.8931,50.3803],[10.9376,50.3919],[10.9858,50.3473],[10.9995,50.352],[10.9935,50.3655],[11.0334,50.3614],[11.043,50.3447],[11.1153,50.367],[11.1168,50.3493],[11.1391,50.3535],[11.1592,50.3304],[11.1318,50.3081],[11.1459,50.285],[11.1871,50.2696],[11.1978,50.2919],[11.2532,50.2705]]]}}]}