{"type":"FeatureCollection","features":[{"type":"Feature","properties":{"gid":"PRK.1_1","name":"慈江道","nameEn":"Chagang-do","nameLocal":"자강도","type":"Province","typeEn":"Province","groupZh":"省","area":16691.7,"iso":"NA","engtype":"Province","capital":"江界","pop":1299000,"blurb":"北部内陆山区，水力发电与军工，鸭绿江畔。"},"geometry":{"type":"Polygon","coordinates":[[[126.4716,40.01999],[126.48454,40.03032],[126.5317,40.03111],[126.56162,40.04124],[126.56596,40.0836],[126.60111,40.11243],[126.63989,40.12593],[126.65973,40.14154],[126.69581,40.14437],[126.74505,40.18745],[126.81121,40.20285],[126.8172,40.23492],[126.8271,40.25201],[126.8976,40.29967],[126.91042,40.34632],[126.92646,40.37695],[126.92844,40.39844],[126.94889,40.44197],[127.00997,40.48005],[127.01082,40.5092],[127.00275,40.52963],[127.02138,40.56725],[127.05714,40.5714],[127.10345,40.60511],[127.15276,40.62486],[127.20746,40.62769],[127.23297,40.68222],[127.24048,40.71516],[127.29082,40.74526],[127.31901,40.7488],[127.34652,40.77326],[127.38126,40.77552],[127.39973,40.78597],[127.42057,40.83771],[127.40215,40.882],[127.40318,40.95066],[127.437,40.98549],[127.4836,41.00898],[127.50341,41.03687],[127.50351,41.14434],[127.48908,41.16124],[127.46316,41.17305],[127.42109,41.16343],[127.38254,41.1443],[127.35912,41.11237],[127.33825,41.09968],[127.29574,41.10014],[127.27195,41.10902],[127.23288,41.10588],[127.19071,41.14057],[127.16204,41.13743],[127.14496,41.15199],[127.1405,41.18127],[127.12273,41.22816],[127.1385,41.25999],[127.08493,41.27802],[127.06979,41.29258],[127.04657,41.35107],[127.02345,41.37613],[127.01431,41.39546],[127.0288,41.4312],[126.95605,41.43519],[126.93423,41.45558],[126.92204,41.47682],[126.9162,41.51419],[126.93305,41.53658],[126.97015,41.52714],[126.9976,41.52741],[127.01337,41.562],[127.0399,41.58117],[127.06426,41.58392],[127.07568,41.59703],[127.05749,41.6332],[127.05446,41.65509],[127.0355,41.67319],[127.05086,41.68915],[127.06698,41.68657],[127.07512,41.69127],[127.07686,41.69945],[127.05244,41.70467],[127.04964,41.73777],[127.04413,41.74278],[127.00671,41.74065],[126.99747,41.75931],[126.97543,41.76374],[126.97253,41.7714],[126.92774,41.77409],[126.92852,41.78186],[126.94628,41.79226],[126.93371,41.80666],[126.88072,41.79217],[126.84519,41.74623],[126.83963,41.72689],[126.82621,41.72086],[126.81784,41.72603],[126.8148,41.74729],[126.80367,41.74279],[126.78536,41.69298],[126.77256,41.69668],[126.757,41.72651],[126.7297,41.74208],[126.69775,41.75293],[126.67718,41.74695],[126.69434,41.72501],[126.72358,41.71811],[126.72836,41.70767],[126.72353,41.69829],[126.69275,41.68088],[126.68404,41.66335],[126.64376,41.65706],[126.60943,41.6652],[126.61067,41.64289],[126.58169,41.61202],[126.55952,41.6102],[126.58589,41.55334],[126.5555,41.52634],[126.55164,41.50356],[126.54459,41.49869],[126.54864,41.48074],[126.53559,41.4748],[126.50213,41.42244],[126.50252,41.39952],[126.53039,41.36296],[126.5052,41.34632],[126.48869,41.35003],[126.50386,41.36385],[126.49406,41.36989],[126.44696,41.35438],[126.42844,41.33219],[126.40617,41.31988],[126.40114,41.30702],[126.36093,41.28225],[126.36435,41.26587],[126.35442,41.24178],[126.30816,41.22368],[126.30494,41.1887],[126.28837,41.18304],[126.28719,41.15949],[126.23463,41.1374],[126.20845,41.11547],[126.1835,41.10632],[126.16005,41.08407],[126.11171,41.07829],[126.11192,41.06362],[126.13243,41.05002],[126.11719,41.02823],[126.09646,41.02398],[126.09933,41.00608],[126.0656,40.99273],[126.07391,40.9735],[126.07134,40.96574],[126.04471,40.95218],[126.04156,40.93617],[126.02924,40.92579],[125.99997,40.93018],[125.98801,40.92693],[125.9779,40.9129],[126.01324,40.91193],[126.02205,40.89916],[126.00635,40.89155],[125.97119,40.8961],[125.95739,40.87859],[125.93712,40.87378],[125.91391,40.88157],[125.91009,40.90044],[125.8944,40.89282],[125.87576,40.89779],[125.84694,40.87353],[125.80756,40.86164],[125.79279,40.88166],[125.77462,40.88679],[125.76357,40.88345],[125.74654,40.86838],[125.71067,40.85843],[125.64114,40.8095],[125.64005,40.7997],[125.68069,40.77958],[125.68814,40.76337],[125.60692,40.75658],[125.57629,40.7723],[125.568,40.7694],[125.55963,40.76443],[125.54017,40.72096],[125.46703,40.71077],[125.45385,40.68678],[125.45447,40.66815],[125.41565,40.66542],[125.41412,40.66081],[125.41807,40.6434],[125.5109,40.60482],[125.54085,40.57073],[125.57114,40.56895],[125.58807,40.57562],[125.59531,40.57085],[125.59886,40.54156],[125.61555,40.5163],[125.58904,40.47401],[125.57922,40.4337],[125.57939,40.39791],[125.6297,40.37677],[125.63379,40.35916],[125.61713,40.34553],[125.61767,40.32651],[125.68042,40.28291],[125.75499,40.25174],[125.81472,40.21643],[125.87868,40.23478],[125.921,40.23393],[125.93944,40.21609],[125.96957,40.22137],[126.04083,40.15463],[126.07699,40.1367],[126.13361,40.08065],[126.18539,40.05005],[126.21633,40.04015],[126.26975,40.03974],[126.29067,40.03093],[126.3302,40.02989],[126.34677,40.01543],[126.40376,39.99364],[126.44325,39.99496],[126.46569,40.0066],[126.4716,40.01999]]]}},{"type":"Feature","properties":{"gid":"PRK.2_1","name":"咸镜北道","nameEn":"Hamgyŏng-bukto","nameLocal":"함경북도","type":"Province","typeEn":"Province","groupZh":"省","area":15802.7,"iso":"NA","engtype":"Province","capital":"清津","pop":2400000,"blurb":"东北端，清津钢铁城与罗先特区交界。"},"geometry":{"type":"MultiPolygon","coordinates":[[[[129.52403,40.76181],[129.51459,40.7582],[129.52235,40.75542],[129.52792,40.76014],[129.52403,40.76181]]],[[[129.35374,40.74848],[129.39403,40.76098],[129.42958,40.78292],[129.47792,40.79542],[129.5157,40.79403],[129.52847,40.80875],[129.53819,40.80653],[129.53514,40.81125],[129.53958,40.81348],[129.54987,40.80848],[129.55347,40.81209],[129.5468,40.8232],[129.57124,40.84126],[129.59264,40.83875],[129.6182,40.84486],[129.62958,40.83709],[129.63014,40.84486],[129.64903,40.84681],[129.66069,40.84098],[129.66708,40.84681],[129.67847,40.84153],[129.70625,40.85153],[129.70125,40.84098],[129.71375,40.83292],[129.73042,40.85764],[129.73181,40.89042],[129.75514,40.90709],[129.7482,40.92459],[129.76459,40.94375],[129.75041,40.94959],[129.74847,40.9582],[129.73708,40.9657],[129.73209,40.98347],[129.71875,40.98737],[129.73347,40.9982],[129.7243,41.00042],[129.72597,41.01598],[129.7182,41.02514],[129.72069,41.07625],[129.73042,41.08487],[129.73042,41.09792],[129.73987,41.10348],[129.71486,41.10375],[129.72376,41.11709],[129.7132,41.13237],[129.72319,41.13514],[129.72542,41.14237],[129.71181,41.15125],[129.72208,41.16264],[129.71542,41.19875],[129.73291,41.20459],[129.72069,41.20848],[129.72376,41.21431],[129.73958,41.21292],[129.73152,41.22653],[129.73958,41.2307],[129.73209,41.24042],[129.73958,41.24153],[129.73013,41.24709],[129.75014,41.25931],[129.74403,41.26736],[129.75375,41.26542],[129.7482,41.27042],[129.75735,41.27126],[129.75931,41.27876],[129.74847,41.29681],[129.77931,41.31625],[129.76819,41.32014],[129.77069,41.32486],[129.79042,41.33125],[129.79042,41.3582],[129.80292,41.36237],[129.79764,41.3732],[129.80597,41.37486],[129.80736,41.38264],[129.78487,41.39181],[129.77625,41.38264],[129.76653,41.38542],[129.73819,41.41708],[129.70291,41.42487],[129.67542,41.44875],[129.64958,41.49487],[129.66014,41.51625],[129.64958,41.5557],[129.67041,41.57514],[129.68541,41.6382],[129.69986,41.66486],[129.74159,41.68649],[129.74709,41.70876],[129.75986,41.72375],[129.75542,41.73125],[129.76375,41.74903],[129.76013,41.76264],[129.76848,41.75542],[129.77542,41.76459],[129.81514,41.78125],[129.82791,41.77987],[129.84181,41.7607],[129.85069,41.7632],[129.84541,41.7807],[129.8557,41.79459],[129.8682,41.79403],[129.87042,41.81403],[129.87598,41.8132],[129.88265,41.82375],[129.87764,41.83598],[129.88736,41.84514],[129.88902,41.86681],[129.87848,41.8757],[129.89708,41.89209],[129.89569,41.90848],[129.91515,41.91598],[129.95403,41.89486],[129.96265,41.90625],[129.95653,41.90875],[129.96542,41.91542],[129.97125,41.94209],[129.98903,41.94431],[129.98819,41.95153],[129.96848,41.95598],[129.97736,41.9657],[129.9982,41.96931],[129.97736,41.98375],[129.98486,41.9932],[130.00597,41.99181],[129.99625,42.00709],[130.0018,42.0157],[130.01402,42.02042],[130.02597,42.00237],[130.02292,41.99209],[130.03291,41.99514],[130.03487,42.00737],[130.02625,42.01514],[130.03348,42.02126],[130.04074,42.01876],[130.03986,42.03542],[130.05042,42.03597],[130.04764,42.0582],[130.06375,42.05125],[130.06541,42.03681],[130.07402,42.04459],[130.07987,42.04265],[130.07347,42.05375],[130.07736,42.07181],[130.06986,42.07653],[130.08653,42.08931],[130.12958,42.09237],[130.13153,42.08236],[130.14153,42.08403],[130.15402,42.06709],[130.15875,42.07181],[130.16875,42.06931],[130.17209,42.08264],[130.16319,42.09181],[130.14237,42.09598],[130.14098,42.10153],[130.17542,42.11403],[130.18486,42.10986],[130.18181,42.10153],[130.18959,42.09708],[130.18709,42.11098],[130.19736,42.11931],[130.18959,42.12264],[130.18987,42.12986],[130.19986,42.1432],[130.20819,42.14098],[130.20403,42.14486],[130.20931,42.14542],[130.19847,42.14626],[130.19653,42.15264],[130.21069,42.15014],[130.20514,42.16181],[130.19208,42.16848],[130.19931,42.17348],[130.20079,42.18486],[130.17555,42.19737],[130.1731,42.22968],[130.16486,42.24111],[130.16469,42.26727],[130.17537,42.31048],[130.18344,42.318],[130.20903,42.31994],[130.23256,42.33187],[130.29948,42.4046],[130.28534,42.43538],[130.29044,42.45434],[130.34052,42.46927],[130.39758,42.49754],[130.43274,42.54279],[130.41556,42.57018],[130.43309,42.60113],[130.41554,42.60738],[130.38261,42.60027],[130.35634,42.62907],[130.30556,42.66369],[130.28822,42.69103],[130.24825,42.71139],[130.23961,42.72548],[130.23309,42.78591],[130.26582,42.88607],[130.25896,42.8958],[130.1545,42.90685],[130.14711,42.90079],[130.11624,42.90277],[130.09755,42.91376],[130.1053,42.92304],[130.13753,42.93243],[130.11884,42.94341],[130.11575,42.95504],[130.14638,42.96941],[130.14253,42.97455],[130.12488,42.97568],[130.10616,42.98666],[130.07074,42.96932],[130.01221,42.96581],[129.95807,42.97622],[129.94939,42.98801],[129.95428,42.99553],[129.94968,43.00454],[129.90807,43.00452],[129.88081,42.99283],[129.87608,42.98692],[129.88506,42.97765],[129.91438,42.97427],[129.89037,42.9663],[129.86189,42.96892],[129.84856,42.95847],[129.85046,42.93905],[129.8633,42.91944],[129.83861,42.91082],[129.83316,42.86427],[129.81161,42.84142],[129.79889,42.78222],[129.78384,42.76429],[129.76315,42.71727],[129.77315,42.69186],[129.80055,42.67783],[129.77261,42.67259],[129.77443,42.64376],[129.75291,42.65446],[129.74734,42.64607],[129.75752,42.63099],[129.75137,42.61734],[129.77592,42.60361],[129.74373,42.57182],[129.74672,42.51942],[129.74089,42.50672],[129.74059,42.46431],[129.72055,42.44269],[129.71437,42.42675],[129.64398,42.42773],[129.62848,42.45803],[129.61989,42.46175],[129.5932,42.44974],[129.59241,42.43922],[129.60239,42.44278],[129.60837,42.43485],[129.59776,42.41365],[129.57153,42.40276],[129.56331,42.39222],[129.56203,42.38586],[129.57031,42.37941],[129.55368,42.37118],[129.55066,42.3601],[129.53427,42.36908],[129.52586,42.38634],[129.46407,42.42339],[129.44577,42.44118],[129.41756,42.43796],[129.39909,42.44818],[129.38599,42.44111],[129.37953,42.42953],[129.36198,42.42752],[129.35658,42.43219],[129.36333,42.44375],[129.36108,42.45214],[129.34235,42.44767],[129.3373,42.44061],[129.35144,42.42123],[129.34251,42.40955],[129.33362,42.42362],[129.3129,42.4229],[129.30345,42.39978],[129.31444,42.38585],[129.29584,42.38551],[129.29053,42.3789],[129.26926,42.38582],[129.26355,42.37833],[129.23499,42.37416],[129.23624,42.36192],[129.22653,42.34822],[129.25172,42.32182],[129.23535,42.31261],[129.20932,42.31495],[129.19891,42.30656],[129.20317,42.29967],[129.22743,42.30432],[129.23344,42.29963],[129.1967,42.27799],[129.21751,42.27593],[129.21796,42.27109],[129.17868,42.24545],[129.18164,42.23473],[129.20618,42.23317],[129.19405,42.22282],[129.21394,42.21185],[129.21886,42.20538],[129.21527,42.20031],[129.19547,42.19656],[129.16124,42.17776],[129.16629,42.17266],[129.15997,42.16475],[129.13655,42.15545],[129.14134,42.13821],[129.11182,42.14187],[129.09186,42.13628],[129.07916,42.14844],[129.06825,42.14719],[129.06441,42.13592],[129.03383,42.11597],[129.04308,42.10951],[129.02411,42.09752],[129.0188,42.05212],[128.99448,42.028],[128.97874,41.9986],[128.95457,41.98527],[128.90076,41.9707],[128.89174,41.92526],[128.88394,41.91273],[128.8692,41.91414],[128.85248,41.92797],[128.80629,41.92024],[128.84026,41.89199],[128.8459,41.87423],[128.86775,41.85702],[128.87354,41.82766],[128.9269,41.82113],[128.92772,41.72723],[128.95552,41.68715],[128.95239,41.67464],[128.92914,41.6505],[128.92934,41.64137],[128.94791,41.63141],[128.98869,41.63007],[129.01181,41.61926],[129.05716,41.56972],[129.05388,41.53436],[129.02473,41.5053],[129.00183,41.49158],[128.96443,41.44759],[128.96477,41.4033],[128.97522,41.37108],[128.99963,41.3341],[129.00435,41.31274],[129.03854,41.27298],[128.99236,41.20772],[128.99289,41.18834],[129.01126,41.13606],[129.00899,41.11878],[128.99231,41.10109],[129.0016,41.07567],[128.99199,41.04151],[129.00139,41.0046],[128.98508,40.99047],[128.98299,40.97102],[128.95265,40.95024],[128.93929,40.92453],[128.96387,40.88104],[128.93762,40.859],[128.93683,40.82778],[128.9724,40.78469],[128.97398,40.74375],[128.98433,40.71151],[129.00874,40.68592],[129.05629,40.66165],[129.06596,40.64277],[129.05753,40.62222],[129.0593,40.60138],[129.16403,40.56959],[129.1718,40.57459],[129.1618,40.5857],[129.17209,40.59792],[129.17152,40.6107],[129.19069,40.61959],[129.18625,40.63014],[129.19847,40.63625],[129.19458,40.63931],[129.19902,40.65987],[129.21265,40.65681],[129.21236,40.66431],[129.20181,40.66709],[129.20541,40.67987],[129.21292,40.6807],[129.20764,40.68792],[129.21181,40.69431],[129.2307,40.70792],[129.26958,40.7107],[129.29208,40.68042],[129.30264,40.67625],[129.32791,40.72625],[129.35374,40.74848]]]]}},{"type":"Feature","properties":{"gid":"PRK.3_1","name":"咸镜南道","nameEn":"Hamgyŏng-namdo","nameLocal":"함경남도","type":"Province","typeEn":"Province","groupZh":"省","area":18461.2,"iso":"NA","engtype":"Province","capital":"咸兴","pop":3300000,"blurb":"东海岸工业带，咸兴化工与兴南化肥。"},"geometry":{"type":"MultiPolygon","coordinates":[[[[127.09241,39.32365],[127.10313,39.34589],[127.10537,39.37789],[127.13403,39.40807],[127.22885,39.40921],[127.26222,39.42428],[127.2809,39.40885],[127.3303,39.40852],[127.3784,39.39973],[127.41557,39.41105],[127.43681,39.40355],[127.43347,39.41292],[127.45153,39.41375],[127.44875,39.40931],[127.46125,39.39903],[127.46875,39.40181],[127.46653,39.40875],[127.48653,39.40042],[127.49097,39.40459],[127.48681,39.41737],[127.4732,39.42625],[127.50125,39.43709],[127.51209,39.42681],[127.51486,39.41181],[127.49014,39.40042],[127.51264,39.40848],[127.51458,39.39709],[127.53403,39.4057],[127.53875,39.38681],[127.53236,39.39681],[127.52847,39.39237],[127.54041,39.38376],[127.54542,39.36848],[127.54181,39.35764],[127.52375,39.3507],[127.53347,39.34181],[127.52653,39.32375],[127.51542,39.31931],[127.51486,39.30903],[127.56014,39.29487],[127.56042,39.30098],[127.56931,39.30486],[127.55375,39.33376],[127.55959,39.35709],[127.5482,39.37042],[127.52319,39.44125],[127.51097,39.5182],[127.51431,39.52764],[127.52431,39.52848],[127.52236,39.5357],[127.53042,39.53848],[127.52986,39.54653],[127.5407,39.55375],[127.53902,39.56014],[127.54652,39.56153],[127.54958,39.57153],[127.56792,39.57625],[127.56236,39.58042],[127.56458,39.59181],[127.57848,39.5932],[127.56709,39.59903],[127.56792,39.60598],[127.55875,39.60792],[127.55736,39.62014],[127.56514,39.62931],[127.54597,39.63209],[127.54041,39.64626],[127.52014,39.63959],[127.50597,39.64292],[127.49181,39.66097],[127.48847,39.67931],[127.50125,39.73125],[127.52458,39.75431],[127.54153,39.76014],[127.52402,39.75792],[127.52236,39.76236],[127.49125,39.72848],[127.51403,39.75958],[127.52153,39.76487],[127.53902,39.76292],[127.56069,39.75459],[127.56347,39.74264],[127.57291,39.74736],[127.56931,39.75737],[127.56458,39.75375],[127.54708,39.75931],[127.55125,39.79265],[127.58847,39.80153],[127.60819,39.82403],[127.62791,39.82681],[127.62209,39.83348],[127.6507,39.82514],[127.65041,39.81764],[127.65875,39.81264],[127.65681,39.8057],[127.66292,39.80431],[127.66986,39.82014],[127.68042,39.81958],[127.6982,39.85236],[127.74181,39.8607],[127.75097,39.85153],[127.75681,39.85903],[127.76542,39.85487],[127.76847,39.86153],[127.78542,39.85598],[127.78514,39.86375],[127.79403,39.87098],[127.78848,39.87181],[127.78875,39.87848],[127.77875,39.87875],[127.7832,39.88209],[127.77181,39.89792],[127.77959,39.9032],[127.8082,39.87986],[127.81986,39.89264],[127.82291,39.88681],[127.83542,39.89403],[127.83375,39.88903],[127.84319,39.88181],[127.8682,39.90125],[127.87347,39.89681],[127.86736,39.89153],[127.88403,39.8882],[127.88458,39.89403],[127.87708,39.89292],[127.87431,39.90014],[127.89069,39.93736],[127.87403,39.94209],[127.87847,39.96459],[127.89903,39.98792],[127.90764,39.98848],[127.92264,39.97764],[127.96042,40.01375],[127.9782,40.01403],[127.97736,40.02681],[127.98597,40.02625],[127.98125,40.03764],[127.99847,40.03403],[127.98348,40.04264],[127.98125,40.0507],[127.99431,40.06042],[128.01013,40.05903],[128.01209,40.04625],[128.02208,40.05264],[128.03708,40.05209],[128.04181,40.04264],[128.06041,40.03348],[128.08069,40.04264],[128.10126,40.03209],[128.11792,40.03848],[128.14542,40.03292],[128.15459,40.02014],[128.14542,40.01042],[128.15541,40.00876],[128.16681,40.02653],[128.17708,40.03153],[128.19542,40.02625],[128.20209,40.03375],[128.21292,40.02737],[128.21513,40.03153],[128.22653,40.02848],[128.22653,40.03459],[128.23541,40.03792],[128.22903,40.0532],[128.2343,40.05903],[128.23209,40.06764],[128.26653,40.07681],[128.28542,40.06237],[128.28626,40.04264],[128.3082,40.03098],[128.33041,40.02987],[128.32681,40.0457],[128.33347,40.06292],[128.36487,40.09681],[128.40292,40.10597],[128.42236,40.10292],[128.44347,40.11237],[128.44736,40.1107],[128.43903,40.10709],[128.44569,40.10431],[128.46764,40.13431],[128.4832,40.13237],[128.49374,40.13931],[128.5157,40.13459],[128.53014,40.14375],[128.54736,40.16737],[128.59375,40.18848],[128.63126,40.17875],[128.63652,40.18931],[128.64653,40.18987],[128.65154,40.19792],[128.64819,40.21347],[128.65736,40.20736],[128.65514,40.19125],[128.66014,40.18987],[128.65958,40.20098],[128.66489,40.20429],[128.65958,40.21848],[128.66653,40.22125],[128.66014,40.22181],[128.6593,40.22848],[128.66625,40.22903],[128.66959,40.23848],[128.65598,40.24264],[128.65598,40.25542],[128.65042,40.25875],[128.63625,40.25764],[128.62958,40.26709],[128.61626,40.27042],[128.61986,40.29987],[128.63486,40.31514],[128.65514,40.32042],[128.65875,40.31014],[128.66875,40.30848],[128.67653,40.32264],[128.69431,40.33431],[128.71014,40.33431],[128.72014,40.34126],[128.7482,40.33598],[128.76514,40.35348],[128.77542,40.35459],[128.78403,40.34653],[128.8118,40.35459],[128.81291,40.36098],[128.83904,40.37236],[128.86069,40.37209],[128.87737,40.37903],[128.88486,40.38987],[128.90292,40.39848],[128.91653,40.41792],[128.94153,40.43209],[128.90402,40.44514],[128.93069,40.44348],[128.94615,40.43403],[128.96597,40.45736],[129.00847,40.4657],[129.01486,40.47542],[129.03403,40.48403],[129.05486,40.48347],[129.06375,40.4707],[129.07014,40.47959],[129.09875,40.49125],[129.1143,40.5093],[129.11487,40.52431],[129.15236,40.54764],[129.1507,40.56014],[129.15964,40.57169],[129.0593,40.60138],[129.05728,40.62063],[129.06477,40.64705],[129.05449,40.66341],[129.00874,40.68592],[128.98581,40.70874],[128.97424,40.74224],[128.9724,40.78469],[128.93657,40.82918],[128.93835,40.86042],[128.96387,40.88104],[128.93987,40.92717],[128.95377,40.95142],[128.98299,40.97102],[128.98508,40.99047],[129.00139,41.0046],[128.99199,41.04151],[129.0016,41.07567],[128.99231,41.10109],[128.95453,41.12757],[128.84938,41.17471],[128.81662,41.17484],[128.78917,41.1657],[128.74435,41.17427],[128.71379,41.16491],[128.67812,41.12952],[128.66464,41.08434],[128.6223,41.07079],[128.60049,41.02954],[128.58115,41.02333],[128.57063,41.00925],[128.45985,41.00772],[128.43633,40.99646],[128.42908,40.98063],[128.4431,40.95776],[128.44316,40.90911],[128.40289,40.86081],[128.4059,40.83467],[128.38914,40.80278],[128.38591,40.77473],[128.36166,40.75752],[128.33685,40.68781],[128.25313,40.63139],[128.20804,40.58144],[128.18391,40.56356],[128.17065,40.56133],[128.14513,40.56351],[128.09288,40.59874],[128.04703,40.59812],[128.00441,40.58105],[127.979,40.57878],[127.95519,40.55659],[127.93848,40.52226],[127.9154,40.49915],[127.81026,40.44778],[127.78401,40.42407],[127.72719,40.4118],[127.72819,40.47567],[127.73864,40.49422],[127.77253,40.52468],[127.7794,40.60005],[127.73866,40.59914],[127.72169,40.61338],[127.70767,40.68822],[127.67633,40.6961],[127.64248,40.75333],[127.61854,40.77255],[127.61494,40.81],[127.59848,40.83111],[127.59691,40.85178],[127.60564,40.86593],[127.69104,40.90696],[127.70506,40.9201],[127.71739,40.94403],[127.71785,40.95737],[127.69275,40.98605],[127.6914,40.99535],[127.70874,41.00434],[127.74407,40.9987],[127.77191,41.01837],[127.79193,41.07578],[127.79131,41.11811],[127.78271,41.12687],[127.75742,41.12897],[127.73927,41.13853],[127.70677,41.13737],[127.68638,41.1459],[127.6589,41.14623],[127.64508,41.13412],[127.62375,41.07533],[127.60888,41.06555],[127.50318,41.06252],[127.50288,41.0354],[127.4836,41.00898],[127.437,40.98549],[127.40318,40.95066],[127.40215,40.882],[127.42057,40.83771],[127.39973,40.78597],[127.38126,40.77552],[127.34652,40.77326],[127.31901,40.7488],[127.29082,40.74526],[127.24048,40.71516],[127.23297,40.68222],[127.20746,40.62769],[127.15276,40.62486],[127.10345,40.60511],[127.05714,40.5714],[127.02224,40.56809],[127.01253,40.55782],[127.00275,40.52963],[127.01082,40.5092],[127.00997,40.48005],[126.94889,40.44197],[126.90996,40.34493],[126.90886,40.33766],[127.01337,40.33759],[127.06124,40.32473],[127.07838,40.3027],[127.10217,40.28939],[127.11225,40.27237],[127.10389,40.22128],[127.11467,40.18318],[127.16837,40.17075],[127.1767,40.15556],[127.17652,40.12606],[127.11781,40.08525],[127.09682,40.0803],[127.08627,40.06641],[127.08369,40.03028],[127.05767,40.01627],[127.06908,39.9654],[127.11264,39.90844],[127.10838,39.8626],[127.0898,39.84696],[127.04108,39.84453],[127.01043,39.82632],[126.99551,39.82802],[126.97734,39.85081],[126.94698,39.86391],[126.84891,39.86409],[126.7857,39.84238],[126.7614,39.80745],[126.7572,39.77795],[126.72346,39.75027],[126.72382,39.72282],[126.73407,39.71578],[126.75557,39.71495],[126.75963,39.70848],[126.70527,39.65884],[126.70457,39.64408],[126.71332,39.62487],[126.71227,39.5948],[126.68258,39.56777],[126.66692,39.56639],[126.66781,39.54053],[126.67907,39.51789],[126.69913,39.50568],[126.71017,39.48665],[126.7291,39.48145],[126.74111,39.46836],[126.74015,39.45551],[126.69477,39.35535],[126.69566,39.33619],[126.70607,39.31229],[126.72179,39.29903],[126.74702,39.29741],[126.77125,39.3148],[126.80735,39.31573],[126.83239,39.30449],[126.84897,39.26926],[126.86169,39.27033],[126.88283,39.28709],[126.90671,39.28722],[126.93565,39.25624],[126.91866,39.23045],[126.92491,39.21605],[127.00578,39.21338],[127.03251,39.20003],[127.03815,39.21973],[127.02148,39.25112],[127.02208,39.26117],[127.04876,39.27728],[127.07413,39.2796],[127.09179,39.28894],[127.09241,39.32365]]],[[[127.47375,39.39986],[127.46375,39.39459],[127.47459,39.38097],[127.4818,39.39764],[127.47375,39.39986]]],[[[127.49431,39.39709],[127.48986,39.39264],[127.49625,39.39042],[127.49431,39.39709]]],[[[128.22765,40.01514],[128.22403,40.00542],[128.21736,40.0057],[128.21652,39.99348],[128.20931,39.99403],[128.21153,40.01125],[128.20236,40.00848],[128.19959,39.99931],[128.19376,40.00681],[128.1893,40.00181],[128.18514,40.0082],[128.17125,40.00764],[128.1768,39.99987],[128.17319,39.99458],[128.16653,39.99681],[128.16347,39.98514],[128.21959,39.9907],[128.23181,40.00625],[128.22765,40.01514]]]]}},{"type":"Feature","properties":{"gid":"PRK.4_1","name":"黄海北道","nameEn":"Hwanghae-bukto","nameLocal":"황해북도","type":"Province","typeEn":"Province","groupZh":"省","area":8225.0,"iso":"NA","engtype":"Province","capital":"沙里院","pop":2100000,"blurb":"西部农业区，靠近平壤，水稻主产。"},"geometry":{"type":"Polygon","coordinates":[[[126.453,38.01973],[126.48788,38.00388],[126.48083,37.98011],[126.48183,37.95029],[126.51666,37.9315],[126.53248,37.9734],[126.60754,38.02113],[126.61147,38.04456],[126.56632,38.04321],[126.5554,38.05673],[126.57035,38.08543],[126.6078,38.0998],[126.63808,38.12848],[126.63805,38.1592],[126.62155,38.17342],[126.60811,38.21848],[126.71543,38.21928],[126.75417,38.20137],[126.82363,38.20078],[126.85351,38.21226],[126.87133,38.22879],[126.87273,38.24685],[126.88723,38.26595],[126.86475,38.29505],[126.88821,38.31165],[126.88915,38.33737],[126.87468,38.34019],[126.85221,38.32278],[126.83683,38.32271],[126.81738,38.3468],[126.79034,38.35772],[126.75421,38.40196],[126.70443,38.49253],[126.70412,38.53743],[126.7126,38.55742],[126.71328,38.58168],[126.67818,38.61152],[126.6738,38.62794],[126.694,38.64472],[126.72452,38.65508],[126.77125,38.65873],[126.79422,38.68192],[126.81178,38.71739],[126.84003,38.73683],[126.86945,38.78548],[126.88,38.81812],[126.87148,38.87396],[126.89097,38.89902],[126.90455,38.90684],[126.96393,38.90843],[126.98459,38.91945],[127.01762,38.95142],[127.01905,38.99019],[126.97564,39.03625],[126.97377,39.06497],[126.92918,39.05648],[126.89858,39.06707],[126.81514,39.1192],[126.77121,39.12137],[126.72996,39.14757],[126.70763,39.14785],[126.68649,39.13908],[126.61808,39.13904],[126.59328,39.16489],[126.56874,39.1699],[126.55525,39.14825],[126.55665,39.13021],[126.58696,39.07982],[126.61652,39.05866],[126.64022,39.01196],[126.65562,39.00059],[126.65556,38.97375],[126.61586,38.96272],[126.54655,38.98255],[126.51603,38.9987],[126.48382,38.99857],[126.48151,38.97374],[126.49957,38.94495],[126.49115,38.89449],[126.45229,38.91438],[126.39064,38.92657],[126.30367,38.96069],[126.27654,38.95437],[126.25437,38.97006],[126.2075,38.98956],[126.18736,38.98935],[126.16521,38.97111],[126.15116,38.96967],[126.14333,38.97911],[126.13551,38.9789],[126.11815,38.95799],[126.11946,38.91617],[126.13377,38.89124],[126.17596,38.87573],[126.20737,38.84467],[126.21986,38.81938],[126.2204,38.78293],[126.19712,38.75314],[126.15302,38.75498],[126.11376,38.71202],[126.06145,38.70164],[126.00701,38.71261],[125.96868,38.73764],[125.93658,38.74355],[125.93255,38.75306],[125.93822,38.76817],[125.9236,38.79279],[125.89928,38.80347],[125.87681,38.80543],[125.79656,38.84074],[125.70166,38.84001],[125.65816,38.82346],[125.60599,38.78657],[125.57864,38.78517],[125.57075,38.75997],[125.58793,38.73873],[125.60009,38.70875],[125.6144,38.69802],[125.62728,38.66246],[125.65218,38.62516],[125.66308,38.52964],[125.6794,38.52172],[125.68307,38.49935],[125.7036,38.48817],[125.69987,38.41714],[125.72715,38.38116],[125.7019,38.3566],[125.7106,38.34905],[125.73621,38.34744],[125.74991,38.33612],[125.75191,38.32747],[125.73938,38.31301],[125.74287,38.30512],[125.76457,38.30223],[125.78328,38.31156],[125.80642,38.30354],[125.81435,38.31957],[125.83057,38.31911],[125.85596,38.2895],[125.86097,38.26637],[125.89796,38.26746],[125.91545,38.18998],[125.92458,38.17434],[125.94061,38.17081],[126.0023,38.17242],[126.02415,38.18903],[126.0374,38.19136],[126.05244,38.1897],[126.07917,38.17319],[126.12075,38.20849],[126.15481,38.20166],[126.21517,38.23606],[126.30345,38.23618],[126.43016,38.17839],[126.4238,38.15992],[126.44238,38.14429],[126.44296,38.11996],[126.42934,38.12143],[126.41644,38.14997],[126.4032,38.13717],[126.38213,38.12954],[126.36952,38.10005],[126.3772,38.09182],[126.39026,38.0977],[126.39681,38.09421],[126.38935,38.06634],[126.39661,38.04618],[126.39271,38.02319],[126.453,38.01973]]]}},{"type":"Feature","properties":{"gid":"PRK.5_1","name":"黄海南道","nameEn":"Hwanghae-namdo","nameLocal":"황해남도","type":"Province","typeEn":"Province","groupZh":"省","area":8542.6,"iso":"NA","engtype":"Province","capital":"海州","pop":2300000,"blurb":"西南沿海农业省，与韩国交界。"},"geometry":{"type":"MultiPolygon","coordinates":[[[[125.62653,37.76764],[125.62375,37.76292],[125.63097,37.76375],[125.62653,37.76764]]],[[[125.88153,37.76542],[125.87791,37.76375],[125.88319,37.76098],[125.88153,37.76542]]],[[[125.92347,37.78459],[125.8857,37.77264],[125.89153,37.76514],[125.91236,37.76959],[125.92347,37.78459]]],[[[125.77486,37.81098],[125.77458,37.81514],[125.76292,37.81125],[125.76653,37.80626],[125.75764,37.80098],[125.77375,37.79876],[125.77486,37.81098]]],[[[125.57181,38.02403],[125.56625,38.0282],[125.56986,38.03153],[125.58681,38.0257],[125.5957,38.04153],[125.59402,38.03736],[125.60042,38.03931],[125.61819,38.02237],[125.62847,38.02014],[125.63597,38.02209],[125.63264,38.03542],[125.64375,38.01986],[125.64902,38.02181],[125.64764,38.02876],[125.67986,38.02542],[125.68736,38.00764],[125.69625,38.01431],[125.6982,37.99959],[125.69292,37.99681],[125.70153,37.99319],[125.70486,38.00042],[125.71098,37.9907],[125.71875,37.99931],[125.7057,38.01847],[125.71625,38.01986],[125.75097,38.01847],[125.77402,37.99459],[125.78764,37.99264],[125.79097,37.99959],[125.80903,37.99487],[125.81431,37.98709],[125.79514,37.97292],[125.7907,37.96181],[125.7943,37.9532],[125.81236,37.94403],[125.8307,37.95125],[125.83375,37.9432],[125.82653,37.94098],[125.83542,37.92376],[125.84736,37.92181],[125.84736,37.91237],[125.86597,37.90764],[125.85931,37.89903],[125.82987,37.88931],[125.84236,37.86486],[125.88236,37.87459],[125.8943,37.86431],[125.89375,37.85319],[125.90292,37.84903],[125.89569,37.84514],[125.90375,37.84292],[125.89958,37.83764],[125.90875,37.81292],[125.96486,37.82653],[125.96208,37.83153],[125.96792,37.83375],[125.98625,37.83292],[125.98514,37.84848],[125.96931,37.86653],[125.97375,37.8782],[125.96042,37.88209],[125.9807,37.88125],[126.01847,37.84098],[126.02764,37.8232],[126.03597,37.82459],[126.03458,37.81931],[126.0407,37.82098],[126.03347,37.83847],[126.03848,37.84876],[126.02847,37.86042],[126.03486,37.86375],[126.0443,37.85542],[126.05375,37.81709],[126.06042,37.80681],[126.07042,37.80598],[126.06792,37.78903],[126.09458,37.77903],[126.08708,37.75459],[126.14514,37.74125],[126.15736,37.74514],[126.16042,37.77237],[126.16764,37.77986],[126.14569,37.82764],[126.16095,37.8377],[126.2143,37.8507],[126.19569,37.86459],[126.20153,37.88681],[126.20181,37.86987],[126.21486,37.86431],[126.21098,37.86042],[126.2207,37.85903],[126.22403,37.85098],[126.26598,37.84126],[126.32903,37.87487],[126.35152,37.88181],[126.37097,37.88014],[126.39042,37.8907],[126.40625,37.88469],[126.41273,37.89185],[126.41969,37.91359],[126.39063,37.92292],[126.38726,37.92994],[126.39384,37.95906],[126.39075,37.96937],[126.40578,37.99002],[126.38856,38.01758],[126.39652,38.03964],[126.38931,38.06489],[126.39719,38.09295],[126.39154,38.09777],[126.37585,38.09225],[126.36942,38.10442],[126.38322,38.13066],[126.4032,38.13717],[126.41644,38.14997],[126.43413,38.11779],[126.44353,38.12125],[126.44363,38.13967],[126.4238,38.15992],[126.43016,38.17839],[126.39383,38.19907],[126.35114,38.21137],[126.29533,38.23764],[126.21664,38.23643],[126.1534,38.20127],[126.12193,38.209],[126.07917,38.17319],[126.05244,38.1897],[126.03894,38.19136],[126.02415,38.18903],[126.0023,38.17242],[125.92574,38.17354],[125.90514,38.22082],[125.89796,38.26746],[125.86097,38.26637],[125.85596,38.2895],[125.82574,38.32096],[125.81314,38.31852],[125.80642,38.30354],[125.78328,38.31156],[125.76457,38.30223],[125.74638,38.30304],[125.73915,38.31165],[125.75191,38.32747],[125.74991,38.33612],[125.73621,38.34744],[125.70296,38.35427],[125.70391,38.36252],[125.72214,38.37133],[125.72715,38.38116],[125.69987,38.41714],[125.7036,38.48817],[125.68307,38.49935],[125.6794,38.52172],[125.66308,38.52964],[125.65218,38.62516],[125.63035,38.65792],[125.59235,38.65581],[125.55714,38.70044],[125.51698,38.72],[125.49955,38.71932],[125.48562,38.71078],[125.45445,38.73749],[125.44021,38.74261],[125.3907,38.71152],[125.31823,38.71448],[125.28654,38.68341],[125.23222,38.71328],[125.22833,38.72009],[125.2345,38.72916],[125.22652,38.73653],[125.22041,38.73014],[125.2232,38.72375],[125.19041,38.68264],[125.16875,38.68264],[125.17764,38.67875],[125.16875,38.67014],[125.18403,38.63708],[125.16708,38.62931],[125.15514,38.63125],[125.13347,38.66431],[125.1357,38.66986],[125.12347,38.6782],[125.11736,38.67487],[125.11958,38.67042],[125.10653,38.6657],[125.10458,38.66098],[125.11542,38.65653],[125.10709,38.64959],[125.12791,38.63736],[125.11986,38.6357],[125.13097,38.62598],[125.12514,38.61209],[125.13208,38.60292],[125.12042,38.59986],[125.09486,38.60959],[125.10042,38.62959],[125.09403,38.60986],[125.06181,38.60069],[125.09486,38.60792],[125.11986,38.5957],[125.08542,38.58764],[125.06792,38.55848],[125.04847,38.56486],[125.0507,38.57153],[125.03764,38.58348],[125.03736,38.59347],[125.01292,38.58181],[124.98903,38.59653],[124.97708,38.59042],[124.96014,38.59459],[124.98458,38.57875],[124.99764,38.58153],[124.99069,38.54542],[124.9818,38.53848],[125.00792,38.53098],[125.01653,38.50681],[125.01125,38.49125],[124.99431,38.47125],[124.9657,38.45736],[124.97736,38.45153],[124.96709,38.4357],[124.9568,38.43848],[124.96236,38.4457],[124.96181,38.46848],[124.95792,38.46709],[124.94486,38.44292],[124.93597,38.44514],[124.89764,38.38014],[124.86875,38.35209],[124.85375,38.34514],[124.87625,38.31458],[124.86375,38.26042],[124.88153,38.23681],[124.88903,38.23626],[124.88431,38.23347],[124.88819,38.22598],[124.8968,38.21986],[124.90708,38.22459],[124.91847,38.21598],[124.95875,38.23209],[124.98625,38.22987],[124.9893,38.22292],[124.96098,38.21848],[124.95319,38.22376],[124.94875,38.20987],[124.92903,38.20625],[124.9407,38.2032],[124.93236,38.19959],[124.93459,38.19459],[124.91209,38.19014],[124.90598,38.20153],[124.91319,38.20681],[124.91209,38.21486],[124.87875,38.21431],[124.88264,38.22237],[124.87131,38.22927],[124.87403,38.23986],[124.86875,38.24264],[124.79375,38.17987],[124.79986,38.17792],[124.81236,38.18792],[124.82848,38.18459],[124.81375,38.18431],[124.7932,38.16876],[124.78208,38.18126],[124.78764,38.18876],[124.77403,38.18625],[124.76209,38.16431],[124.72014,38.13681],[124.67208,38.14125],[124.65931,38.13959],[124.65014,38.13098],[124.66209,38.12098],[124.77014,38.09737],[124.82264,38.10903],[124.85042,38.10681],[124.88236,38.12514],[124.90431,38.12181],[124.94264,38.09459],[124.99069,38.07875],[125.00181,38.0707],[124.99903,38.06486],[125.00847,38.06625],[125.00875,38.07375],[125.01708,38.07737],[125.02875,38.07764],[125.04097,38.06792],[125.05681,38.07737],[125.08403,38.0782],[125.09986,38.08847],[125.12375,38.0932],[125.14848,38.08875],[125.17292,38.09708],[125.17514,38.08875],[125.1768,38.09431],[125.18597,38.08792],[125.20042,38.09264],[125.22125,38.08042],[125.2618,38.08376],[125.26458,38.07625],[125.25931,38.07292],[125.27597,38.06931],[125.25708,38.07264],[125.24153,38.06125],[125.24736,38.05347],[125.23097,38.05403],[125.23681,38.04181],[125.23236,38.0407],[125.2357,38.0307],[125.22986,38.02959],[125.23903,38.02209],[125.21709,38.02681],[125.21236,38.04403],[125.19514,38.04625],[125.20014,38.05459],[125.18459,38.05903],[125.14542,38.04931],[125.13736,38.05209],[125.12375,38.04403],[125.11208,38.05264],[125.1057,38.03986],[125.10931,38.03292],[125.10098,38.02292],[125.11708,38.00403],[125.11347,37.99014],[125.1357,37.99376],[125.13514,37.98292],[125.12736,37.97875],[125.1443,37.97736],[125.1368,37.9682],[125.08236,37.9632],[125.07819,37.98431],[125.05653,37.98514],[125.02458,37.96098],[125.01653,37.96125],[125.01458,37.9682],[125.00069,37.95987],[124.99264,37.9632],[124.9732,37.93098],[124.9857,37.92403],[125.00792,37.94514],[125.01431,37.93987],[125.00208,37.92348],[125.01041,37.91014],[125.03486,37.9007],[125.06375,37.90736],[125.07459,37.89986],[125.07125,37.89125],[125.08347,37.87959],[125.10514,37.87875],[125.13347,37.8682],[125.13931,37.88042],[125.15041,37.88598],[125.13625,37.88376],[125.14903,37.88987],[125.15292,37.88292],[125.14709,37.87348],[125.16042,37.86903],[125.1918,37.87514],[125.20181,37.8857],[125.20986,37.88459],[125.22903,37.89626],[125.22598,37.90237],[125.23736,37.90376],[125.23209,37.92348],[125.24875,37.93292],[125.23097,37.94764],[125.23847,37.94959],[125.24236,37.94098],[125.25764,37.9357],[125.24292,37.92208],[125.24097,37.90709],[125.28291,37.9007],[125.29875,37.88848],[125.28014,37.88431],[125.28153,37.87986],[125.30042,37.88153],[125.30986,37.87375],[125.2907,37.86764],[125.26125,37.83959],[125.23236,37.83292],[125.22598,37.81376],[125.23875,37.82153],[125.25708,37.81542],[125.26097,37.81931],[125.28764,37.80292],[125.25847,37.82764],[125.27486,37.82931],[125.27875,37.8232],[125.30959,37.83625],[125.30514,37.8207],[125.29125,37.81014],[125.30014,37.8007],[125.31931,37.80848],[125.33097,37.82737],[125.33847,37.8257],[125.33459,37.81653],[125.35264,37.8207],[125.35597,37.8457],[125.36459,37.84264],[125.36931,37.85515],[125.38431,37.85653],[125.38069,37.86237],[125.36764,37.86209],[125.37736,37.86959],[125.39291,37.85681],[125.42709,37.86014],[125.42042,37.8482],[125.43375,37.8432],[125.45097,37.8482],[125.45153,37.86625],[125.43764,37.87459],[125.43347,37.88598],[125.40208,37.88459],[125.42042,37.89626],[125.43486,37.89542],[125.44097,37.90125],[125.43986,37.91014],[125.4482,37.91486],[125.45959,37.88209],[125.49514,37.89348],[125.48792,37.88542],[125.50486,37.8807],[125.48264,37.87986],[125.45931,37.86681],[125.46903,37.86014],[125.48097,37.86126],[125.4743,37.84848],[125.49958,37.82681],[125.50958,37.82847],[125.51403,37.84237],[125.51153,37.83597],[125.51791,37.83625],[125.51097,37.8232],[125.49875,37.81653],[125.48319,37.82903],[125.45042,37.82987],[125.44681,37.83903],[125.40986,37.81403],[125.40041,37.82153],[125.39208,37.80181],[125.38153,37.80598],[125.39347,37.79153],[125.38319,37.79125],[125.37653,37.79876],[125.3607,37.7932],[125.35709,37.78014],[125.38764,37.78348],[125.37347,37.77764],[125.3718,37.76986],[125.38097,37.76542],[125.40153,37.76986],[125.4182,37.78153],[125.42597,37.77597],[125.41348,37.77625],[125.39986,37.7607],[125.37153,37.76209],[125.36625,37.7732],[125.35042,37.76542],[125.36264,37.75459],[125.33875,37.74847],[125.31264,37.71681],[125.33736,37.69875],[125.34125,37.6882],[125.33514,37.68237],[125.34181,37.67598],[125.35958,37.68459],[125.3482,37.69681],[125.35597,37.70598],[125.37042,37.70736],[125.35625,37.71347],[125.35625,37.71875],[125.37542,37.71681],[125.37403,37.72903],[125.38125,37.73126],[125.38236,37.72681],[125.39181,37.73514],[125.46875,37.72681],[125.48375,37.7407],[125.48319,37.75709],[125.49709,37.76848],[125.4932,37.77348],[125.49847,37.77709],[125.48847,37.78209],[125.49653,37.78598],[125.49958,37.79987],[125.5107,37.81042],[125.51514,37.80764],[125.5107,37.80375],[125.51209,37.78098],[125.52541,37.76986],[125.5482,37.76764],[125.54875,37.77709],[125.53514,37.77792],[125.55764,37.7982],[125.56597,37.7832],[125.58681,37.78736],[125.57987,37.77514],[125.56208,37.76986],[125.59986,37.76653],[125.60514,37.76042],[125.61736,37.76348],[125.60902,37.78125],[125.62264,37.80042],[125.6057,37.79987],[125.59875,37.81042],[125.63597,37.82069],[125.63347,37.82403],[125.64153,37.82903],[125.63931,37.83487],[125.63375,37.8257],[125.62569,37.82653],[125.62514,37.83459],[125.61792,37.83625],[125.62292,37.84625],[125.61486,37.85515],[125.63958,37.85736],[125.63625,37.87375],[125.62847,37.87986],[125.63208,37.88736],[125.64653,37.90097],[125.66292,37.8932],[125.69569,37.89709],[125.73292,37.92625],[125.73597,37.93876],[125.73097,37.94125],[125.72764,37.92764],[125.71709,37.9207],[125.71514,37.93098],[125.6918,37.91765],[125.70042,37.92792],[125.69458,37.93375],[125.70319,37.9407],[125.70348,37.95542],[125.72014,37.95848],[125.70986,37.96542],[125.71264,37.97125],[125.70069,37.97292],[125.70403,37.96486],[125.69431,37.96264],[125.68181,37.97681],[125.68847,37.9932],[125.67931,37.99292],[125.64542,37.96709],[125.63292,37.97209],[125.62681,37.98681],[125.61097,37.98486],[125.5968,37.99153],[125.58403,38.00903],[125.57653,38.00959],[125.57181,38.02403]]],[[[125.75931,37.83764],[125.74514,37.83348],[125.75542,37.83042],[125.75931,37.83764]]],[[[125.04736,37.83709],[125.01598,37.83792],[125.03125,37.82764],[125.02486,37.82042],[124.99958,37.82653],[125.00514,37.81709],[124.99236,37.81403],[124.99264,37.80598],[125.02209,37.80292],[125.03291,37.81959],[125.0407,37.81681],[125.04486,37.8218],[125.04181,37.82931],[125.04736,37.83709]]],[[[125.37431,37.84848],[125.36931,37.84876],[125.3707,37.8382],[125.38403,37.8432],[125.37431,37.84848]]],[[[125.34014,37.77181],[125.3057,37.75431],[125.2932,37.7582],[125.25042,37.74042],[125.2532,37.72959],[125.20986,37.69986],[125.22153,37.69236],[125.25403,37.7007],[125.26847,37.71598],[125.30597,37.73264],[125.3407,37.76486],[125.34014,37.77181]]],[[[125.2282,37.75764],[125.21042,37.75348],[125.22459,37.75208],[125.23486,37.73986],[125.24097,37.74264],[125.23486,37.74931],[125.24125,37.75237],[125.2282,37.75764]]],[[[125.09458,37.69125],[125.08459,37.68931],[125.08958,37.68848],[125.08875,37.67847],[125.09458,37.69125]]],[[[125.19041,37.82237],[125.13487,37.79959],[125.13292,37.79431],[125.1507,37.79265],[125.14237,37.77848],[125.18208,37.80264],[125.17819,37.80737],[125.18347,37.81292],[125.18819,37.80709],[125.20042,37.81125],[125.18986,37.81487],[125.19041,37.82237]]],[[[125.36903,37.82792],[125.36208,37.82737],[125.36042,37.81791],[125.33736,37.80125],[125.32625,37.7832],[125.3318,37.77987],[125.33097,37.78709],[125.35764,37.80709],[125.36014,37.81625],[125.37042,37.82208],[125.36903,37.82792]]],[[[125.41292,37.83875],[125.40653,37.8382],[125.40986,37.82792],[125.41292,37.83875]]],[[[124.95903,37.92931],[124.95319,37.91903],[124.96291,37.9157],[124.96597,37.92181],[124.95903,37.92931]]],[[[124.82403,38.0582],[124.82291,38.06208],[124.81264,38.05709],[124.81847,38.05264],[124.82403,38.0582]]],[[[124.93125,38.07653],[124.92847,38.08014],[124.9257,38.06959],[124.93125,38.07653]]],[[[124.81319,38.56625],[124.8093,38.56764],[124.81791,38.5565],[124.80347,38.54181],[124.77597,38.54181],[124.78375,38.53431],[124.78181,38.52098],[124.76264,38.52237],[124.77319,38.51542],[124.80125,38.5132],[124.78764,38.5232],[124.79625,38.53042],[124.7982,38.52375],[124.82125,38.52486],[124.86736,38.50042],[124.8718,38.50098],[124.86542,38.50542],[124.87542,38.50098],[124.87458,38.51459],[124.87736,38.50125],[124.89681,38.50542],[124.88597,38.52876],[124.87209,38.53459],[124.87542,38.54264],[124.85486,38.54237],[124.81319,38.56625]]],[[[124.97598,38.60181],[124.96681,38.60014],[124.97486,38.59653],[124.97598,38.60181]]],[[[125.05875,38.60098],[125.04292,38.60069],[125.04014,38.59292],[125.05875,38.60098]]],[[[124.99153,38.67598],[124.98681,38.66459],[124.99458,38.66375],[124.98458,38.65958],[124.9882,38.65403],[124.98236,38.64792],[124.99347,38.64403],[124.99486,38.64986],[124.99792,38.64459],[125.00542,38.64848],[124.99486,38.63597],[124.98653,38.6432],[124.97736,38.63486],[124.98264,38.63181],[124.97708,38.62653],[124.98153,38.62236],[125.00764,38.63459],[125.02292,38.66264],[125.0193,38.66681],[125.01764,38.65764],[124.99986,38.65653],[125.00403,38.66459],[124.99153,38.67598]]]]}},{"type":"Feature","properties":{"gid":"PRK.6_1","name":"开城特别行政区","nameEn":"Kaesŏng","nameLocal":"개성공업지구","type":"Special Administrative Region","typeEn":"Special Administrative Region","groupZh":"Special Administrative Region","area":1179.3,"iso":"NA","engtype":"Special Administrative Region","capital":"开城","pop":300000,"blurb":"靠近三八线，历史王都，开城工业园。"},"geometry":{"type":"Polygon","coordinates":[[[126.5173,37.93407],[126.50777,37.93341],[126.48183,37.95029],[126.48695,38.00477],[126.43911,38.02344],[126.38928,38.02106],[126.40587,37.99149],[126.39075,37.96937],[126.39384,37.95906],[126.38743,37.92856],[126.41969,37.91359],[126.41364,37.89316],[126.40097,37.88459],[126.42236,37.85375],[126.4557,37.84792],[126.46709,37.83487],[126.47125,37.81875],[126.50097,37.81875],[126.54208,37.79931],[126.54736,37.79542],[126.54375,37.78083],[126.57535,37.7627],[126.60282,37.7629],[126.63208,37.78094],[126.66262,37.7807],[126.69213,37.86851],[126.69008,37.89814],[126.69527,37.91129],[126.68287,37.94534],[126.68578,37.95237],[126.77802,37.96354],[126.85541,38.03209],[126.88202,38.09124],[126.9379,38.12697],[126.96641,38.13739],[126.97131,38.14639],[126.92939,38.1845],[126.92508,38.19868],[126.88911,38.20292],[126.87133,38.22879],[126.85351,38.21226],[126.82363,38.20078],[126.75417,38.20137],[126.71543,38.21928],[126.60811,38.21848],[126.62155,38.17342],[126.63805,38.1592],[126.63808,38.12848],[126.6078,38.0998],[126.57035,38.08543],[126.5554,38.05673],[126.56632,38.04321],[126.61147,38.04456],[126.61023,38.02601],[126.53248,37.9734],[126.5173,37.93407]]]}},{"type":"Feature","properties":{"gid":"PRK.7_1","name":"江原道","nameEn":"Kangwŏn-do","nameLocal":"강원도","type":"Province","typeEn":"Province","groupZh":"省","area":10268.1,"iso":"NA","engtype":"Province","capital":"元山","pop":1500000,"blurb":"东部山地与东海岸，元山度假与金刚山门户。"},"geometry":{"type":"MultiPolygon","coordinates":[[[[126.8714,38.24104],[126.87133,38.22879],[126.88657,38.20475],[126.9239,38.19962],[126.93822,38.17491],[126.96177,38.15927],[126.96941,38.19207],[127.01659,38.23742],[127.13235,38.30494],[127.16795,38.30177],[127.23874,38.32727],[127.27487,38.3229],[127.2995,38.31291],[127.40125,38.33114],[127.4353,38.31533],[127.45195,38.31661],[127.49892,38.29782],[127.58607,38.33311],[127.61362,38.32115],[127.65366,38.32455],[127.68185,38.31897],[127.70255,38.32993],[127.76379,38.3275],[127.78882,38.33878],[127.79734,38.32306],[127.82943,38.3008],[127.87837,38.31328],[127.92679,38.30938],[127.95822,38.30022],[127.9858,38.27348],[127.99176,38.27875],[128.00256,38.27551],[128.01597,38.28989],[128.01812,38.31173],[128.05237,38.30566],[128.04384,38.33929],[128.07794,38.37601],[128.07954,38.3874],[128.06923,38.39648],[128.03317,38.39871],[128.01355,38.42409],[127.99025,38.41565],[127.94278,38.41729],[127.93225,38.47856],[127.98466,38.54352],[127.995,38.57418],[127.97768,38.60015],[127.91357,38.60244],[127.87663,38.63638],[127.83416,38.65203],[127.80286,38.69463],[127.79276,38.72504],[127.79657,38.73586],[127.81805,38.75629],[127.85095,38.77171],[127.85728,38.78697],[127.90556,38.76006],[127.92828,38.76791],[127.9508,38.75897],[127.99012,38.76506],[128.00937,38.75547],[128.02223,38.73351],[128.0388,38.72205],[128.06827,38.73254],[128.09023,38.75823],[128.11188,38.75566],[128.14352,38.71368],[128.14713,38.69491],[128.1732,38.64283],[128.17297,38.52146],[128.16286,38.50223],[128.14743,38.49087],[128.14586,38.47334],[128.15538,38.46316],[128.18364,38.46008],[128.19853,38.44569],[128.21037,38.41969],[128.21008,38.37407],[128.20416,38.37086],[128.2114,38.36989],[128.23067,38.39412],[128.28918,38.43443],[128.31207,38.47272],[128.30966,38.48475],[128.32069,38.5109],[128.31511,38.58635],[128.3593,38.61215],[128.35625,38.62292],[128.36348,38.63792],[128.35513,38.64931],[128.35875,38.6607],[128.35265,38.67153],[128.35736,38.67153],[128.36292,38.68792],[128.34737,38.68653],[128.33653,38.69903],[128.32764,38.70014],[128.32181,38.7157],[128.31097,38.71098],[128.3107,38.70181],[128.30986,38.71209],[128.29625,38.72264],[128.29875,38.72681],[128.28514,38.72514],[128.27763,38.73237],[128.2843,38.73875],[128.27708,38.74264],[128.28291,38.75181],[128.2657,38.75903],[128.26125,38.75237],[128.26791,38.7385],[128.25487,38.73347],[128.21404,38.7357],[128.2032,38.72958],[128.20764,38.72014],[128.19403,38.71737],[128.18459,38.73653],[128.2043,38.74125],[128.20348,38.75347],[128.18987,38.74959],[128.17319,38.76264],[128.16875,38.77681],[128.14653,38.7857],[128.14237,38.7957],[128.13403,38.7982],[128.1407,38.80514],[128.12541,38.82126],[128.10709,38.82431],[128.09042,38.84181],[128.06847,38.84792],[128.06348,38.85653],[128.05237,38.8582],[128.05653,38.85236],[128.04764,38.84625],[128.00653,38.85709],[127.95236,38.9082],[127.9568,38.92598],[127.94209,38.92487],[127.93486,38.91681],[127.93681,38.92098],[127.9082,38.93709],[127.91292,38.93848],[127.89958,38.96014],[127.91236,38.96542],[127.89819,38.96792],[127.88847,38.95792],[127.87625,38.96014],[127.8718,38.96681],[127.88264,38.97625],[127.87542,38.98015],[127.8782,38.98403],[127.8557,38.9807],[127.84847,38.98959],[127.8557,38.99653],[127.84181,39.00486],[127.82736,39.02486],[127.81236,39.03598],[127.80042,39.03514],[127.80959,39.0407],[127.7618,39.1157],[127.75264,39.12181],[127.75347,39.13014],[127.74208,39.13264],[127.72459,39.11014],[127.69708,39.11653],[127.6843,39.10458],[127.66708,39.1032],[127.61792,39.14181],[127.60625,39.16014],[127.58903,39.14626],[127.55431,39.15348],[127.53902,39.14014],[127.52236,39.14348],[127.5193,39.13681],[127.52264,39.14598],[127.49181,39.16764],[127.47958,39.2007],[127.46653,39.19681],[127.47598,39.19653],[127.47014,39.19431],[127.47569,39.1632],[127.44625,39.15514],[127.44569,39.16598],[127.38264,39.20459],[127.36597,39.23153],[127.36459,39.2632],[127.37514,39.27542],[127.36403,39.28125],[127.37625,39.27848],[127.38319,39.29542],[127.40459,39.29876],[127.39098,39.30737],[127.40569,39.32236],[127.38736,39.33958],[127.39819,39.34098],[127.39848,39.34598],[127.40764,39.34153],[127.40569,39.33459],[127.4182,39.31931],[127.41153,39.31209],[127.43653,39.29987],[127.45486,39.31125],[127.44376,39.30875],[127.41764,39.32403],[127.45236,39.3382],[127.46514,39.32741],[127.4743,39.35153],[127.44486,39.37792],[127.43625,39.37487],[127.44125,39.36542],[127.42597,39.3532],[127.41903,39.3657],[127.40569,39.3632],[127.40459,39.35764],[127.39597,39.35959],[127.39792,39.35153],[127.3793,39.35903],[127.37986,39.36737],[127.36625,39.3757],[127.37292,39.38153],[127.37959,39.37348],[127.39291,39.37125],[127.39764,39.37875],[127.38208,39.38487],[127.40125,39.38264],[127.40764,39.3882],[127.40264,39.3907],[127.42069,39.40459],[127.41736,39.39598],[127.42486,39.38681],[127.43514,39.38458],[127.43542,39.39181],[127.44542,39.38792],[127.44875,39.39848],[127.45431,39.39709],[127.44849,39.40678],[127.43681,39.40931],[127.43708,39.4032],[127.4137,39.41089],[127.3784,39.39973],[127.3303,39.40852],[127.2809,39.40885],[127.26222,39.42428],[127.22885,39.40921],[127.13403,39.40807],[127.10486,39.37661],[127.10313,39.34589],[127.09091,39.32774],[127.09275,39.28981],[127.07413,39.2796],[127.04876,39.27728],[127.02098,39.25832],[127.0379,39.22115],[127.03251,39.20003],[127.0462,39.1931],[127.06651,39.16307],[127.05837,39.15047],[127.03954,39.14705],[126.99718,39.12531],[126.99104,39.08401],[126.98188,39.06797],[126.97377,39.06497],[126.97564,39.03625],[127.01905,38.99019],[127.01839,38.95269],[126.98459,38.91945],[126.96393,38.90843],[126.90455,38.90684],[126.89097,38.89902],[126.87148,38.87396],[126.88,38.81812],[126.86945,38.78548],[126.84003,38.73683],[126.81178,38.71739],[126.79422,38.68192],[126.77125,38.65873],[126.72452,38.65508],[126.694,38.64472],[126.6738,38.62794],[126.67818,38.61152],[126.71328,38.58168],[126.7126,38.55742],[126.70412,38.53743],[126.70443,38.49253],[126.75421,38.40196],[126.79034,38.35772],[126.81738,38.3468],[126.83683,38.32271],[126.85221,38.32278],[126.87468,38.34019],[126.88915,38.33737],[126.88821,38.31165],[126.86475,38.29505],[126.88707,38.26732],[126.8714,38.24104]]],[[[127.50236,39.21737],[127.50486,39.20959],[127.51236,39.21098],[127.50236,39.21737]]],[[[127.53208,39.22598],[127.51014,39.22098],[127.53291,39.21875],[127.53208,39.22598]]],[[[127.62791,39.23986],[127.62042,39.23903],[127.61597,39.23126],[127.62125,39.22653],[127.6132,39.2207],[127.63736,39.22348],[127.63792,39.23514],[127.6293,39.23403],[127.62791,39.23986]]],[[[128.1743,38.79625],[128.17098,38.79376],[128.17625,38.79125],[128.1743,38.79625]]],[[[128.18208,38.80292],[128.17708,38.80125],[128.18625,38.80014],[128.18208,38.80292]]],[[[127.6282,39.27514],[127.62264,39.27348],[127.62375,39.26681],[127.6282,39.27514]]]]}},{"type":"Feature","properties":{"gid":"PRK.8_1","name":"金刚山特别行政区","nameEn":"Kumgangsan","nameLocal":"금강산 관광 지구","type":"Special Administrative Region","typeEn":"Special Administrative Region","groupZh":"Special Administrative Region","area":988.0,"iso":"NA","engtype":"Special Administrative Region","capital":"金刚山","pop":30000,"blurb":"朝韩合作旅游特区，金刚山名胜。"},"geometry":{"type":"Polygon","coordinates":[[[128.05237,38.30566],[128.07831,38.30883],[128.11606,38.33099],[128.14517,38.33145],[128.21008,38.37407],[128.21037,38.41969],[128.19853,38.44569],[128.18219,38.46074],[128.15393,38.46384],[128.14522,38.47655],[128.14743,38.49087],[128.16286,38.50223],[128.17297,38.52146],[128.1721,38.64734],[128.14713,38.69491],[128.14352,38.71368],[128.10796,38.75831],[128.08878,38.75751],[128.06827,38.73254],[128.0388,38.72205],[128.02223,38.73351],[128.00937,38.75547],[127.99012,38.76506],[127.9508,38.75897],[127.92828,38.76791],[127.90556,38.76006],[127.85728,38.78697],[127.85095,38.77171],[127.81805,38.75629],[127.79397,38.73218],[127.80286,38.69463],[127.833,38.653],[127.87663,38.63638],[127.91219,38.60311],[127.97324,38.60124],[127.98579,38.59271],[127.99493,38.56323],[127.93225,38.47856],[127.94096,38.42101],[127.94781,38.41523],[127.98714,38.41542],[128.01355,38.42409],[128.03317,38.39871],[128.07645,38.39202],[128.07875,38.37729],[128.04384,38.33929],[128.05237,38.30566]]]}},{"type":"Feature","properties":{"gid":"PRK.9_1","name":"平安北道","nameEn":"P'yŏngan-bukto","nameLocal":"평안북도","type":"Province","typeEn":"Province","groupZh":"省","area":12386.2,"iso":"NA","engtype":"Province","capital":"新义州","pop":2700000,"blurb":"西北边境，新义州口岸与鸭绿江大桥。"},"geometry":{"type":"MultiPolygon","coordinates":[[[[124.73014,39.42125],[124.71375,39.41737],[124.71347,39.40875],[124.73236,39.41459],[124.73014,39.42125]]],[[[124.77292,39.46653],[124.76708,39.46487],[124.77125,39.46236],[124.76737,39.4557],[124.77236,39.45458],[124.76514,39.44792],[124.79125,39.45876],[124.77292,39.46653]]],[[[124.70986,39.53709],[124.69153,39.53348],[124.67958,39.52181],[124.6843,39.51487],[124.67931,39.5057],[124.68625,39.49847],[124.70348,39.50542],[124.70292,39.51348],[124.71069,39.51931],[124.70292,39.52903],[124.71264,39.53431],[124.70986,39.53709]]],[[[124.8093,39.52097],[124.79708,39.51709],[124.80736,39.51514],[124.8093,39.52097]]],[[[124.73764,39.5582],[124.72847,39.55709],[124.72903,39.54653],[124.74125,39.55375],[124.73764,39.5582]]],[[[124.61097,39.45709],[124.58764,39.44264],[124.5957,39.43848],[124.5968,39.42931],[124.61847,39.43264],[124.61097,39.45709]]],[[[124.60431,39.46931],[124.60098,39.46598],[124.60653,39.46375],[124.60431,39.46931]]],[[[124.6218,39.47625],[124.61153,39.46514],[124.62791,39.46098],[124.6218,39.47625]]],[[[124.62514,39.4957],[124.61764,39.49681],[124.61208,39.48764],[124.62458,39.48848],[124.62514,39.4957]]],[[[124.67347,39.57542],[124.66402,39.57098],[124.67042,39.5632],[124.64597,39.5707],[124.63431,39.55931],[124.63042,39.56875],[124.62042,39.56597],[124.62153,39.55681],[124.59375,39.5457],[124.59125,39.5332],[124.60931,39.54931],[124.6357,39.53764],[124.63931,39.55459],[124.65041,39.54903],[124.64875,39.53986],[124.67208,39.53598],[124.69959,39.56431],[124.67347,39.57542]]],[[[124.54153,39.61459],[124.53736,39.61542],[124.54153,39.61126],[124.54847,39.61542],[124.54153,39.61459]]],[[[124.42458,39.6857],[124.41736,39.68486],[124.43236,39.68347],[124.42458,39.6857]]],[[[124.88958,39.61653],[124.86931,39.60931],[124.88597,39.60653],[124.88236,39.59903],[124.86625,39.59403],[124.87375,39.59209],[124.87347,39.58014],[124.85403,39.57348],[124.8482,39.5632],[124.83653,39.56709],[124.82153,39.55459],[124.82597,39.55014],[124.84792,39.55931],[124.86042,39.54959],[124.84264,39.54237],[124.84236,39.53598],[124.85625,39.53209],[124.85709,39.52514],[124.85042,39.52403],[124.85486,39.52042],[124.84486,39.5132],[124.83986,39.52042],[124.83292,39.51903],[124.82764,39.50209],[124.81736,39.50042],[124.81792,39.49292],[124.83681,39.50459],[124.84181,39.50542],[124.84375,39.49847],[124.85819,39.50403],[124.87319,39.51403],[124.87514,39.5232],[124.88764,39.52292],[124.88319,39.52597],[124.8943,39.52903],[124.89153,39.53431],[124.90347,39.53403],[124.90791,39.54042],[124.90014,39.54153],[124.90292,39.54459],[124.92181,39.54098],[124.93514,39.55153],[124.9343,39.55986],[124.91097,39.55903],[124.92152,39.56514],[124.91319,39.56931],[124.91847,39.57459],[124.90708,39.57959],[124.91875,39.58542],[124.90542,39.58681],[124.90847,39.59959],[124.9268,39.59709],[124.92958,39.60292],[124.92375,39.60875],[124.90598,39.60931],[124.91042,39.61459],[124.90403,39.61709],[124.88958,39.61653]]],[[[124.75653,39.62431],[124.75042,39.62514],[124.75153,39.61597],[124.75819,39.61737],[124.75653,39.62431]]],[[[124.76292,39.63959],[124.74764,39.63625],[124.7618,39.63181],[124.76708,39.63681],[124.76292,39.63959]]],[[[124.77348,39.64348],[124.77014,39.63959],[124.77458,39.63681],[124.77348,39.64348]]],[[[124.83847,39.64626],[124.82014,39.64431],[124.83014,39.6382],[124.83875,39.63987],[124.83847,39.64626]]],[[[124.45181,39.68737],[124.44764,39.68403],[124.45625,39.6832],[124.45181,39.68737]]],[[[124.73097,39.77042],[124.74236,39.76986],[124.74208,39.78236],[124.75014,39.77459],[124.76986,39.79764],[124.75514,39.77764],[124.75375,39.7718],[124.76014,39.77125],[124.75236,39.76598],[124.75764,39.74986],[124.77097,39.73653],[124.77708,39.73708],[124.77653,39.74431],[124.79125,39.74431],[124.80209,39.7207],[124.82264,39.72542],[124.85042,39.71292],[124.85709,39.70264],[124.8857,39.70792],[124.89986,39.67709],[124.89459,39.66097],[124.906,39.65186],[124.90236,39.63181],[124.89736,39.63376],[124.8932,39.62709],[124.90125,39.61931],[124.90764,39.6232],[124.9032,39.63209],[124.91402,39.65598],[124.93792,39.6432],[124.94236,39.65014],[124.94791,39.64819],[124.93958,39.65848],[124.94681,39.67875],[124.95458,39.67736],[124.95931,39.66348],[124.97153,39.65542],[124.96542,39.63931],[124.97403,39.63681],[124.97347,39.63042],[124.97875,39.64237],[124.99764,39.63709],[125.02319,39.65764],[125.01569,39.64375],[125.02125,39.62986],[125.03458,39.62931],[125.0368,39.62042],[125.04403,39.62986],[125.06347,39.62709],[125.05209,39.59264],[125.05764,39.56931],[125.08791,39.56514],[125.09042,39.56042],[125.12264,39.57348],[125.14069,39.56597],[125.16653,39.57959],[125.17431,39.57348],[125.18453,39.57624],[125.18292,39.58792],[125.15681,39.60792],[125.19431,39.59459],[125.20875,39.6057],[125.20736,39.6107],[125.21514,39.61347],[125.21986,39.60736],[125.23236,39.62959],[125.22736,39.64181],[125.24764,39.63097],[125.23236,39.62181],[125.21848,39.57903],[125.2307,39.57931],[125.25153,39.56514],[125.27264,39.52126],[125.28986,39.52181],[125.31375,39.52903],[125.34514,39.55375],[125.38042,39.55875],[125.40375,39.58042],[125.43264,39.59181],[125.44569,39.5932],[125.45514,39.58292],[125.45208,39.57402],[125.50067,39.57532],[125.53432,39.59243],[125.56423,39.59327],[125.64413,39.63854],[125.66016,39.6309],[125.6961,39.63118],[125.75138,39.65796],[125.77354,39.6599],[125.79994,39.68355],[125.81855,39.68867],[125.8466,39.71591],[125.85645,39.72675],[125.85969,39.74935],[125.87759,39.7457],[125.90364,39.75302],[125.94151,39.78878],[125.95814,39.79083],[125.97147,39.81918],[126.00294,39.83189],[126.00775,39.85334],[126.0162,39.86222],[126.02769,39.86061],[126.063,39.82732],[126.08304,39.81758],[126.10381,39.81701],[126.16828,39.8349],[126.25719,39.84616],[126.31409,39.88055],[126.34709,39.88262],[126.36935,39.89131],[126.36939,39.92188],[126.33929,39.95823],[126.34677,40.01543],[126.33306,40.02871],[126.28916,40.0312],[126.26975,40.03974],[126.21633,40.04015],[126.18266,40.05117],[126.1324,40.08162],[126.07479,40.13851],[126.04083,40.15463],[125.96957,40.22137],[125.93944,40.21609],[125.921,40.23393],[125.87868,40.23478],[125.81327,40.21679],[125.75499,40.25174],[125.68042,40.28291],[125.62235,40.32135],[125.61591,40.34118],[125.63379,40.35916],[125.6297,40.37677],[125.58312,40.3932],[125.57901,40.40038],[125.57922,40.4337],[125.58904,40.47401],[125.61555,40.5163],[125.59886,40.54156],[125.59163,40.57449],[125.54222,40.57006],[125.5109,40.60482],[125.42811,40.64201],[125.41807,40.6434],[125.42232,40.62756],[125.40247,40.62334],[125.36338,40.64799],[125.32932,40.63387],[125.30636,40.64687],[125.27364,40.65113],[125.2535,40.61402],[125.23917,40.60717],[125.17338,40.60494],[125.05399,40.54295],[125.01409,40.53265],[124.99816,40.50092],[125.00605,40.49353],[125.04631,40.48243],[125.04292,40.46184],[125.03464,40.45683],[124.97394,40.46313],[124.92208,40.44961],[124.89724,40.47795],[124.83567,40.41084],[124.74256,40.37003],[124.73405,40.35571],[124.73307,40.3206],[124.67298,40.29573],[124.62408,40.28409],[124.57319,40.24664],[124.53508,40.23273],[124.50664,40.20719],[124.4968,40.18589],[124.44802,40.15591],[124.47552,40.10899],[124.43587,40.08442],[124.43531,40.06963],[124.44342,40.05237],[124.43288,40.01292],[124.36472,40.01192],[124.36431,40.0],[124.34039,39.98122],[124.29024,39.96243],[124.28029,39.95041],[124.28876,39.94027],[124.28243,39.93255],[124.24586,39.92781],[124.22064,39.91486],[124.22153,39.90376],[124.2132,39.89348],[124.21819,39.8857],[124.21514,39.84264],[124.18236,39.81764],[124.18459,39.80236],[124.19681,39.80347],[124.22542,39.79098],[124.25819,39.80931],[124.25875,39.82264],[124.27236,39.83292],[124.26847,39.8732],[124.2868,39.92792],[124.31014,39.94764],[124.33986,39.95986],[124.35291,39.98486],[124.36202,39.98431],[124.36236,39.96347],[124.32514,39.93237],[124.31097,39.90403],[124.32875,39.88736],[124.37347,39.88486],[124.38792,39.87626],[124.41125,39.83125],[124.40875,39.80626],[124.41597,39.80014],[124.41431,39.79181],[124.42125,39.79542],[124.44764,39.77375],[124.46625,39.78153],[124.49709,39.76625],[124.53848,39.73237],[124.51875,39.71514],[124.54264,39.72709],[124.5557,39.71986],[124.58153,39.72764],[124.61514,39.70848],[124.61736,39.69014],[124.63319,39.70014],[124.64569,39.69542],[124.64486,39.67236],[124.63042,39.66625],[124.62791,39.64375],[124.60875,39.62875],[124.61514,39.61486],[124.62653,39.61653],[124.62986,39.6107],[124.62875,39.60042],[124.62209,39.60348],[124.61181,39.59459],[124.6293,39.59375],[124.63514,39.58653],[124.64459,39.59209],[124.63792,39.60931],[124.64653,39.6057],[124.65264,39.61681],[124.67403,39.61737],[124.67819,39.63125],[124.6832,39.62264],[124.69986,39.64431],[124.70487,39.63931],[124.7157,39.6468],[124.72875,39.6407],[124.74986,39.64626],[124.73764,39.64626],[124.72875,39.66681],[124.74736,39.67014],[124.74986,39.6782],[124.75569,39.67181],[124.75708,39.68542],[124.7682,39.68431],[124.76125,39.68737],[124.76375,39.69153],[124.75264,39.68709],[124.74181,39.69458],[124.73125,39.69181],[124.74208,39.70236],[124.75014,39.70209],[124.74705,39.71014],[124.74042,39.71014],[124.75014,39.72931],[124.76403,39.7307],[124.75819,39.73098],[124.74042,39.76709],[124.72569,39.76875],[124.73097,39.77042]]],[[[124.28181,39.86181],[124.28819,39.84431],[124.29958,39.8382],[124.30264,39.85348],[124.28181,39.86181]]],[[[124.29931,39.88348],[124.28931,39.88042],[124.28208,39.86597],[124.3082,39.85348],[124.31486,39.86848],[124.29931,39.88348]]],[[[124.30792,39.88348],[124.30486,39.87931],[124.31931,39.87542],[124.30792,39.88348]]],[[[124.28902,39.89709],[124.27986,39.89125],[124.28014,39.88264],[124.29459,39.88986],[124.28902,39.89709]]],[[[125.11486,39.52597],[125.1068,39.52514],[125.1068,39.51959],[125.11486,39.52597]]],[[[125.15625,39.53681],[125.15847,39.54125],[125.13931,39.54042],[125.12597,39.53125],[125.14098,39.52237],[125.14653,39.53681],[125.15625,39.53681]]],[[[125.15958,39.5557],[125.13097,39.55292],[125.15264,39.5432],[125.1593,39.54459],[125.15403,39.5507],[125.15958,39.5557]]],[[[125.20069,39.53125],[125.19347,39.5332],[125.19014,39.52681],[125.20153,39.51875],[125.21403,39.52264],[125.20069,39.53125]]],[[[125.21264,39.53042],[125.21042,39.53403],[125.20736,39.52903],[125.21264,39.53042]]],[[[124.33014,39.95125],[124.30486,39.93848],[124.3057,39.93153],[124.32931,39.93792],[124.33014,39.95125]]]]}},{"type":"Feature","properties":{"gid":"PRK.10_1","name":"平安南道","nameEn":"P'yŏngan-namdo","nameLocal":"평안남도","type":"Province","typeEn":"Province","groupZh":"省","area":12449.1,"iso":"NA","engtype":"Province","capital":"平城","pop":4200000,"blurb":"平壤外围工业省，平城为卫星城。"},"geometry":{"type":"Polygon","coordinates":[[[125.59812,38.71289],[125.58793,38.73873],[125.57037,38.76114],[125.57864,38.78517],[125.56631,38.8024],[125.54667,38.80355],[125.53336,38.81594],[125.52374,38.8336],[125.52284,38.85945],[125.57025,38.87072],[125.59595,38.9007],[125.59806,38.92905],[125.61179,38.94288],[125.57671,39.00651],[125.57944,39.06186],[125.60323,39.0879],[125.66175,39.12349],[125.65664,39.13478],[125.63497,39.14235],[125.64345,39.18144],[125.61776,39.22075],[125.61768,39.23225],[125.63357,39.2478],[125.66184,39.25113],[125.68024,39.26619],[125.71093,39.2767],[125.74109,39.27737],[125.76472,39.2684],[125.79441,39.22393],[125.82464,39.22273],[125.85403,39.18478],[125.8662,39.18764],[125.88155,39.22532],[125.89691,39.23052],[125.9409,39.22998],[125.96329,39.21823],[125.97713,39.19853],[125.99944,39.21191],[126.02982,39.21353],[126.03967,39.2316],[126.05581,39.23138],[126.07885,39.22024],[126.09123,39.18549],[126.09991,39.17694],[126.13309,39.18483],[126.16672,39.15802],[126.23601,39.15598],[126.24986,39.1433],[126.23943,39.1168],[126.24017,39.10204],[126.26891,39.06638],[126.28902,39.05562],[126.3404,39.05225],[126.35351,39.01588],[126.38654,38.98037],[126.38584,38.9296],[126.45229,38.91438],[126.49115,38.89449],[126.49957,38.94495],[126.48151,38.97374],[126.48382,38.99857],[126.51603,38.9987],[126.54655,38.98255],[126.61586,38.96272],[126.65752,38.97746],[126.65562,39.00059],[126.64022,39.01196],[126.61652,39.05866],[126.58696,39.07982],[126.5573,39.12879],[126.55525,39.14825],[126.56874,39.1699],[126.59328,39.16489],[126.61808,39.13904],[126.68649,39.13908],[126.70763,39.14785],[126.72996,39.14757],[126.77121,39.12137],[126.81514,39.1192],[126.89858,39.06707],[126.93062,39.05612],[126.98188,39.06797],[126.99152,39.08549],[126.99611,39.12416],[127.03954,39.14705],[127.05972,39.15129],[127.06615,39.15995],[127.06467,39.17175],[127.04524,39.19389],[127.00893,39.21275],[126.92491,39.21605],[126.91866,39.23045],[126.93565,39.25624],[126.90822,39.28668],[126.88283,39.28709],[126.85167,39.26882],[126.84464,39.27228],[126.83239,39.30449],[126.81373,39.31484],[126.77125,39.3148],[126.74229,39.29678],[126.7247,39.29783],[126.7093,39.30672],[126.69566,39.33619],[126.69525,39.35849],[126.74135,39.46702],[126.73015,39.48082],[126.71017,39.48665],[126.69913,39.50568],[126.67907,39.51789],[126.66781,39.54053],[126.66692,39.56639],[126.68258,39.56777],[126.71227,39.5948],[126.71332,39.62487],[126.70457,39.64408],[126.70527,39.65884],[126.75963,39.70848],[126.75557,39.71495],[126.73407,39.71578],[126.72382,39.72282],[126.72346,39.75027],[126.7572,39.77795],[126.7614,39.80745],[126.7857,39.84238],[126.84891,39.86409],[126.94698,39.86391],[126.97734,39.85081],[126.99551,39.82802],[127.01043,39.82632],[127.04108,39.84453],[127.0898,39.84696],[127.10838,39.8626],[127.11264,39.90844],[127.06908,39.9654],[127.05767,40.01627],[127.08369,40.03028],[127.08591,40.06488],[127.09449,40.07805],[127.10461,40.08573],[127.11781,40.08525],[127.17556,40.12521],[127.17901,40.14007],[127.16837,40.17075],[127.11467,40.18318],[127.10389,40.22128],[127.11337,40.26761],[127.10217,40.28939],[127.07934,40.30191],[127.05551,40.32765],[127.01168,40.33772],[126.90886,40.33766],[126.89474,40.29596],[126.86024,40.279],[126.82629,40.25106],[126.81006,40.20179],[126.77284,40.1976],[126.74505,40.18745],[126.69581,40.14437],[126.65973,40.14154],[126.63989,40.12593],[126.60111,40.11243],[126.56596,40.0836],[126.56162,40.04124],[126.5317,40.03111],[126.48153,40.0294],[126.46569,40.0066],[126.43858,39.99384],[126.40069,39.99408],[126.34677,40.01543],[126.33929,39.95823],[126.36812,39.92796],[126.36935,39.89131],[126.34709,39.88262],[126.31409,39.88055],[126.25565,39.84562],[126.16828,39.8349],[126.10064,39.81665],[126.08304,39.81758],[126.06163,39.82806],[126.02769,39.86061],[126.0162,39.86222],[126.00775,39.85334],[126.00294,39.83189],[125.97147,39.81918],[125.95814,39.79083],[125.94151,39.78878],[125.90364,39.75302],[125.87759,39.7457],[125.85969,39.74935],[125.85645,39.72675],[125.8466,39.71591],[125.81855,39.68867],[125.79994,39.68355],[125.77496,39.66059],[125.75138,39.65796],[125.6961,39.63118],[125.66016,39.6309],[125.64413,39.63854],[125.56423,39.59327],[125.53432,39.59243],[125.50227,39.5757],[125.45588,39.57463],[125.44736,39.56959],[125.43403,39.57653],[125.42347,39.57153],[125.42291,39.55427],[125.40708,39.54959],[125.39069,39.4982],[125.36125,39.48236],[125.33542,39.45514],[125.35208,39.42987],[125.38236,39.44986],[125.38181,39.44125],[125.3718,39.44153],[125.36236,39.42792],[125.34792,39.42348],[125.36903,39.37737],[125.37986,39.37708],[125.38319,39.3907],[125.39542,39.39459],[125.41402,39.39209],[125.42181,39.38403],[125.41875,39.37626],[125.39875,39.38097],[125.39986,39.37153],[125.41875,39.3732],[125.40014,39.3682],[125.40208,39.35514],[125.4107,39.35598],[125.39764,39.33958],[125.40429,39.33593],[125.39986,39.31903],[125.41153,39.31736],[125.41681,39.30709],[125.45097,39.32292],[125.4568,39.31792],[125.4007,39.28986],[125.39875,39.27403],[125.40986,39.27126],[125.38375,39.2482],[125.39098,39.22514],[125.37264,39.23681],[125.34014,39.21764],[125.35042,39.20459],[125.36792,39.19792],[125.3532,39.19875],[125.33681,39.20959],[125.3243,39.19708],[125.33347,39.19125],[125.3168,39.18792],[125.32042,39.17598],[125.30903,39.1732],[125.30625,39.1782],[125.30125,39.16403],[125.2932,39.16264],[125.29542,39.14626],[125.27875,39.08903],[125.28764,39.08292],[125.26625,39.08292],[125.25625,39.05459],[125.20819,38.99903],[125.20125,38.99875],[125.19236,38.97848],[125.20264,38.9757],[125.17125,38.93681],[125.15986,38.9032],[125.14098,38.87792],[125.14014,38.86209],[125.14819,38.85236],[125.13319,38.81125],[125.14653,38.7857],[125.11986,38.75625],[125.13819,38.74625],[125.12042,38.75792],[125.14069,38.77903],[125.16209,38.78209],[125.18625,38.77459],[125.19403,38.78014],[125.19209,38.77125],[125.19542,38.77514],[125.20236,38.75126],[125.21458,38.73903],[125.22598,38.74042],[125.22292,38.74959],[125.23097,38.74847],[125.21903,38.75292],[125.23264,38.76709],[125.23125,38.78459],[125.21403,38.81153],[125.23042,38.8032],[125.2382,38.81597],[125.22986,38.79292],[125.23764,38.78764],[125.24431,38.79709],[125.23792,38.78125],[125.24097,38.77375],[125.25569,38.78764],[125.24181,38.77209],[125.24458,38.7657],[125.24931,38.76764],[125.24819,38.76069],[125.22681,38.7368],[125.2345,38.72916],[125.22853,38.71846],[125.28136,38.68414],[125.29304,38.68592],[125.31823,38.71448],[125.3907,38.71152],[125.44189,38.74255],[125.48562,38.71078],[125.49955,38.71932],[125.51698,38.72],[125.55714,38.70044],[125.59235,38.65581],[125.63035,38.65792],[125.6144,38.69802],[125.59812,38.71289]]]}},{"type":"Feature","properties":{"gid":"PRK.11_1","name":"平壤直辖市","nameEn":"P'yŏngyang","nameLocal":"평양직할시","type":"Special City","typeEn":"Special City","groupZh":"特别市","area":2714.4,"iso":"NA","engtype":"Special City","capital":"平壤","pop":3200000,"blurb":"首都，主体思想塔与大同江畔的规划都市。"},"geometry":{"type":"Polygon","coordinates":[[[125.65443,38.8212],[125.70485,38.84067],[125.79975,38.84009],[125.87681,38.80543],[125.89928,38.80347],[125.92489,38.79192],[125.93785,38.76945],[125.93256,38.75161],[125.94035,38.74071],[125.96868,38.73764],[126.0085,38.71213],[126.0487,38.70225],[126.07734,38.70255],[126.11502,38.71257],[126.15579,38.75652],[126.19712,38.75314],[126.21998,38.77987],[126.21986,38.81938],[126.20737,38.84467],[126.17596,38.87573],[126.13377,38.89124],[126.12003,38.91491],[126.11712,38.95355],[126.13053,38.97525],[126.14093,38.97985],[126.15116,38.96967],[126.16673,38.97134],[126.1861,38.98879],[126.20593,38.98986],[126.25437,38.97006],[126.27654,38.95437],[126.30228,38.96106],[126.38584,38.9296],[126.38742,38.97733],[126.35351,39.01588],[126.33952,39.05321],[126.28902,39.05562],[126.26891,39.06638],[126.24017,39.10204],[126.23943,39.1168],[126.24986,39.1433],[126.23601,39.15598],[126.16672,39.15802],[126.13309,39.18483],[126.09991,39.17694],[126.09123,39.18549],[126.07885,39.22024],[126.05581,39.23138],[126.03967,39.2316],[126.02982,39.21353],[125.99944,39.21191],[125.97713,39.19853],[125.96329,39.21823],[125.9409,39.22998],[125.89691,39.23052],[125.88155,39.22532],[125.8662,39.18764],[125.85403,39.18478],[125.82464,39.22273],[125.79441,39.22393],[125.76472,39.2684],[125.74109,39.27737],[125.71243,39.27707],[125.68024,39.26619],[125.66184,39.25113],[125.63357,39.2478],[125.61768,39.23225],[125.61776,39.22075],[125.64345,39.18144],[125.63497,39.14235],[125.65664,39.13478],[125.66175,39.12349],[125.60323,39.0879],[125.57944,39.06186],[125.57671,39.00651],[125.61179,38.94288],[125.59806,38.92905],[125.59595,38.9007],[125.57025,38.87072],[125.52284,38.85945],[125.52374,38.8336],[125.53336,38.81594],[125.54667,38.80355],[125.56631,38.8024],[125.57864,38.78517],[125.60599,38.78657],[125.65443,38.8212]]]}},{"type":"Feature","properties":{"gid":"PRK.12_1","name":"罗先直辖市","nameEn":"Rasŏn","nameLocal":"라선 직할시","type":"Directly Governed City","typeEn":"Directly Governed City","groupZh":"Directly Governed City","area":851.3,"iso":"NA","engtype":"Directly Governed City","capital":"罗先","pop":2000000,"blurb":"东北图们江口经济特区，三国交界。"},"geometry":{"type":"MultiPolygon","coordinates":[[[[130.2782,42.17542],[130.25931,42.16237],[130.27625,42.14514],[130.28653,42.15875],[130.2782,42.17542]]],[[[130.28764,42.19487],[130.28375,42.18431],[130.29125,42.18792],[130.28764,42.19487]]],[[[130.39986,42.29764],[130.40459,42.2907],[130.41069,42.29209],[130.39986,42.29764]]],[[[130.19954,42.18512],[130.2132,42.17653],[130.23125,42.17987],[130.2307,42.18848],[130.24764,42.20375],[130.28542,42.22209],[130.28569,42.23181],[130.30098,42.24097],[130.3132,42.2332],[130.31569,42.20709],[130.30653,42.18348],[130.3132,42.17987],[130.31487,42.18875],[130.33098,42.18903],[130.32903,42.20292],[130.32347,42.20459],[130.32959,42.21598],[130.35458,42.22098],[130.35458,42.23431],[130.37013,42.23015],[130.36014,42.24542],[130.36931,42.26098],[130.38431,42.26153],[130.3882,42.25209],[130.39626,42.25542],[130.4032,42.24987],[130.40015,42.27264],[130.39542,42.27848],[130.38458,42.27709],[130.38126,42.28459],[130.38292,42.29598],[130.40459,42.30764],[130.39847,42.31597],[130.40097,42.32208],[130.38208,42.33153],[130.37181,42.3288],[130.36708,42.33153],[130.36958,42.33903],[130.3882,42.32903],[130.40015,42.33514],[130.42152,42.32208],[130.4382,42.31959],[130.45042,42.30764],[130.45042,42.31709],[130.46736,42.32292],[130.46069,42.32709],[130.46347,42.34153],[130.46736,42.33431],[130.4782,42.33987],[130.51152,42.33764],[130.52486,42.3207],[130.58347,42.31514],[130.59209,42.30764],[130.58875,42.3007],[130.60848,42.2857],[130.60513,42.27542],[130.58792,42.27264],[130.58765,42.25931],[130.60959,42.26408],[130.61237,42.27459],[130.62903,42.27542],[130.63319,42.26847],[130.63875,42.27653],[130.6743,42.28431],[130.66234,42.29553],[130.66495,42.30717],[130.64613,42.33892],[130.64504,42.3483],[130.66002,42.36755],[130.64787,42.39799],[130.62346,42.42165],[130.56667,42.43316],[130.56389,42.43842],[130.56984,42.47691],[130.5509,42.49004],[130.54219,42.52106],[130.52531,42.54165],[130.51451,42.57452],[130.52342,42.60012],[130.51651,42.60904],[130.4747,42.61355],[130.46706,42.6073],[130.46448,42.58635],[130.47685,42.56607],[130.47023,42.5496],[130.45703,42.54457],[130.43382,42.54768],[130.39758,42.49754],[130.34052,42.46927],[130.29044,42.45434],[130.28534,42.43538],[130.29948,42.4046],[130.23256,42.33187],[130.17691,42.31282],[130.16469,42.26727],[130.16457,42.24256],[130.1731,42.22968],[130.17555,42.19737],[130.19954,42.18512]]]]}},{"type":"Feature","properties":{"gid":"PRK.13_1","name":"两江道","nameEn":"Ryanggang","nameLocal":"량강도","type":"Province","typeEn":"Province","groupZh":"省","area":13898.6,"iso":"NA","engtype":"Province","capital":"惠山","pop":700000,"blurb":"北部白头山（将军峰）所在，林矿与水电。"},"geometry":{"type":"Polygon","coordinates":[[[128.29514,40.66204],[128.33934,40.69115],[128.36099,40.75632],[128.38652,40.77599],[128.38914,40.80278],[128.4059,40.83467],[128.40289,40.86081],[128.44228,40.90609],[128.4431,40.95776],[128.42908,40.98063],[128.43829,40.99799],[128.45985,41.00772],[128.57063,41.00925],[128.58115,41.02333],[128.60049,41.02954],[128.6223,41.07079],[128.66464,41.08434],[128.67812,41.12952],[128.70998,41.1622],[128.74295,41.17406],[128.78917,41.1657],[128.81662,41.17484],[128.84938,41.17471],[128.95453,41.12757],[128.99231,41.10109],[129.00899,41.11878],[129.01071,41.14245],[128.99289,41.18834],[128.99261,41.2092],[129.03847,41.27445],[129.00435,41.31274],[128.99963,41.3341],[128.97522,41.37108],[128.96477,41.4033],[128.96443,41.44759],[129.00183,41.49158],[129.02473,41.5053],[129.05388,41.53436],[129.05716,41.56972],[129.01181,41.61926],[128.98869,41.63007],[128.94791,41.63141],[128.92934,41.64137],[128.92914,41.6505],[128.95239,41.67464],[128.95552,41.68715],[128.92772,41.72723],[128.9269,41.82113],[128.87354,41.82766],[128.86775,41.85702],[128.8459,41.87423],[128.84026,41.89199],[128.80629,41.92024],[128.85248,41.92797],[128.8692,41.91414],[128.88493,41.91344],[128.90175,41.97194],[128.95457,41.98527],[128.97989,41.99995],[128.99448,42.028],[129.0188,42.05212],[129.02411,42.09752],[128.95517,42.07562],[128.9604,42.03947],[128.94513,42.01748],[128.9274,42.01517],[128.86238,42.01754],[128.83118,42.02282],[128.81337,42.03635],[128.77068,42.03348],[128.74355,42.04289],[128.71571,42.03098],[128.69112,42.01065],[128.66768,42.00976],[128.64374,42.03091],[128.62933,42.03484],[128.56497,41.99533],[128.48964,41.99718],[128.47118,41.99968],[128.46391,42.01635],[128.44273,42.0239],[128.31267,42.03677],[128.1395,42.0059],[128.13812,41.98967],[128.12453,41.98379],[128.08101,41.98581],[128.06944,41.9782],[128.06403,41.96542],[128.06676,41.94574],[128.07846,41.92891],[128.09886,41.85955],[128.0864,41.81453],[128.13005,41.76363],[128.14413,41.72387],[128.21394,41.67497],[128.24397,41.67027],[128.2973,41.63394],[128.29944,41.61948],[128.28914,41.61308],[128.30746,41.60213],[128.30606,41.59257],[128.31381,41.58303],[128.30807,41.56908],[128.29419,41.56601],[128.28583,41.53252],[128.26836,41.50925],[128.23302,41.48728],[128.23886,41.47278],[128.22861,41.45561],[128.23518,41.44292],[128.22684,41.44514],[128.20979,41.43034],[128.20203,41.4096],[128.16974,41.40168],[128.14259,41.37816],[128.12053,41.37595],[128.10857,41.3632],[128.08539,41.36998],[128.10461,41.38997],[128.08171,41.38894],[128.07921,41.37645],[128.05721,41.3905],[128.03757,41.3884],[128.03868,41.41036],[128.01254,41.4106],[128.01118,41.42052],[128.00027,41.42903],[128.00308,41.44151],[127.98412,41.4169],[127.97409,41.42881],[127.94639,41.43667],[127.94585,41.44541],[127.93114,41.45201],[127.92619,41.43916],[127.90811,41.42963],[127.88843,41.43094],[127.87982,41.44185],[127.86713,41.42704],[127.86331,41.40474],[127.8409,41.41808],[127.83299,41.41819],[127.83035,41.4073],[127.82389,41.40643],[127.79875,41.42011],[127.79285,41.41852],[127.79086,41.40806],[127.78451,41.40856],[127.78343,41.41869],[127.76223,41.42461],[127.68374,41.42052],[127.64732,41.42533],[127.66081,41.40359],[127.63734,41.40784],[127.60645,41.42869],[127.55107,41.44078],[127.54436,41.46711],[127.53404,41.47405],[127.52708,41.46783],[127.47812,41.46875],[127.47209,41.48273],[127.45357,41.45711],[127.40871,41.45542],[127.3895,41.4816],[127.35705,41.4746],[127.35258,41.46262],[127.2951,41.48154],[127.25261,41.47901],[127.25395,41.48561],[127.27604,41.49257],[127.27904,41.50645],[127.26338,41.51298],[127.23677,41.50206],[127.22936,41.50966],[127.23044,41.52154],[127.21076,41.51883],[127.20397,41.53146],[127.17487,41.52909],[127.1667,41.53947],[127.14369,41.52748],[127.13792,41.52769],[127.13804,41.53914],[127.10076,41.53751],[127.09884,41.55041],[127.11576,41.5482],[127.12165,41.56402],[127.13696,41.56988],[127.13958,41.58216],[127.16807,41.5841],[127.17733,41.59064],[127.16286,41.59805],[127.12095,41.60071],[127.1241,41.61664],[127.11919,41.62094],[127.08511,41.62239],[127.10074,41.63306],[127.09958,41.64364],[127.07851,41.64348],[127.06119,41.65922],[127.04549,41.66448],[127.05446,41.65509],[127.057,41.63469],[127.07452,41.59348],[127.063,41.58343],[127.03847,41.58049],[127.01337,41.562],[126.9976,41.52741],[126.97015,41.52714],[126.93305,41.53658],[126.91945,41.52365],[126.91614,41.51147],[126.92204,41.47682],[126.95087,41.43851],[127.0288,41.4312],[127.01431,41.39546],[127.02345,41.37613],[127.04657,41.35107],[127.0725,41.28899],[127.08629,41.2774],[127.13788,41.26109],[127.12415,41.23851],[127.12303,41.22518],[127.1405,41.18127],[127.14274,41.15588],[127.16056,41.13794],[127.19071,41.14057],[127.23288,41.10588],[127.27195,41.10902],[127.29574,41.10014],[127.33976,41.0998],[127.3637,41.11708],[127.38254,41.1443],[127.42109,41.16343],[127.46316,41.17305],[127.48908,41.16124],[127.50299,41.14587],[127.50318,41.06252],[127.60888,41.06555],[127.62375,41.07533],[127.64508,41.13412],[127.6589,41.14623],[127.68638,41.1459],[127.70677,41.13737],[127.73927,41.13853],[127.78983,41.12086],[127.79193,41.07578],[127.77191,41.01837],[127.74407,40.9987],[127.70874,41.00434],[127.6914,40.99535],[127.69275,40.98605],[127.71785,40.95737],[127.70599,40.92139],[127.69104,40.90696],[127.60564,40.86593],[127.59691,40.85178],[127.59848,40.83111],[127.61494,40.81],[127.61854,40.77255],[127.64248,40.75333],[127.67633,40.6961],[127.70767,40.68822],[127.72169,40.61338],[127.73866,40.59914],[127.7794,40.60005],[127.77253,40.52468],[127.73864,40.49422],[127.72819,40.47567],[127.72719,40.4118],[127.78401,40.42407],[127.81026,40.44778],[127.9154,40.49915],[127.93848,40.52226],[127.95519,40.55659],[127.979,40.57878],[128.00441,40.58105],[128.04703,40.59812],[128.09288,40.59874],[128.14638,40.56293],[128.18117,40.5624],[128.20898,40.58221],[128.25197,40.63039],[128.29514,40.66204]]]}},{"type":"Feature","properties":{"gid":"PRK.14_1","name":"新义州特别行政区","nameEn":"Sinŭiju","nameLocal":"신의주 특별 행정구","type":"Special Administrative Region","typeEn":"Special Administrative Region","groupZh":"Special Administrative Region","area":107.7,"iso":"NA","engtype":"Special Administrative Region","capital":"新义州","pop":60000,"blurb":"中朝边境贸易特区，与平安北道新义州市重叠。"},"geometry":{"type":"Polygon","coordinates":[[[124.36472,40.01192],[124.43353,40.01384],[124.44342,40.05237],[124.43531,40.06963],[124.43587,40.08442],[124.47552,40.10899],[124.44802,40.15591],[124.42366,40.14759],[124.38584,40.12309],[124.37598,40.09821],[124.32867,40.06308],[124.33751,40.04154],[124.36053,40.03053],[124.36472,40.01192]]]}}]}