{"type":"FeatureCollection","features":[{"type":"Feature","properties":{"gid":"NZL.1_1","name":"奥克兰大区","nameEn":"Auckland","nameLocal":"Auckland","type":"大区","typeEn":"Region","groupZh":"大区","area":4879.5,"iso":"NZ-AUK","engtype":"Region","capital":"奥克兰","pop":1656486,"blurb":"全国人口第一大区，占全国近三分之一。"},"geometry":{"type":"MultiPolygon","coordinates":[[[[174.9395,-36.8041],[174.9411,-36.8224],[174.9595,-36.8113],[174.9395,-36.8041]]],[[[175.1734,-36.739],[175.1468,-36.7647],[175.1063,-36.7644],[175.1062,-36.7827],[175.0867,-36.7882],[175.0631,-36.7827],[175.0603,-36.7655],[175.0173,-36.7845],[175.0146,-36.7689],[174.9939,-36.7687],[174.9816,-36.7834],[174.988,-36.8115],[175.0093,-36.7896],[175.0275,-36.7976],[175.0216,-36.8132],[175.0475,-36.7911],[175.041,-36.8052],[175.0704,-36.8021],[175.0326,-36.8183],[175.0674,-36.8178],[175.0627,-36.8317],[175.0971,-36.8414],[175.1087,-36.8153],[175.1109,-36.8446],[175.1267,-36.8481],[175.1286,-36.8232],[175.1402,-36.8237],[175.1301,-36.8366],[175.144,-36.8483],[175.1646,-36.8247],[175.1537,-36.7847],[175.2033,-36.766],[175.1734,-36.739]]],[[[174.9182,-36.7313],[174.8969,-36.7753],[174.8376,-36.7687],[174.8279,-36.7903],[174.8389,-36.8045],[174.8897,-36.8013],[174.8969,-36.7754],[174.9113,-36.796],[174.9284,-36.784],[174.9342,-36.7424],[174.9182,-36.7313]]],[[[174.7295,-36.3894],[174.7103,-36.3908],[174.709,-36.3695],[174.7169,-36.3884],[174.7259,-36.3806],[174.7187,-36.3516],[174.7429,-36.3973],[174.7549,-36.3817],[174.7915,-36.3898],[174.7945,-36.3778],[174.8476,-36.3777],[174.8664,-36.3638],[174.8388,-36.3695],[174.7894,-36.3506],[174.7795,-36.3192],[174.7691,-36.3401],[174.7827,-36.3537],[174.7618,-36.3572],[174.7582,-36.3198],[174.7393,-36.3342],[174.7479,-36.3193],[174.7867,-36.3044],[174.7838,-36.3197],[174.8,-36.3207],[174.7946,-36.3034],[174.822,-36.2774],[174.7285,-36.2446],[174.6166,-36.1175],[174.5847,-36.1431],[174.5809,-36.1664],[174.4787,-36.2301],[174.4731,-36.2593],[174.4981,-36.2401],[174.4912,-36.2526],[174.509,-36.2526],[174.4808,-36.2618],[174.4948,-36.2729],[174.4778,-36.277],[174.4792,-36.2636],[174.4551,-36.2556],[174.4246,-36.2763],[174.4319,-36.2932],[174.4427,-36.2865],[174.4333,-36.3023],[174.414,-36.28],[174.3936,-36.3197],[174.3794,-36.3122],[174.3845,-36.3256],[174.3664,-36.3108],[174.3694,-36.3236],[174.3204,-36.3313],[174.3245,-36.3198],[174.3101,-36.3278],[174.2811,-36.3055],[174.2577,-36.3254],[174.2574,-36.3808],[174.3103,-36.3893],[174.3039,-36.3539],[174.3105,-36.3772],[174.3571,-36.4113],[174.3843,-36.4034],[174.3699,-36.3804],[174.4151,-36.3749],[174.3866,-36.3521],[174.3876,-36.3353],[174.4077,-36.3504],[174.4359,-36.3353],[174.4153,-36.3556],[174.4284,-36.3718],[174.3927,-36.392],[174.4239,-36.3966],[174.4129,-36.4107],[174.4414,-36.4236],[174.4162,-36.4407],[174.4068,-36.4775],[174.4313,-36.511],[174.4229,-36.5356],[174.4475,-36.5536],[174.4091,-36.5841],[174.4445,-36.5947],[174.4284,-36.6232],[174.4494,-36.6845],[174.4193,-36.6197],[174.4046,-36.6247],[174.4256,-36.6388],[174.4177,-36.6507],[174.4135,-36.6314],[174.3835,-36.6345],[174.4025,-36.6305],[174.3786,-36.6228],[174.3776,-36.5913],[174.3658,-36.6009],[174.3785,-36.627],[174.3514,-36.6242],[174.36,-36.5995],[174.3424,-36.6002],[174.3636,-36.5926],[174.344,-36.5836],[174.3774,-36.565],[174.2964,-36.53],[174.2929,-36.5036],[174.2742,-36.4968],[174.2358,-36.4281],[174.208,-36.4385],[174.1982,-36.4751],[174.1944,-36.4389],[174.2184,-36.4288],[174.1884,-36.4342],[174.1622,-36.4634],[174.168,-36.4935],[174.2712,-36.6079],[174.4189,-36.8115],[174.4342,-36.8905],[174.448,-36.8903],[174.4436,-36.912],[174.4684,-36.9461],[174.4844,-37.0496],[174.5572,-37.0216],[174.5668,-36.9989],[174.612,-37.02],[174.6143,-36.9662],[174.633,-36.979],[174.6438,-36.9485],[174.65,-36.9648],[174.6815,-36.9338],[174.7067,-36.9258],[174.7294,-36.939],[174.7719,-36.9242],[174.8264,-36.9293],[174.8308,-36.9418],[174.8174,-36.9577],[174.817,-36.943],[174.7971,-36.95],[174.7861,-36.9347],[174.7559,-36.942],[174.7809,-36.9554],[174.7742,-36.9659],[174.7302,-36.9618],[174.7658,-36.9675],[174.7419,-36.9925],[174.771,-37.005],[174.7651,-37.0187],[174.8169,-37.0176],[174.8022,-37.0122],[174.8192,-37.003],[174.8443,-37.0296],[174.8535,-37.025],[174.8406,-37.0185],[174.8568,-37.0165],[174.859,-37.0518],[174.8734,-37.0374],[174.893,-37.0419],[174.8726,-37.0551],[174.9076,-37.0427],[174.9375,-37.0596],[174.9075,-37.0605],[174.8996,-37.0812],[174.9456,-37.0943],[174.9417,-37.1108],[174.9211,-37.0913],[174.9208,-37.1098],[174.9172,-37.0943],[174.899,-37.1159],[174.9124,-37.0977],[174.8969,-37.061],[174.8673,-37.0862],[174.87,-37.112],[174.8612,-37.0889],[174.876,-37.0733],[174.8564,-37.0555],[174.797,-37.0962],[174.7932,-37.1375],[174.7808,-37.137],[174.7877,-37.1079],[174.7762,-37.1049],[174.7924,-37.0921],[174.7748,-37.089],[174.7395,-37.1264],[174.6899,-37.1373],[174.7083,-37.1522],[174.7415,-37.147],[174.7446,-37.1659],[174.7922,-37.1632],[174.7941,-37.1745],[174.7869,-37.1634],[174.7458,-37.1701],[174.75,-37.1882],[174.7343,-37.1567],[174.7037,-37.1573],[174.7271,-37.1883],[174.7133,-37.2008],[174.7389,-37.2238],[174.7354,-37.251],[174.7186,-37.2276],[174.7045,-37.2334],[174.719,-37.2162],[174.6936,-37.2158],[174.7036,-37.1957],[174.6873,-37.2029],[174.7026,-37.1859],[174.6835,-37.1882],[174.6969,-37.1704],[174.6821,-37.1681],[174.6991,-37.1513],[174.6681,-37.1616],[174.6895,-37.1469],[174.6543,-37.1448],[174.6674,-37.1184],[174.6429,-37.1205],[174.6689,-37.1061],[174.6355,-37.087],[174.6582,-37.0817],[174.6425,-37.0776],[174.6647,-37.0682],[174.6583,-37.0439],[174.6284,-37.0361],[174.5364,-37.0535],[174.6592,-37.2926],[174.6893,-37.2662],[174.7389,-37.2679],[174.8063,-37.2268],[174.8481,-37.2342],[174.8504,-37.2512],[174.8868,-37.2306],[174.9308,-37.2331],[174.9299,-37.2062],[174.948,-37.1957],[174.9732,-37.1948],[174.9903,-37.2166],[175.0545,-37.1808],[175.0738,-37.1947],[175.0896,-37.1795],[175.1307,-37.1864],[175.1539,-37.1361],[175.1408,-37.0987],[175.1521,-37.0216],[175.1639,-37.0161],[175.1848,-37.0408],[175.2915,-37.0232],[175.2833,-36.9885],[175.1921,-36.9303],[175.1589,-36.951],[175.1409,-36.9274],[175.077,-36.9569],[175.0772,-36.9147],[175.0991,-36.9007],[175.0696,-36.9043],[175.0381,-36.8743],[174.9836,-36.8814],[174.9979,-36.9239],[174.9906,-36.9101],[174.9632,-36.9136],[174.9697,-36.9488],[174.9594,-36.9137],[174.9353,-36.9242],[174.9545,-36.9103],[174.9513,-36.8953],[174.9005,-36.8466],[174.8962,-36.8926],[174.8584,-36.9161],[174.8868,-36.9259],[174.8925,-36.909],[174.9048,-36.9249],[174.869,-36.9275],[174.862,-36.9444],[174.8854,-36.9496],[174.86,-36.946],[174.8454,-36.9681],[174.8663,-36.9328],[174.8441,-36.9363],[174.8629,-36.9257],[174.8439,-36.9064],[174.8688,-36.9021],[174.8696,-36.8779],[174.892,-36.8717],[174.8754,-36.8465],[174.8006,-36.8531],[174.7423,-36.835],[174.7111,-36.861],[174.7032,-36.8509],[174.6988,-36.8713],[174.6629,-36.857],[174.6746,-36.8688],[174.6605,-36.8627],[174.6637,-36.8797],[174.6879,-36.9017],[174.6782,-36.9059],[174.6539,-36.8842],[174.6603,-36.8307],[174.6327,-36.8394],[174.6454,-36.8539],[174.6351,-36.8711],[174.6404,-36.8464],[174.6146,-36.8555],[174.6406,-36.8109],[174.6709,-36.8049],[174.6736,-36.789],[174.6373,-36.797],[174.6609,-36.7743],[174.6107,-36.7739],[174.5912,-36.7935],[174.6062,-36.773],[174.5963,-36.754],[174.6138,-36.7727],[174.6323,-36.7701],[174.6375,-36.752],[174.6344,-36.7722],[174.6598,-36.7705],[174.6929,-36.7231],[174.6839,-36.763],[174.6624,-36.772],[174.6761,-36.7865],[174.7027,-36.7715],[174.7065,-36.7906],[174.6787,-36.7899],[174.697,-36.8231],[174.7493,-36.8267],[174.7669,-36.7903],[174.7847,-36.8067],[174.766,-36.8216],[174.7946,-36.8179],[174.7729,-36.8294],[174.8138,-36.8282],[174.7753,-36.7879],[174.7531,-36.7324],[174.7619,-36.6959],[174.7486,-36.6645],[174.7297,-36.6616],[174.709,-36.622],[174.6971,-36.6326],[174.7092,-36.6178],[174.6773,-36.6198],[174.7099,-36.615],[174.7409,-36.648],[174.7881,-36.6179],[174.8013,-36.6276],[174.8079,-36.6078],[174.8327,-36.6195],[174.8408,-36.6018],[174.8257,-36.5926],[174.7746,-36.6066],[174.7584,-36.6283],[174.6971,-36.6004],[174.6913,-36.5739],[174.7299,-36.5162],[174.7016,-36.4947],[174.7078,-36.4857],[174.6764,-36.485],[174.6954,-36.4734],[174.7142,-36.4875],[174.7072,-36.4731],[174.7188,-36.4719],[174.687,-36.4644],[174.7106,-36.452],[174.6814,-36.418],[174.7094,-36.4306],[174.7197,-36.4163],[174.7176,-36.4333],[174.7311,-36.4327],[174.7264,-36.4876],[174.7383,-36.4519],[174.752,-36.4646],[174.7359,-36.5042],[174.7787,-36.4409],[174.7327,-36.4251],[174.7295,-36.3894]]],[[[175.1878,-36.8349],[175.1731,-36.8361],[175.1771,-36.861],[175.1528,-36.8621],[175.1946,-36.9017],[175.2067,-36.8789],[175.1947,-36.8557],[175.2138,-36.835],[175.1878,-36.8349]]],[[[175.202,-36.8119],[175.1916,-36.8111],[175.1992,-36.8253],[175.202,-36.8119]]],[[[175.398,-36.05],[175.3394,-36.0733],[175.3494,-36.1085],[175.3765,-36.1166],[175.3663,-36.1284],[175.3109,-36.1293],[175.3166,-36.1478],[175.3536,-36.1496],[175.3392,-36.1586],[175.3621,-36.1616],[175.351,-36.1765],[175.3699,-36.1823],[175.3465,-36.1861],[175.3601,-36.2087],[175.3388,-36.2043],[175.3492,-36.2165],[175.3078,-36.186],[175.3143,-36.2255],[175.3502,-36.2285],[175.3863,-36.2562],[175.3967,-36.2358],[175.4005,-36.2683],[175.4377,-36.2586],[175.4333,-36.3093],[175.4868,-36.3011],[175.4935,-36.3231],[175.4743,-36.3319],[175.5297,-36.3475],[175.5505,-36.3147],[175.5432,-36.295],[175.4777,-36.2454],[175.4801,-36.2005],[175.5054,-36.174],[175.4351,-36.1408],[175.4105,-36.1468],[175.4131,-36.1333],[175.4299,-36.1429],[175.4236,-36.1183],[175.4404,-36.1117],[175.4245,-36.1068],[175.4223,-36.0859],[175.4069,-36.0922],[175.4129,-36.0616],[175.398,-36.05]]],[[[175.4968,-36.1161],[175.4908,-36.1382],[175.5137,-36.1234],[175.4968,-36.1161]]],[[[175.3394,-36.164],[175.3029,-36.1669],[175.331,-36.1901],[175.3394,-36.164]]],[[[175.1543,-35.9342],[175.1457,-35.9413],[175.1609,-35.9451],[175.1543,-35.9342]]],[[[174.8397,-36.3923],[174.8188,-36.4181],[174.8547,-36.4263],[174.8156,-36.4314],[174.8409,-36.4403],[174.8364,-36.4502],[174.8766,-36.4499],[174.877,-36.4159],[174.8397,-36.3923]]],[[[175.0919,-36.1664],[175.0511,-36.1844],[175.05,-36.2206],[175.1058,-36.2281],[175.1141,-36.1822],[175.0919,-36.1664]]]]}},{"type":"Feature","properties":{"gid":"NZL.2_1","name":"丰盛湾大区","nameEn":"Bay of Plenty","nameLocal":"Bay of Plenty","type":"大区","typeEn":"Region","groupZh":"大区","area":12308.4,"iso":"NZ-BOP","engtype":"Region","capital":"法卡塔尼","pop":334140,"blurb":"北岛东岸海湾，猕猴桃种植与地热。"},"geometry":{"type":"MultiPolygon","coordinates":[[[[177.2016,-38.5254],[177.2258,-38.5341],[177.2574,-38.5083],[177.2369,-38.4263],[177.4637,-38.3335],[177.4975,-38.2608],[177.4818,-38.2399],[177.501,-38.2134],[177.5604,-38.2094],[177.6048,-38.1866],[177.6024,-38.1712],[177.6536,-38.1586],[177.6642,-38.1163],[177.7026,-38.1057],[177.6772,-38.0862],[177.6976,-38.0607],[177.6743,-38.0262],[177.6811,-38.0124],[177.7244,-38.0226],[177.861,-38.1117],[177.9723,-37.845],[178.073,-37.7636],[178.0387,-37.7331],[177.9946,-37.7643],[177.9781,-37.7442],[177.9982,-37.6896],[177.9781,-37.617],[178.0398,-37.5975],[178.1076,-37.5987],[178.0853,-37.5424],[178.0081,-37.5533],[177.9835,-37.5364],[177.9923,-37.5739],[177.9541,-37.6154],[177.9195,-37.6203],[177.9039,-37.6052],[177.8638,-37.6566],[177.8157,-37.6582],[177.7881,-37.6809],[177.7276,-37.6802],[177.7079,-37.7224],[177.6706,-37.7387],[177.6842,-37.7605],[177.6526,-37.7859],[177.6507,-37.8054],[177.6128,-37.812],[177.6065,-37.8381],[177.5883,-37.8376],[177.5841,-37.8674],[177.5301,-37.9203],[177.4859,-37.9351],[177.486,-37.9504],[177.3872,-37.9854],[177.1574,-37.9866],[177.1478,-37.9956],[177.1609,-37.99],[177.1619,-38.007],[177.146,-38.0048],[177.1381,-38.021],[177.1602,-38.0397],[177.1494,-38.0442],[177.1191,-38.0178],[177.1026,-38.0249],[177.1092,-38.0018],[177.0859,-38.0174],[177.0892,-37.997],[177.069,-37.9968],[177.0641,-38.0148],[177.0565,-37.9961],[177.0745,-37.9775],[177.1434,-37.985],[177.0389,-37.9642],[177.0167,-37.9383],[176.6625,-37.8547],[176.4791,-37.7555],[176.4961,-37.7778],[176.4689,-37.7745],[176.4799,-37.7606],[176.4681,-37.7408],[176.4312,-37.7625],[176.4178,-37.7493],[176.4541,-37.7548],[176.2503,-37.6802],[176.1738,-37.6251],[176.1796,-37.6686],[176.2055,-37.6848],[176.1831,-37.6968],[176.1917,-37.7054],[176.2151,-37.6863],[176.2372,-37.6965],[176.2262,-37.704],[176.2355,-37.7117],[176.1753,-37.7246],[176.1916,-37.7171],[176.1852,-37.7083],[176.1669,-37.7221],[176.1746,-37.6583],[176.1642,-37.6711],[176.1245,-37.6598],[176.1216,-37.6831],[176.0955,-37.6871],[176.093,-37.6632],[176.049,-37.6596],[176.0535,-37.6796],[176.0333,-37.6834],[176.0493,-37.6548],[176.0231,-37.6674],[176.0536,-37.6263],[176.0087,-37.6518],[176.0153,-37.6244],[175.9866,-37.6464],[175.987,-37.6271],[175.9585,-37.6323],[175.9818,-37.6113],[175.9565,-37.6073],[175.978,-37.5893],[175.9722,-37.5737],[175.9451,-37.5962],[175.943,-37.5688],[175.9231,-37.5792],[175.9283,-37.5592],[175.9533,-37.554],[175.9178,-37.5336],[175.9781,-37.5146],[175.9502,-37.4846],[175.9551,-37.4972],[175.9297,-37.4973],[175.9469,-37.4832],[175.9383,-37.4654],[175.9691,-37.4502],[175.9486,-37.4397],[175.9595,-37.4343],[175.9786,-37.4691],[175.9912,-37.465],[175.9409,-37.4011],[175.94,-37.3732],[175.9166,-37.3793],[175.9245,-37.4044],[175.9039,-37.4057],[175.9101,-37.4303],[175.8609,-37.4611],[175.8993,-37.4956],[175.8656,-37.5004],[175.8328,-37.4716],[175.8135,-37.4849],[175.806,-37.5107],[175.831,-37.5368],[175.8117,-37.5643],[175.8415,-37.6133],[175.8336,-37.6275],[175.9277,-37.776],[175.9059,-37.8286],[175.935,-37.8426],[175.9362,-37.8814],[175.9718,-37.8828],[175.9542,-37.9019],[175.9772,-37.9137],[175.9413,-37.9282],[175.9494,-37.9567],[175.9715,-37.9864],[176.0132,-37.9935],[176.0622,-38.0268],[175.9818,-38.1386],[176.0307,-38.1392],[176.0307,-38.1666],[176.1101,-38.1669],[176.1503,-38.2182],[176.116,-38.2691],[176.1293,-38.2732],[176.1087,-38.2758],[176.1377,-38.2876],[176.1311,-38.3036],[176.0586,-38.3345],[176.0238,-38.3651],[176.026,-38.3849],[176.1188,-38.4133],[176.1479,-38.4873],[176.1723,-38.4981],[176.1779,-38.5182],[176.2292,-38.5222],[176.3031,-38.4854],[176.3232,-38.5072],[176.2999,-38.551],[176.359,-38.5687],[176.3868,-38.5065],[176.4764,-38.5333],[176.4763,-38.5101],[176.5022,-38.5108],[176.5028,-38.5265],[176.5334,-38.5351],[176.552,-38.5808],[176.6056,-38.6087],[176.6178,-38.5947],[176.646,-38.6059],[176.6175,-38.7013],[176.6242,-38.7543],[176.6977,-38.856],[176.692,-38.8063],[176.7079,-38.789],[176.7141,-38.7279],[176.7429,-38.7278],[176.7733,-38.6845],[176.8225,-38.6914],[176.8868,-38.6665],[176.9292,-38.6982],[176.9716,-38.7047],[177.017,-38.6672],[177.0356,-38.6286],[177.0771,-38.6106],[177.0997,-38.6274],[177.1199,-38.5854],[177.167,-38.5778],[177.2016,-38.5254]]],[[[176.9677,-37.8472],[176.9607,-37.8563],[176.9871,-37.8573],[176.9677,-37.8472]]],[[[177.1849,-37.512],[177.1671,-37.5173],[177.1872,-37.53],[177.1849,-37.512]]],[[[176.1039,-37.6251],[176.107,-37.6393],[176.1267,-37.6365],[176.091,-37.6073],[176.1039,-37.6251]]],[[[176.0258,-37.5022],[175.983,-37.4753],[175.9847,-37.4989],[176.0692,-37.5704],[176.0659,-37.5835],[176.0301,-37.5708],[176.034,-37.6007],[176.0853,-37.625],[176.0957,-37.6218],[176.0769,-37.6024],[176.0842,-37.5938],[176.1582,-37.6395],[176.0258,-37.5022]]],[[[176.4157,-37.603],[176.4049,-37.6543],[176.4381,-37.6208],[176.4157,-37.603]]],[[[176.2659,-37.2676],[176.2376,-37.2733],[176.2315,-37.2971],[176.2695,-37.305],[176.2805,-37.2736],[176.2659,-37.2676]]]]}},{"type":"Feature","properties":{"gid":"NZL.3_1","name":"坎特伯雷大区","nameEn":"Canterbury","nameLocal":"Canterbury","type":"大区","typeEn":"Region","groupZh":"大区","area":48148.8,"iso":"NZ-CAN","engtype":"Region","capital":"基督城","pop":651027,"blurb":"南岛最大区，坎特伯雷平原农牧带。"},"geometry":{"type":"Polygon","coordinates":[[[171.5067,-44.1894],[172.029,-43.9579],[172.3166,-43.8671],[172.7292,-43.827],[172.7451,-43.8538],[172.7854,-43.8505],[172.7821,-43.8681],[172.803,-43.8623],[172.8066,-43.8737],[172.8223,-43.8592],[172.8123,-43.88],[172.8402,-43.8756],[172.8266,-43.8885],[172.8571,-43.8765],[172.8683,-43.8945],[172.9304,-43.9017],[172.9493,-43.8954],[172.9124,-43.8626],[172.9032,-43.8226],[172.9252,-43.7961],[172.9103,-43.7622],[172.9278,-43.7766],[172.9327,-43.7505],[172.9629,-43.7649],[172.9487,-43.7744],[172.9662,-43.7842],[172.9425,-43.7877],[172.9675,-43.7995],[172.9451,-43.8195],[172.9389,-43.8537],[172.9686,-43.8869],[172.9886,-43.8866],[172.9932,-43.8716],[172.9958,-43.8871],[173.0174,-43.8804],[173.0042,-43.8684],[173.0374,-43.8727],[173.0404,-43.8547],[173.0628,-43.8504],[173.0573,-43.8376],[173.0785,-43.853],[173.0852,-43.8325],[173.1026,-43.8333],[173.0961,-43.8076],[173.1132,-43.7991],[173.1085,-43.7746],[173.1273,-43.7765],[173.1294,-43.747],[173.0925,-43.7394],[173.1183,-43.7271],[173.0988,-43.72],[173.1074,-43.7005],[173.0868,-43.6829],[173.0763,-43.6992],[173.0564,-43.6917],[173.0731,-43.6753],[173.0348,-43.6623],[173.0472,-43.6514],[172.9934,-43.6756],[172.9992,-43.6449],[172.9781,-43.6332],[172.9608,-43.6483],[172.9604,-43.6341],[172.932,-43.6229],[172.8949,-43.689],[172.8848,-43.6718],[172.9114,-43.624],[172.9036,-43.6325],[172.8929,-43.6136],[172.8808,-43.6246],[172.8605,-43.6026],[172.8219,-43.6633],[172.8109,-43.6586],[172.8254,-43.6041],[172.8155,-43.6173],[172.7547,-43.6212],[172.7497,-43.6386],[172.7435,-43.6221],[172.7199,-43.6242],[172.6993,-43.6561],[172.6818,-43.6365],[172.6609,-43.6671],[172.6683,-43.6309],[172.65,-43.6406],[172.654,-43.6199],[172.8081,-43.5873],[172.7781,-43.5847],[172.7758,-43.569],[172.738,-43.555],[172.7028,-43.5545],[172.7272,-43.5252],[172.7564,-43.5614],[172.7226,-43.4802],[172.7113,-43.3914],[172.7066,-43.4287],[172.701,-43.4186],[172.7398,-43.2415],[172.8169,-43.1333],[173.044,-43.0466],[173.0806,-43.0507],[173.1397,-42.9896],[173.2395,-42.9543],[173.3187,-42.8844],[173.3133,-42.8519],[173.3684,-42.7988],[173.4785,-42.5918],[173.5172,-42.5557],[173.5017,-42.5483],[173.5023,-42.5263],[173.5287,-42.4787],[173.6127,-42.4222],[173.665,-42.4122],[173.6915,-42.4346],[173.7162,-42.4244],[173.6825,-42.4008],[173.6923,-42.3579],[173.7486,-42.3212],[173.7589,-42.2868],[173.8078,-42.2653],[173.9398,-42.1622],[173.9243,-42.1305],[173.9379,-42.0831],[174.0474,-41.9699],[174.0634,-41.9347],[173.9771,-41.9334],[173.9587,-41.9085],[173.8173,-41.933],[173.7894,-41.9582],[173.7621,-41.9119],[173.7368,-41.9113],[173.7142,-41.9406],[173.7202,-41.9607],[173.6632,-41.9821],[173.6382,-42.0094],[173.6097,-42.0045],[173.5945,-42.0293],[173.5551,-42.0459],[173.5468,-42.0698],[173.4991,-42.0787],[173.4865,-42.1105],[173.463,-42.1178],[173.4843,-42.1813],[173.464,-42.1798],[173.4645,-42.1957],[173.437,-42.2142],[173.2964,-42.248],[173.2959,-42.2658],[173.1833,-42.3367],[173.1806,-42.3464],[173.2433,-42.3561],[173.224,-42.3564],[173.2204,-42.3804],[173.1643,-42.4185],[173.1523,-42.4496],[173.1062,-42.4477],[173.0542,-42.4881],[173.0358,-42.4835],[173.0333,-42.4581],[173.0145,-42.4463],[172.9695,-42.4487],[173.0029,-42.3933],[172.9414,-42.3778],[172.9438,-42.3512],[172.9196,-42.3458],[172.915,-42.3093],[172.8469,-42.3079],[172.8423,-42.2895],[172.8635,-42.2562],[172.8266,-42.2482],[172.8321,-42.1845],[172.8069,-42.1895],[172.7938,-42.1617],[172.7292,-42.1654],[172.7202,-42.1027],[172.6911,-42.1066],[172.6784,-42.0878],[172.6369,-42.1015],[172.6409,-42.1329],[172.6097,-42.1658],[172.6162,-42.1942],[172.5594,-42.22],[172.5151,-42.2641],[172.4785,-42.2729],[172.4436,-42.3667],[172.3472,-42.3918],[172.2788,-42.4499],[172.2357,-42.4565],[172.2271,-42.4795],[172.1867,-42.5041],[172.1783,-42.5355],[172.1085,-42.5805],[172.0937,-42.6211],[171.9744,-42.6391],[171.9723,-42.6535],[171.9259,-42.6662],[171.8851,-42.7187],[171.8844,-42.7496],[171.8126,-42.79],[171.7639,-42.7917],[171.7626,-42.8373],[171.733,-42.8533],[171.7464,-42.8741],[171.7101,-42.9038],[171.6869,-42.9061],[171.6651,-42.8863],[171.6341,-42.9026],[171.5869,-42.8957],[171.5172,-42.9142],[171.491,-42.8959],[171.4423,-42.9137],[171.4375,-42.9357],[171.396,-42.9593],[171.3932,-42.9426],[171.3622,-42.9372],[171.3142,-42.9482],[171.3084,-42.9662],[171.2377,-43.0025],[171.2407,-43.031],[171.2196,-43.0647],[171.1172,-43.0857],[171.1054,-43.1121],[171.0797,-43.102],[171.0374,-43.1459],[171.0473,-43.1636],[171.02,-43.1745],[170.9917,-43.2176],[170.9485,-43.2273],[170.9482,-43.206],[170.9287,-43.2065],[170.8731,-43.2458],[170.8605,-43.2813],[170.7598,-43.3183],[170.7053,-43.3188],[170.7161,-43.3432],[170.6467,-43.3693],[170.6566,-43.3869],[170.6329,-43.3968],[170.6151,-43.4319],[170.5297,-43.41],[170.4755,-43.433],[170.4592,-43.4613],[170.395,-43.4982],[170.356,-43.5061],[170.3281,-43.4818],[170.2286,-43.5192],[170.1398,-43.5895],[170.0981,-43.5955],[170.0952,-43.6555],[170.0285,-43.6908],[170.0305,-43.7232],[169.9788,-43.7471],[169.9727,-43.7873],[169.9,-43.813],[169.8944,-43.8337],[169.8584,-43.837],[169.8379,-43.8666],[169.7709,-43.8993],[169.7583,-43.9337],[169.6993,-43.9635],[169.7194,-44.0367],[169.686,-44.0419],[169.6821,-44.0683],[169.665,-44.0677],[169.6387,-44.1199],[169.5989,-44.1503],[169.6058,-44.1585],[169.5432,-44.2078],[169.5806,-44.2523],[169.5684,-44.3193],[169.5788,-44.3401],[169.5425,-44.4486],[169.6419,-44.4664],[169.6343,-44.5018],[169.6634,-44.5372],[169.6407,-44.5648],[169.641,-44.596],[169.7085,-44.601],[169.7306,-44.5651],[169.7572,-44.6121],[169.7549,-44.6389],[169.8056,-44.6613],[169.8362,-44.6689],[169.8913,-44.6443],[169.9442,-44.654],[169.9978,-44.8247],[170.0309,-44.8701],[170.0638,-44.8836],[170.0819,-44.9121],[170.0687,-44.9232],[170.0941,-44.94],[170.1645,-44.946],[170.252,-44.9188],[170.3017,-44.9195],[170.3194,-44.903],[170.3514,-44.9093],[170.3491,-44.9431],[170.3734,-44.9524],[170.3473,-44.9896],[170.3494,-45.0217],[170.3978,-45.0809],[170.4039,-45.1226],[170.4395,-45.1337],[170.412,-45.1756],[170.3642,-45.187],[170.3831,-45.2125],[170.3499,-45.2414],[170.3137,-45.2425],[170.3136,-45.2684],[170.3941,-45.2686],[170.4209,-45.3079],[170.3949,-45.3279],[170.3251,-45.3241],[170.3249,-45.3625],[170.2843,-45.3496],[170.2849,-45.4442],[170.2092,-45.4819],[170.2094,-45.5067],[170.31,-45.4979],[170.3593,-45.5212],[170.3417,-45.5458],[170.3775,-45.5545],[170.4193,-45.5187],[170.4764,-45.533],[170.4816,-45.5092],[170.5529,-45.5094],[170.5618,-45.5539],[170.5842,-45.5706],[170.7156,-45.5595],[170.7152,-45.5488],[170.7271,-45.5489],[170.7268,-45.5693],[170.8313,-45.4734],[170.8089,-45.4517],[170.8255,-45.4128],[170.8688,-45.396],[170.8631,-45.3575],[170.8359,-45.3593],[170.8246,-45.327],[170.906,-45.1716],[170.9826,-45.1215],[170.9805,-45.0915],[171.1022,-45.0013],[171.1524,-44.9235],[171.1742,-44.8269],[171.1629,-44.6028],[171.1959,-44.5247],[171.2616,-44.4433],[171.2683,-44.3862],[171.2563,-44.3942],[171.2451,-44.3812],[171.3517,-44.281],[171.5067,-44.1894]]]}},{"type":"Feature","properties":{"gid":"NZL.4_1","name":"查塔姆群岛领地","nameEn":"Chatham Islands","nameLocal":"Chatham Islands","type":"领地","typeEn":"Territory","groupZh":"领地","area":822.0,"iso":"NA","engtype":"Territory","capital":"怀唐伊","pop":612,"blurb":"最东端的领地，比本岛早 45 分钟迎来日出。"},"geometry":{"type":"MultiPolygon","coordinates":[[[[-176.1774,-44.3363],[-176.1849,-44.349],[-176.1652,-44.3552],[-176.1774,-44.3363]]],[[[-176.2213,-44.2244],[-176.2364,-44.2406],[-176.2758,-44.2401],[-176.2385,-44.2647],[-176.2694,-44.2883],[-176.255,-44.2894],[-176.2523,-44.3098],[-176.2677,-44.3262],[-176.2461,-44.3291],[-176.2562,-44.3443],[-176.2427,-44.3517],[-176.2026,-44.3267],[-176.1971,-44.2994],[-176.1544,-44.2622],[-176.2213,-44.2244]]],[[[-176.6264,-43.6935],[-176.6396,-43.7143],[-176.622,-43.7175],[-176.6565,-43.7494],[-176.7506,-43.7655],[-176.8157,-43.7471],[-176.811,-43.7844],[-176.866,-43.7907],[-176.8748,-43.8174],[-176.8929,-43.8235],[-176.8738,-43.8305],[-176.8827,-43.8403],[-176.8177,-43.8415],[-176.7878,-43.8374],[-176.7938,-43.8212],[-176.7175,-43.8297],[-176.7016,-43.8221],[-176.708,-43.808],[-176.6916,-43.8181],[-176.6866,-43.7982],[-176.67,-43.8077],[-176.6628,-43.7974],[-176.6093,-43.8096],[-176.5716,-43.8477],[-176.5354,-43.9101],[-176.5363,-43.9414],[-176.5575,-43.9534],[-176.5726,-43.9412],[-176.5804,-43.9628],[-176.6823,-44.01],[-176.6549,-44.0414],[-176.6609,-44.069],[-176.6348,-44.1233],[-176.5545,-44.1261],[-176.4493,-44.0651],[-176.3287,-44.0524],[-176.3261,-44.0332],[-176.395,-44.0095],[-176.4224,-43.9276],[-176.4359,-43.9677],[-176.4835,-43.9523],[-176.474,-43.9162],[-176.5119,-43.8887],[-176.524,-43.8533],[-176.4461,-43.8048],[-176.5411,-43.7932],[-176.5616,-43.7741],[-176.5536,-43.7428],[-176.5197,-43.7418],[-176.5,-43.7639],[-176.4769,-43.7471],[-176.4359,-43.7509],[-176.3787,-43.7853],[-176.4085,-43.8409],[-176.4281,-43.8444],[-176.4183,-43.9272],[-176.3987,-43.8656],[-176.3382,-43.7906],[-176.2804,-43.7618],[-176.2383,-43.7726],[-176.238,-43.7516],[-176.1997,-43.7344],[-176.4375,-43.748],[-176.4839,-43.7392],[-176.4942,-43.7208],[-176.6264,-43.6935]]]]}},{"type":"Feature","properties":{"gid":"NZL.5_1","name":"吉斯伯恩大区","nameEn":"Gisborne","nameLocal":"Gisborne","type":"大区","typeEn":"Region","groupZh":"大区","area":8379.3,"iso":"NZ-GIS","engtype":"Region","capital":"吉斯伯恩","pop":51135,"blurb":"全球每天最早看到日出的城市所在地。"},"geometry":{"type":"Polygon","coordinates":[[[177.2047,-38.5244],[177.167,-38.5778],[177.1222,-38.5839],[177.3076,-38.6597],[177.309,-38.5969],[177.3534,-38.6246],[177.4478,-38.6359],[177.4088,-38.6994],[177.4662,-38.7056],[177.4699,-38.7554],[177.5313,-38.7915],[177.5306,-38.8197],[177.5931,-38.8031],[177.5998,-38.8519],[177.6261,-38.8434],[177.6375,-38.8711],[177.6624,-38.8459],[177.6602,-38.9047],[177.7217,-38.8983],[177.7289,-38.9188],[177.7492,-38.8967],[177.7761,-38.9128],[177.799,-38.8944],[177.8047,-38.9118],[177.8445,-38.9215],[177.8369,-38.956],[177.8988,-38.9722],[177.903,-38.8879],[177.9205,-38.8669],[177.9118,-38.8279],[177.9292,-38.7871],[177.9723,-38.7579],[177.9352,-38.7505],[177.9518,-38.6976],[178.0148,-38.6709],[178.0697,-38.7079],[178.0805,-38.6783],[178.1472,-38.652],[178.2033,-38.5872],[178.2919,-38.5293],[178.2799,-38.475],[178.3468,-38.4158],[178.3403,-38.3787],[178.3176,-38.3825],[178.3057,-38.3627],[178.3297,-38.3524],[178.3256,-38.3054],[178.3594,-38.289],[178.3347,-38.2832],[178.3084,-38.2342],[178.3676,-38.1759],[178.3178,-38.1394],[178.3218,-38.1223],[178.3739,-38.0936],[178.3616,-38.0686],[178.3716,-38.0498],[178.3368,-38.0372],[178.3372,-38.0093],[178.3914,-37.9612],[178.387,-37.9192],[178.4085,-37.8663],[178.4517,-37.8332],[178.45,-37.8134],[178.5497,-37.6873],[178.4807,-37.6401],[178.3408,-37.6217],[178.3163,-37.602],[178.3251,-37.5909],[178.3014,-37.5962],[178.2941,-37.5844],[178.3147,-37.5562],[178.2164,-37.5469],[178.2095,-37.5352],[178.1714,-37.5344],[178.1639,-37.5525],[178.0853,-37.5424],[178.1076,-37.5987],[178.0398,-37.5975],[177.9781,-37.617],[177.9982,-37.6896],[177.9781,-37.7442],[177.9946,-37.7643],[178.0387,-37.7331],[178.073,-37.7636],[177.9723,-37.845],[177.861,-38.1117],[177.7244,-38.0226],[177.6811,-38.0124],[177.6743,-38.0262],[177.6976,-38.0607],[177.6772,-38.0862],[177.7026,-38.1057],[177.6642,-38.1163],[177.6536,-38.1586],[177.6024,-38.1712],[177.6048,-38.1866],[177.5604,-38.2094],[177.501,-38.2134],[177.4818,-38.2399],[177.4975,-38.2608],[177.4637,-38.3335],[177.2369,-38.4263],[177.2574,-38.5083],[177.2258,-38.5341],[177.2047,-38.5244]]]}},{"type":"Feature","properties":{"gid":"NZL.6_1","name":"霍克斯湾大区","nameEn":"Hawke's Bay","nameLocal":"Hawke's Bay","type":"大区","typeEn":"Region","groupZh":"大区","area":12802.2,"iso":"NZ-HKB","engtype":"Region","capital":"内皮尔","pop":175074,"blurb":"葡萄酒之乡，装饰艺术风格城市内皮尔。"},"geometry":{"type":"Polygon","coordinates":[[[176.6074,-40.4255],[176.6226,-40.428],[176.6355,-40.4078],[176.6729,-40.3221],[176.6782,-40.2656],[176.7403,-40.2275],[176.787,-40.2183],[176.8697,-40.1305],[176.8705,-40.0984],[176.8947,-40.0773],[176.8793,-40.0498],[176.9077,-39.9821],[177.0053,-39.8412],[176.9942,-39.7977],[177.0148,-39.7322],[177.096,-39.6426],[177.0318,-39.6498],[176.9664,-39.6235],[176.9232,-39.5535],[176.9237,-39.4727],[176.8891,-39.4828],[176.8731,-39.456],[176.9,-39.3667],[177.0187,-39.261],[177.0458,-39.1942],[177.2592,-39.1007],[177.4186,-39.063],[177.6608,-39.0507],[177.8232,-39.0768],[177.843,-39.0595],[177.8718,-39.0864],[177.8224,-39.16],[177.8434,-39.1849],[177.8647,-39.2649],[177.9062,-39.2263],[177.9252,-39.169],[178.0007,-39.1122],[177.9018,-39.073],[177.8864,-39.0241],[177.899,-38.9718],[177.8366,-38.9557],[177.8456,-38.9237],[177.8338,-38.9128],[177.8219,-38.9217],[177.799,-38.8944],[177.7761,-38.9128],[177.7492,-38.8967],[177.7289,-38.9188],[177.7217,-38.8983],[177.6602,-38.9047],[177.6624,-38.8459],[177.6371,-38.8711],[177.6261,-38.8434],[177.5998,-38.8519],[177.5931,-38.8031],[177.5306,-38.8197],[177.5313,-38.7915],[177.4699,-38.7554],[177.4662,-38.7056],[177.4088,-38.6994],[177.4476,-38.6358],[177.3534,-38.6246],[177.309,-38.5969],[177.3076,-38.6597],[177.1222,-38.5839],[177.1003,-38.627],[177.0779,-38.6106],[177.046,-38.6208],[176.9716,-38.7047],[176.9292,-38.6982],[176.8868,-38.6665],[176.8225,-38.6914],[176.7736,-38.6843],[176.7429,-38.7278],[176.7141,-38.7279],[176.7079,-38.789],[176.692,-38.8063],[176.7,-38.8538],[176.5985,-38.9333],[176.6103,-38.9983],[176.4492,-39.0016],[176.4202,-39.0619],[176.4435,-39.1208],[176.3696,-39.1326],[176.3872,-39.137],[176.3953,-39.1619],[176.3404,-39.1731],[176.2332,-39.0979],[176.1827,-39.1288],[176.1798,-39.1851],[176.1961,-39.2214],[176.2923,-39.251],[176.3051,-39.2919],[176.2654,-39.3493],[176.3321,-39.375],[176.3023,-39.4372],[176.3158,-39.4973],[176.3372,-39.4883],[176.3407,-39.5024],[176.278,-39.5033],[176.2105,-39.5334],[176.1703,-39.5815],[176.1427,-39.5847],[176.179,-39.6053],[176.1651,-39.6487],[176.2009,-39.673],[176.1691,-39.7179],[176.1768,-39.744],[176.1172,-39.8868],[176.1261,-39.9048],[176.1068,-39.9171],[176.1211,-39.9624],[176.0938,-39.9955],[176.1365,-40.0285],[176.1543,-40.0122],[176.2388,-40.0273],[176.2638,-40.0627],[176.3209,-40.0856],[176.3132,-40.1239],[176.3788,-40.1581],[176.3587,-40.1979],[176.3803,-40.2374],[176.3781,-40.2725],[176.3992,-40.2849],[176.3889,-40.323],[176.4059,-40.333],[176.3707,-40.3586],[176.3919,-40.3617],[176.3915,-40.3778],[176.4603,-40.4116],[176.4916,-40.4119],[176.4929,-40.4001],[176.6074,-40.4255]]]}},{"type":"Feature","properties":{"gid":"NZL.7_1","name":"马纳瓦图-旺加努伊大区","nameEn":"Manawatu-Wanganui","nameLocal":"Manawatu-Wanganui","type":"大区","typeEn":"Region","groupZh":"大区","area":21982.1,"iso":"NZ-MWT","engtype":"Region","capital":"北帕默斯顿","pop":251412,"blurb":"北岛中部农牧区。"},"geometry":{"type":"Polygon","coordinates":[[[176.1255,-40.0136],[176.0938,-39.9955],[176.1245,-39.9478],[176.1068,-39.9171],[176.1261,-39.9048],[176.1172,-39.8868],[176.1768,-39.744],[176.1691,-39.7179],[176.2009,-39.673],[176.1651,-39.6487],[176.179,-39.6053],[176.1427,-39.5847],[176.1703,-39.5815],[176.2105,-39.5334],[176.278,-39.5033],[176.3407,-39.5024],[176.3372,-39.4883],[176.3158,-39.4973],[176.3023,-39.4372],[176.3321,-39.375],[176.2654,-39.3493],[176.3043,-39.2859],[176.2897,-39.2464],[176.2,-39.2257],[176.1769,-39.1446],[176.1469,-39.1345],[176.081,-39.1572],[175.976,-39.15],[175.9597,-39.1842],[175.886,-39.2059],[175.8927,-39.2236],[175.8547,-39.2442],[175.8681,-39.263],[175.8126,-39.3003],[175.7518,-39.2879],[175.6692,-39.2969],[175.5579,-39.276],[175.6347,-39.1584],[175.6478,-39.1001],[175.6187,-39.0826],[175.6136,-39.0506],[175.6358,-39.0453],[175.682,-38.9797],[175.5626,-38.9868],[175.5694,-38.9701],[175.5539,-38.9557],[175.58,-38.9107],[175.5447,-38.8645],[175.5772,-38.8232],[175.5184,-38.7519],[175.5796,-38.6818],[175.5759,-38.6499],[175.6286,-38.6006],[175.6369,-38.5525],[175.6055,-38.5851],[175.5416,-38.598],[175.5005,-38.5591],[175.401,-38.5511],[175.3355,-38.5815],[175.3247,-38.5514],[175.303,-38.5715],[175.3002,-38.6006],[175.2851,-38.588],[175.2132,-38.6394],[175.1165,-38.6219],[175.0005,-38.6663],[174.9582,-38.6642],[174.9643,-38.6968],[174.9348,-38.7306],[174.9379,-38.7502],[174.82,-38.787],[174.8078,-38.82],[174.7866,-38.821],[174.8276,-38.9099],[174.8566,-38.8887],[174.8842,-38.9126],[174.8713,-38.9284],[174.8855,-38.969],[174.8689,-38.9891],[174.911,-38.9892],[174.9146,-39.0108],[174.9603,-38.9949],[174.9765,-39.042],[174.9633,-39.0663],[175.0473,-39.0704],[175.043,-39.0834],[175.0696,-39.1071],[175.0247,-39.1023],[174.9967,-39.1115],[175.0002,-39.1288],[174.9828,-39.1123],[174.994,-39.1377],[174.9779,-39.1396],[174.9835,-39.1554],[174.9499,-39.1633],[174.9588,-39.171],[174.941,-39.1777],[174.9504,-39.1836],[174.9142,-39.2339],[174.8596,-39.2321],[174.862,-39.2555],[174.8129,-39.3136],[174.8228,-39.334],[174.8916,-39.3581],[174.8795,-39.3902],[174.8659,-39.3891],[174.8874,-39.4145],[174.8846,-39.4355],[174.9285,-39.4762],[174.9673,-39.4848],[174.9703,-39.5254],[174.9918,-39.5403],[174.9676,-39.6052],[174.9722,-39.6537],[174.9883,-39.662],[174.9299,-39.6829],[174.9179,-39.7497],[174.8945,-39.7472],[174.8345,-39.8005],[174.803,-39.8031],[174.7934,-39.8336],[174.7663,-39.8529],[174.8694,-39.8742],[174.9477,-39.9113],[175.0688,-40.0066],[175.1884,-40.1533],[175.2239,-40.2928],[175.2271,-40.398],[175.193,-40.5596],[175.1361,-40.7002],[175.2065,-40.7321],[175.1887,-40.743],[175.193,-40.7573],[175.2693,-40.7687],[175.3283,-40.7442],[175.3468,-40.7521],[175.3715,-40.7268],[175.4342,-40.7464],[175.4734,-40.6934],[175.6277,-40.7528],[175.6937,-40.7163],[175.6906,-40.6966],[175.7372,-40.6969],[175.7542,-40.7093],[175.7701,-40.6989],[175.7907,-40.7256],[175.7647,-40.7681],[175.8109,-40.7796],[175.8269,-40.7609],[175.8497,-40.7614],[175.8716,-40.7779],[175.9099,-40.7509],[175.935,-40.7668],[175.9434,-40.7407],[175.9755,-40.7383],[175.974,-40.7229],[176.0172,-40.7056],[176.082,-40.7157],[176.1032,-40.6729],[176.2342,-40.7076],[176.2466,-40.7409],[176.2716,-40.7446],[176.2582,-40.7599],[176.2705,-40.7808],[176.3098,-40.7163],[176.3763,-40.6681],[176.4221,-40.6046],[176.4677,-40.5748],[176.4833,-40.5395],[176.5595,-40.496],[176.6218,-40.4913],[176.6329,-40.4526],[176.6226,-40.428],[176.5873,-40.4313],[176.5587,-40.4072],[176.55,-40.4212],[176.4929,-40.4001],[176.4926,-40.4115],[176.4614,-40.4118],[176.3915,-40.3778],[176.3919,-40.3617],[176.3707,-40.3586],[176.4059,-40.333],[176.3889,-40.323],[176.3992,-40.2849],[176.3781,-40.2725],[176.3803,-40.2374],[176.3587,-40.1979],[176.3788,-40.1581],[176.3132,-40.1239],[176.3209,-40.0856],[176.2638,-40.0627],[176.2388,-40.0273],[176.1543,-40.0122],[176.1367,-40.0285],[176.1255,-40.0136]]]}},{"type":"Feature","properties":{"gid":"NZL.8_1","name":"马尔堡大区","nameEn":"Marlborough","nameLocal":"Marlborough","type":"大区","typeEn":"Region","groupZh":"大区","area":10455.4,"iso":"NZ-MBH","engtype":"Region","capital":"布伦海姆","pop":49431,"blurb":"长相思白葡萄酒的世界标杆。"},"geometry":{"type":"MultiPolygon","coordinates":[[[[173.2418,-42.3559],[173.1806,-42.3464],[173.2963,-42.2654],[173.2964,-42.248],[173.3333,-42.2467],[173.3416,-42.2279],[173.3511,-42.2427],[173.3732,-42.2368],[173.3687,-42.224],[173.4375,-42.214],[173.4645,-42.1957],[173.464,-42.1798],[173.4841,-42.1815],[173.463,-42.1178],[173.4865,-42.1105],[173.4991,-42.0787],[173.5468,-42.0698],[173.5551,-42.0459],[173.5945,-42.0293],[173.6097,-42.0045],[173.6382,-42.0094],[173.6632,-41.9821],[173.7202,-41.9607],[173.7142,-41.9406],[173.7368,-41.9113],[173.7621,-41.9119],[173.7894,-41.9582],[173.8173,-41.933],[173.9589,-41.9085],[173.9771,-41.9334],[174.0634,-41.9347],[174.0488,-41.9681],[174.1612,-41.8716],[174.218,-41.7921],[174.2746,-41.7435],[174.2759,-41.7259],[174.2123,-41.7279],[174.1816,-41.7107],[174.1565,-41.6572],[174.1663,-41.605],[174.1504,-41.5594],[174.062,-41.501],[174.1262,-41.5473],[174.0891,-41.5595],[174.0795,-41.537],[174.0762,-41.5548],[174.0576,-41.5512],[174.0721,-41.524],[174.0482,-41.5078],[174.0616,-41.5008],[174.0291,-41.4536],[174.0486,-41.3922],[174.0673,-41.3875],[174.0714,-41.3551],[174.0901,-41.3594],[174.105,-41.3391],[174.1226,-41.306],[174.1136,-41.2985],[174.1498,-41.2843],[174.1395,-41.3144],[174.1596,-41.2876],[174.1901,-41.2931],[174.1234,-41.3516],[174.1917,-41.3368],[174.2012,-41.3101],[174.2133,-41.3253],[174.2382,-41.3192],[174.2231,-41.2916],[174.2827,-41.2685],[174.2747,-41.2556],[174.3156,-41.2129],[174.2717,-41.2341],[174.2767,-41.2443],[174.2548,-41.2437],[174.2662,-41.2523],[174.2536,-41.2605],[174.2463,-41.2444],[174.1858,-41.2501],[174.211,-41.2661],[174.2028,-41.2775],[174.1769,-41.2504],[174.1573,-41.2644],[174.1505,-41.2481],[174.1345,-41.2585],[174.1463,-41.2317],[174.0792,-41.2492],[174.0882,-41.2688],[174.0652,-41.2517],[174.0395,-41.2688],[174.049,-41.2505],[174.0368,-41.2543],[174.0106,-41.2902],[174.0092,-41.2718],[173.9942,-41.2787],[174.011,-41.2585],[173.904,-41.2801],[173.9138,-41.2642],[173.9717,-41.2539],[173.966,-41.2227],[173.9828,-41.2508],[173.9978,-41.244],[173.9991,-41.217],[174.0247,-41.2408],[174.031,-41.2096],[174.0396,-41.2308],[174.0455,-41.2111],[174.0702,-41.2056],[174.0636,-41.2229],[174.0768,-41.2295],[174.0933,-41.2015],[174.1198,-41.22],[174.1123,-41.2054],[174.1252,-41.1923],[174.1565,-41.2134],[174.1527,-41.1732],[174.1805,-41.1797],[174.1696,-41.2021],[174.2027,-41.1832],[174.1842,-41.1747],[174.2007,-41.1541],[174.1593,-41.1497],[174.1662,-41.1356],[174.1472,-41.1279],[174.1453,-41.1084],[174.1639,-41.1164],[174.1805,-41.087],[174.1825,-41.1235],[174.1965,-41.1233],[174.1873,-41.1396],[174.2202,-41.1418],[174.2079,-41.1189],[174.2471,-41.1221],[174.2336,-41.0926],[174.2716,-41.0691],[174.2726,-41.0445],[174.2983,-41.035],[174.3146,-40.994],[174.289,-41.0345],[174.2413,-41.0406],[174.2182,-41.0713],[174.1671,-41.0431],[174.1834,-41.029],[174.1992,-41.0399],[174.1951,-41.012],[174.217,-41.0091],[174.2301,-40.985],[174.1824,-41.0113],[174.1559,-40.9686],[174.148,-40.9787],[174.1628,-40.9829],[174.1422,-40.9979],[174.1414,-41.0198],[174.0971,-40.9949],[174.1077,-41.0527],[174.0652,-41.014],[174.0667,-40.9961],[174.0465,-41.0178],[174.0086,-41.0101],[174.0141,-40.9647],[173.9923,-40.971],[173.995,-40.9953],[173.9696,-40.984],[173.9681,-41.0027],[173.9885,-41.0157],[173.9498,-41.0128],[173.9348,-41.0199],[173.9528,-41.0328],[173.9342,-41.0393],[173.9838,-41.0315],[173.9748,-41.0562],[174.009,-41.0174],[174.0494,-41.021],[174.0484,-41.0538],[174.0095,-41.0591],[174.0481,-41.1047],[174.038,-41.1142],[174.0105,-41.0949],[173.9865,-41.0997],[173.9942,-41.1357],[173.9735,-41.1278],[173.9654,-41.1504],[173.9502,-41.1146],[173.9765,-41.0788],[173.9332,-41.0838],[173.9309,-41.1134],[173.9086,-41.1093],[173.901,-41.1231],[173.9226,-41.1246],[173.8678,-41.1415],[173.9012,-41.1496],[173.8676,-41.1537],[173.898,-41.1684],[173.8722,-41.2095],[173.9669,-41.1721],[173.9656,-41.1892],[173.9983,-41.1953],[173.986,-41.1817],[174.0464,-41.1578],[174.0401,-41.1745],[174.0525,-41.1789],[174.1217,-41.1715],[174.0737,-41.1953],[174.0188,-41.1869],[174.0332,-41.2012],[173.9698,-41.2175],[173.9367,-41.219],[173.9466,-41.2003],[173.862,-41.2193],[173.9271,-41.2244],[173.8685,-41.2566],[173.8103,-41.2648],[173.827,-41.2857],[173.8548,-41.2783],[173.8345,-41.2929],[173.7823,-41.2636],[173.774,-41.2867],[173.7341,-41.2662],[173.8046,-41.2546],[173.7867,-41.2349],[173.822,-41.2502],[173.8505,-41.24],[173.8405,-41.2182],[173.8649,-41.176],[173.8289,-41.1728],[173.849,-41.1528],[173.785,-41.1765],[173.7776,-41.1528],[173.8375,-41.1445],[173.8313,-41.1356],[173.8562,-41.1226],[173.8442,-41.1137],[173.8835,-41.1212],[173.8885,-41.1004],[173.8577,-41.0979],[173.8691,-41.0789],[173.9064,-41.0912],[173.9054,-41.07],[173.9508,-41.0618],[173.832,-41.0526],[173.8084,-41.0924],[173.7947,-41.0832],[173.786,-41.1113],[173.7598,-41.1186],[173.7729,-41.094],[173.7505,-41.1014],[173.7799,-41.0851],[173.7867,-41.057],[173.7679,-41.0528],[173.8108,-41.0323],[173.7705,-41.0238],[173.8277,-40.9885],[173.8185,-41.02],[173.8628,-41.021],[173.8766,-41.0023],[173.9189,-40.996],[173.9296,-40.9831],[173.9026,-40.9882],[173.8985,-40.9773],[173.9261,-40.9613],[173.9556,-40.9667],[173.9504,-40.9417],[173.9754,-40.9377],[173.9568,-40.9229],[173.9885,-40.9092],[173.9973,-40.9472],[174.0231,-40.9106],[173.9794,-40.9049],[173.9792,-40.8884],[173.9312,-40.9256],[173.9074,-40.9267],[173.9169,-40.9432],[173.8519,-40.9901],[173.8319,-40.9811],[173.8555,-40.9293],[173.8351,-40.9243],[173.8055,-40.9716],[173.7857,-40.9681],[173.7977,-40.9843],[173.7773,-40.9902],[173.767,-40.9735],[173.7478,-41.0053],[173.7345,-40.9982],[173.6734,-41.0342],[173.6898,-41.0563],[173.7446,-41.0331],[173.7409,-41.0481],[173.7627,-41.0459],[173.6633,-41.0783],[173.6748,-41.1001],[173.665,-41.1109],[173.6469,-41.0888],[173.616,-41.1037],[173.6366,-41.0789],[173.5939,-41.0511],[173.5744,-41.1837],[173.4762,-41.2289],[173.4155,-41.2888],[173.4068,-41.331],[173.3607,-41.3532],[173.3375,-41.3855],[173.285,-41.4027],[173.2948,-41.4256],[173.2508,-41.4666],[173.3041,-41.506],[173.2986,-41.5157],[173.1724,-41.5241],[173.1515,-41.5856],[173.0893,-41.6242],[173.0587,-41.6257],[173.0574,-41.6685],[173.0038,-41.7248],[172.9579,-41.7495],[172.926,-41.7484],[172.9457,-41.7809],[172.8909,-41.8183],[172.8677,-41.8665],[172.8476,-41.8742],[172.8611,-41.9225],[172.8081,-41.9581],[172.7731,-42.0225],[172.733,-42.0345],[172.7215,-42.1585],[172.7496,-42.1724],[172.7938,-42.1617],[172.8069,-42.1895],[172.8321,-42.1845],[172.8266,-42.2482],[172.8635,-42.2562],[172.8423,-42.2895],[172.8469,-42.3079],[172.915,-42.3093],[172.9196,-42.3458],[172.9438,-42.3512],[172.9414,-42.3778],[173.0029,-42.3933],[172.9695,-42.4487],[173.0158,-42.4469],[173.0371,-42.4843],[173.0569,-42.4872],[173.1115,-42.446],[173.1521,-42.4498],[173.1642,-42.4186],[173.2201,-42.3808],[173.2242,-42.3563],[173.2418,-42.3559]]],[[[173.9068,-41.0172],[173.8702,-41.029],[173.9076,-41.0405],[173.8945,-41.027],[173.9068,-41.0172]]],[[[173.9562,-40.6933],[173.9385,-40.7463],[173.8837,-40.7687],[173.9331,-40.7691],[173.9267,-40.7838],[173.911,-40.7804],[173.9055,-40.8035],[173.8938,-40.7779],[173.8658,-40.8071],[173.8743,-40.7803],[173.8606,-40.7682],[173.8842,-40.7359],[173.8653,-40.7311],[173.8404,-40.7693],[173.8279,-40.7553],[173.8343,-40.7709],[173.7941,-40.8151],[173.8078,-40.8149],[173.8096,-40.8487],[173.8285,-40.8564],[173.8497,-40.8369],[173.8362,-40.8456],[173.8453,-40.8627],[173.7923,-40.8582],[173.7818,-40.8342],[173.77,-40.8958],[173.7841,-40.882],[173.7983,-40.8899],[173.7705,-40.9419],[173.8336,-40.9193],[173.8901,-40.8578],[173.9073,-40.8615],[173.8955,-40.8778],[173.9123,-40.8686],[173.9083,-40.8446],[173.957,-40.7962],[173.9395,-40.7875],[173.9615,-40.7576],[173.9677,-40.708],[173.9562,-40.6933]]],[[[174.0,-40.6637],[173.9862,-40.6772],[174.0092,-40.6699],[174.0,-40.6637]]],[[[174.0744,-41.5238],[174.0694,-41.5347],[174.0889,-41.5341],[174.0744,-41.5238]]],[[[174.239,-41.1593],[174.2213,-41.1902],[174.2544,-41.1792],[174.239,-41.1593]]],[[[174.3823,-41.0882],[174.3575,-41.1178],[174.3308,-41.1299],[174.3158,-41.118],[174.2877,-41.141],[174.3247,-41.131],[174.3391,-41.1468],[174.3745,-41.1252],[174.3646,-41.156],[174.3329,-41.1684],[174.3415,-41.1766],[174.3125,-41.1773],[174.3212,-41.1612],[174.3027,-41.1625],[174.2879,-41.1827],[174.258,-41.1815],[174.2549,-41.2036],[174.2268,-41.2032],[174.2328,-41.2168],[174.1949,-41.2092],[174.1609,-41.2419],[174.229,-41.2215],[174.2312,-41.2361],[174.2539,-41.2366],[174.2473,-41.2224],[174.28,-41.2086],[174.3709,-41.197],[174.3701,-41.1589],[174.3918,-41.1182],[174.3823,-41.0882]]],[[[174.0818,-40.9418],[174.0508,-40.952],[174.0746,-40.9572],[174.0493,-40.9795],[174.0594,-40.9951],[174.0875,-40.9699],[174.0818,-40.9418]]]]}},{"type":"Feature","properties":{"gid":"NZL.9_1","name":"尼尔森大区","nameEn":"Nelson","nameLocal":"Nelson","type":"大区","typeEn":"Region","groupZh":"大区","area":419.7,"iso":"NZ-NSN","engtype":"Region","capital":"尼尔森","pop":52584,"blurb":"阳光最充足的单一制区。"},"geometry":{"type":"Polygon","coordinates":[[[173.5971,-41.059],[173.514,-41.1044],[173.4826,-41.1569],[173.4416,-41.1611],[173.4636,-41.1664],[173.4258,-41.1748],[173.4135,-41.1611],[173.4443,-41.1644],[173.4365,-41.1416],[173.413,-41.1383],[173.4158,-41.1592],[173.3189,-41.207],[173.3119,-41.25],[173.2061,-41.2988],[173.2251,-41.3025],[173.2052,-41.3064],[173.2209,-41.3041],[173.1989,-41.3306],[173.2564,-41.3822],[173.3376,-41.3855],[173.3607,-41.3532],[173.4147,-41.3231],[173.4155,-41.2888],[173.4761,-41.229],[173.5744,-41.1837],[173.5971,-41.059]]]}},{"type":"Feature","properties":{"gid":"NZL.10_1","name":"北部群岛","nameEn":"Northern Islands","nameLocal":"Northern Islands","type":"群岛","typeEn":"Group of islands","groupZh":"群岛","area":35.9,"iso":"NA","engtype":"Group of islands","capital":"—","pop":0,"blurb":"三王群岛与克马德克群岛等远海岛屿，无常住人口。"},"geometry":{"type":"MultiPolygon","coordinates":[[[[172.1508,-34.1444],[172.1208,-34.1569],[172.1522,-34.1676],[172.1508,-34.1444]]],[[[-178.4234,-30.2253],[-178.4408,-30.2301],[-178.4314,-30.2431],[-178.4234,-30.2253]]],[[[-177.9455,-29.2414],[-177.9822,-29.2428],[-177.9444,-29.2652],[-177.959,-29.2967],[-177.9245,-29.2997],[-177.9147,-29.2794],[-177.8864,-29.2797],[-177.898,-29.2519],[-177.9455,-29.2414]]]]}},{"type":"Feature","properties":{"gid":"NZL.11_1","name":"北地大区","nameEn":"Northland","nameLocal":"Northland","type":"大区","typeEn":"Region","groupZh":"大区","area":12551.0,"iso":"NZ-NTL","engtype":"Region","capital":"旺阿雷","pop":194007,"blurb":"伸向亚热带的半岛，毛利文化发源之地。"},"geometry":{"type":"MultiPolygon","coordinates":[[[[174.7056,-35.9557],[174.7067,-35.9698],[174.7467,-35.9672],[174.7056,-35.9557]]],[[[174.3101,-35.3019],[174.2928,-35.2647],[174.3257,-35.2482],[174.2945,-35.2538],[174.3129,-35.237],[174.2909,-35.2324],[174.3151,-35.2205],[174.3185,-35.1949],[174.3405,-35.1909],[174.3344,-35.1721],[174.294,-35.1864],[174.305,-35.1997],[174.2895,-35.2018],[174.2836,-35.227],[174.2519,-35.2219],[174.2604,-35.2358],[174.2379,-35.2436],[174.2637,-35.2609],[174.1883,-35.2483],[174.2122,-35.2525],[174.2129,-35.2816],[174.1779,-35.2631],[174.1964,-35.2785],[174.1679,-35.2768],[174.1196,-35.2415],[174.1127,-35.2584],[174.1487,-35.2885],[174.1147,-35.283],[174.1217,-35.3083],[174.1623,-35.3054],[174.1673,-35.2914],[174.1759,-35.3049],[174.1909,-35.2952],[174.195,-35.3121],[174.2073,-35.2956],[174.2145,-35.3052],[174.199,-35.3099],[174.2332,-35.3255],[174.2131,-35.3414],[174.2095,-35.3217],[174.1581,-35.3127],[174.1427,-35.3212],[174.1806,-35.3313],[174.1447,-35.3283],[174.136,-35.3414],[174.1337,-35.3148],[174.1233,-35.3447],[174.1072,-35.3448],[174.1435,-35.3667],[174.1041,-35.3622],[174.1179,-35.3313],[174.0937,-35.3331],[174.1215,-35.3119],[174.1019,-35.3081],[174.0798,-35.2728],[174.0703,-35.2849],[174.0507,-35.2781],[174.067,-35.2712],[174.0594,-35.2618],[174.0834,-35.2717],[174.0764,-35.238],[174.058,-35.2286],[174.071,-35.2108],[173.9626,-35.2173],[174.0109,-35.1879],[174.0504,-35.1932],[174.0037,-35.1725],[174.0038,-35.1572],[173.9834,-35.1585],[173.9774,-35.1754],[173.9793,-35.1534],[174.0042,-35.1376],[174.0387,-35.168],[174.0438,-35.1441],[174.0695,-35.1463],[174.0696,-35.1585],[174.0449,-35.1556],[174.0671,-35.1942],[174.0879,-35.1713],[174.1213,-35.1716],[174.1262,-35.1563],[174.0976,-35.1509],[174.0746,-35.1149],[173.9633,-35.1189],[173.936,-35.0895],[173.9274,-35.0613],[173.9385,-35.0527],[173.914,-35.0389],[173.9199,-35.0268],[173.8931,-35.01],[173.8597,-35.0193],[173.8436,-34.9988],[173.8618,-34.9898],[173.7552,-35.0111],[173.7831,-35.0383],[173.7583,-35.0346],[173.7751,-35.0512],[173.763,-35.0537],[173.7481,-35.0375],[173.7407,-35.0673],[173.7555,-35.0745],[173.7406,-35.071],[173.7381,-35.086],[173.7196,-35.084],[173.7179,-35.0603],[173.7004,-35.055],[173.7474,-35.0251],[173.7489,-35.0135],[173.722,-35.0061],[173.7573,-35.0002],[173.7123,-34.9946],[173.6998,-34.9517],[173.6462,-34.9668],[173.6209,-34.9388],[173.5726,-34.9443],[173.5592,-34.9136],[173.5263,-34.9508],[173.534,-34.984],[173.5477,-34.9734],[173.5622,-34.9862],[173.5609,-35.013],[173.551,-35.0173],[173.5506,-34.9995],[173.5427,-35.0109],[173.5262,-34.9804],[173.4677,-34.9936],[173.4253,-34.982],[173.3777,-34.9337],[173.373,-34.8816],[173.4136,-34.8809],[173.4701,-34.8494],[173.4406,-34.8356],[173.45,-34.8249],[173.4119,-34.8332],[173.413,-34.7972],[173.3989,-34.7838],[173.3836,-34.8396],[173.2861,-34.8621],[173.3392,-34.9536],[173.3161,-35.0102],[173.3081,-34.9934],[173.2959,-35.0185],[173.2823,-35.0155],[173.2914,-35.0002],[173.2506,-34.9928],[173.2368,-35.0082],[173.2519,-35.021],[173.2351,-35.0087],[173.2306,-35.0191],[173.236,-34.9949],[173.2201,-34.9955],[173.2126,-34.9677],[173.2364,-34.9377],[173.2137,-34.9336],[173.2685,-34.9217],[173.2808,-34.8925],[173.1942,-34.8683],[173.1508,-34.8223],[173.132,-34.8317],[173.0786,-34.7589],[173.1254,-34.7771],[173.1327,-34.8074],[173.1561,-34.8231],[173.1688,-34.8251],[173.1746,-34.8025],[173.1514,-34.788],[173.1546,-34.766],[173.1317,-34.7628],[173.0351,-34.6708],[172.9852,-34.528],[172.9572,-34.533],[172.9887,-34.5721],[172.9765,-34.6206],[172.9475,-34.5941],[172.9643,-34.5878],[172.9407,-34.5846],[172.9724,-34.5736],[172.9633,-34.5578],[172.9495,-34.551],[172.9267,-34.5875],[172.9131,-34.5866],[172.9271,-34.5765],[172.9081,-34.5793],[172.9292,-34.5722],[172.9061,-34.5606],[172.9345,-34.5543],[172.9463,-34.5274],[172.9195,-34.5521],[172.8535,-34.5401],[172.8952,-34.5312],[172.8608,-34.5093],[172.8874,-34.5101],[172.905,-34.5328],[172.924,-34.5163],[172.9006,-34.4957],[172.9237,-34.4903],[172.8902,-34.4785],[172.9006,-34.4654],[172.9312,-34.4711],[172.9226,-34.487],[172.946,-34.4747],[172.922,-34.5019],[172.9516,-34.489],[172.9517,-34.5013],[172.9767,-34.4985],[172.9667,-34.5208],[173.0004,-34.5149],[173.0124,-34.4277],[173.048,-34.4117],[173.0305,-34.3973],[173.0049,-34.3946],[172.9644,-34.4264],[172.8575,-34.414],[172.8375,-34.4435],[172.7952,-34.4541],[172.6796,-34.4202],[172.6728,-34.4601],[172.6434,-34.4742],[172.6903,-34.4906],[172.7038,-34.5235],[172.7379,-34.5334],[172.8498,-34.6283],[173.1358,-34.9687],[173.1732,-35.0592],[173.1692,-35.1357],[173.1346,-35.1773],[173.0706,-35.1642],[173.0543,-35.1914],[173.1629,-35.2925],[173.21,-35.2606],[173.1826,-35.287],[173.2008,-35.2961],[173.1564,-35.3006],[173.2142,-35.3783],[173.2329,-35.3552],[173.2197,-35.3346],[173.2479,-35.3283],[173.2231,-35.3172],[173.2434,-35.3215],[173.2814,-35.2768],[173.2531,-35.3344],[173.2317,-35.3392],[173.2753,-35.3381],[173.2305,-35.3583],[173.2194,-35.3823],[173.3541,-35.5211],[173.3685,-35.5227],[173.3697,-35.4963],[173.3868,-35.4862],[173.3739,-35.4736],[173.3892,-35.4344],[173.3607,-35.4329],[173.3597,-35.4196],[173.4083,-35.4302],[173.3817,-35.3893],[173.399,-35.4103],[173.4208,-35.3939],[173.4071,-35.3832],[173.4249,-35.3907],[173.423,-35.4077],[173.4363,-35.3899],[173.4393,-35.404],[173.4812,-35.4001],[173.4805,-35.3832],[173.4319,-35.358],[173.4583,-35.3737],[173.4759,-35.3629],[173.4859,-35.3859],[173.5397,-35.3749],[173.5447,-35.3348],[173.524,-35.314],[173.5209,-35.2752],[173.5429,-35.2614],[173.535,-35.2434],[173.5497,-35.26],[173.5262,-35.2746],[173.5492,-35.3384],[173.5721,-35.3283],[173.5636,-35.3008],[173.5816,-35.3261],[173.5696,-35.3372],[173.5887,-35.3455],[173.6102,-35.3049],[173.6421,-35.3063],[173.6166,-35.3147],[173.6264,-35.3205],[173.6135,-35.344],[173.5847,-35.3601],[173.5934,-35.3721],[173.5617,-35.3548],[173.5554,-35.3848],[173.5396,-35.3786],[173.5248,-35.4055],[173.5366,-35.4251],[173.5535,-35.4086],[173.5835,-35.4206],[173.5915,-35.4406],[173.6193,-35.437],[173.5913,-35.4409],[173.5803,-35.4205],[173.5476,-35.4104],[173.5452,-35.4329],[173.5287,-35.4387],[173.5351,-35.4274],[173.5177,-35.4226],[173.5053,-35.3915],[173.4963,-35.4217],[173.5252,-35.4504],[173.5034,-35.4456],[173.499,-35.4573],[173.4812,-35.4075],[173.4625,-35.4068],[173.4724,-35.4289],[173.438,-35.4133],[173.4422,-35.4308],[173.4699,-35.4418],[173.448,-35.4378],[173.4648,-35.4541],[173.4231,-35.4198],[173.42,-35.4692],[173.4017,-35.4724],[173.4282,-35.486],[173.4105,-35.4798],[173.3862,-35.5353],[173.3672,-35.5336],[173.3651,-35.5472],[173.4108,-35.5914],[173.427,-35.5821],[173.4144,-35.5939],[173.44,-35.6388],[173.6347,-35.8312],[173.9667,-36.2092],[174.0136,-36.2949],[174.0421,-36.3933],[174.1422,-36.3899],[174.1813,-36.3647],[174.1809,-36.3359],[174.1584,-36.3009],[174.1216,-36.3013],[174.1571,-36.2914],[174.1553,-36.276],[174.122,-36.2584],[174.0966,-36.2686],[174.1086,-36.2521],[174.0788,-36.2363],[174.074,-36.2054],[174.039,-36.1903],[173.9856,-36.1255],[174.0213,-36.1372],[174.0458,-36.1701],[174.1207,-36.1675],[174.1538,-36.2143],[174.2273,-36.2635],[174.2735,-36.2339],[174.2933,-36.2382],[174.2876,-36.2155],[174.2665,-36.2192],[174.2627,-36.1936],[174.2491,-36.2124],[174.2451,-36.1963],[174.2319,-36.2148],[174.2177,-36.2083],[174.2397,-36.1854],[174.1948,-36.1961],[174.205,-36.1764],[174.2359,-36.1824],[174.2099,-36.1591],[174.1874,-36.175],[174.1924,-36.1596],[174.1696,-36.159],[174.199,-36.1508],[174.1622,-36.142],[174.1899,-36.1417],[174.1857,-36.1229],[174.206,-36.1371],[174.2334,-36.1058],[174.2179,-36.1207],[174.2264,-36.1596],[174.2395,-36.122],[174.27,-36.117],[174.2389,-36.1381],[174.2358,-36.1712],[174.2542,-36.1836],[174.2436,-36.1657],[174.2567,-36.1773],[174.2964,-36.1635],[174.2835,-36.1777],[174.3129,-36.1723],[174.266,-36.1853],[174.297,-36.2119],[174.3296,-36.1927],[174.3144,-36.2009],[174.3145,-36.2259],[174.3603,-36.2035],[174.3673,-36.1605],[174.3849,-36.1558],[174.3613,-36.1226],[174.3684,-36.1117],[174.3886,-36.1447],[174.4242,-36.138],[174.4317,-36.1575],[174.3889,-36.1477],[174.401,-36.1574],[174.3722,-36.169],[174.4038,-36.1707],[174.3935,-36.1863],[174.3733,-36.1812],[174.3814,-36.2094],[174.3685,-36.2039],[174.3403,-36.2192],[174.3561,-36.2266],[174.3394,-36.2259],[174.3451,-36.2353],[174.3224,-36.234],[174.3235,-36.2491],[174.3669,-36.272],[174.3611,-36.2809],[174.3419,-36.2823],[174.3489,-36.2672],[174.3324,-36.263],[174.3182,-36.2725],[174.3075,-36.2437],[174.2706,-36.2622],[174.2841,-36.2954],[174.3023,-36.2901],[174.3125,-36.3136],[174.3398,-36.3169],[174.3737,-36.2756],[174.3977,-36.2881],[174.4258,-36.2713],[174.4249,-36.2528],[174.4674,-36.2587],[174.4701,-36.2123],[174.4835,-36.2302],[174.523,-36.2101],[174.5329,-36.1847],[174.5809,-36.1664],[174.5847,-36.1431],[174.6166,-36.1175],[174.5941,-36.0836],[174.6017,-36.1139],[174.568,-36.1409],[174.5807,-36.1241],[174.5649,-36.0934],[174.584,-36.1155],[174.5967,-36.1086],[174.5897,-36.0481],[174.5397,-36.0486],[174.5098,-36.0304],[174.4717,-35.9712],[174.4616,-35.9051],[174.4992,-35.8379],[174.4734,-35.8393],[174.4543,-35.8182],[174.4231,-35.8384],[174.4261,-35.8265],[174.4048,-35.831],[174.3829,-35.8139],[174.3683,-35.8347],[174.3718,-35.8063],[174.3561,-35.8133],[174.3596,-35.8338],[174.3406,-35.8369],[174.3564,-35.8437],[174.3063,-35.8373],[174.3408,-35.8212],[174.3226,-35.8101],[174.341,-35.7915],[174.3315,-35.7779],[174.3059,-35.7847],[174.3225,-35.7613],[174.3512,-35.7584],[174.3481,-35.7368],[174.3345,-35.7382],[174.3441,-35.7313],[174.3613,-35.7393],[174.3611,-35.776],[174.3778,-35.757],[174.4426,-35.7958],[174.4302,-35.7813],[174.4782,-35.7715],[174.4573,-35.7928],[174.4897,-35.7875],[174.5041,-35.8111],[174.4967,-35.828],[174.5328,-35.8345],[174.5308,-35.8621],[174.5915,-35.8536],[174.5488,-35.7873],[174.5608,-35.7629],[174.551,-35.7466],[174.5625,-35.7454],[174.5517,-35.7284],[174.5672,-35.7174],[174.5365,-35.7259],[174.5522,-35.7344],[174.5389,-35.7527],[174.514,-35.7554],[174.5403,-35.7369],[174.526,-35.7263],[174.5415,-35.711],[174.4817,-35.7362],[174.4991,-35.7317],[174.4992,-35.7131],[174.5252,-35.7137],[174.5023,-35.649],[174.5143,-35.6302],[174.4668,-35.653],[174.436,-35.6346],[174.4847,-35.6347],[174.4782,-35.643],[174.5141,-35.6271],[174.536,-35.6401],[174.5419,-35.6202],[174.5245,-35.6107],[174.5417,-35.6122],[174.5362,-35.5806],[174.5063,-35.5667],[174.5109,-35.5561],[174.4728,-35.5558],[174.4592,-35.5312],[174.4683,-35.5121],[174.4506,-35.5256],[174.4292,-35.5178],[174.4367,-35.5051],[174.4801,-35.5144],[174.4531,-35.4681],[174.428,-35.4557],[174.4316,-35.4273],[174.4087,-35.4435],[174.3933,-35.43],[174.3628,-35.4362],[174.3753,-35.4196],[174.3575,-35.4159],[174.3395,-35.3634],[174.3131,-35.3571],[174.3292,-35.3452],[174.313,-35.3474],[174.3027,-35.3226],[174.3557,-35.3488],[174.3572,-35.373],[174.3722,-35.3799],[174.3818,-35.3606],[174.3501,-35.3362],[174.3774,-35.3189],[174.3369,-35.3254],[174.3101,-35.3019]]],[[[174.1922,-35.2163],[174.1815,-35.2232],[174.1952,-35.2323],[174.1922,-35.2163]]],[[[174.2319,-35.2055],[174.2169,-35.213],[174.233,-35.228],[174.2439,-35.2188],[174.2319,-35.2055]]],[[[173.9544,-34.9867],[173.9322,-34.9977],[173.9426,-35.0166],[173.9544,-34.9867]]]]}},{"type":"Feature","properties":{"gid":"NZL.12_1","name":"奥塔哥大区","nameEn":"Otago","nameLocal":"Otago","type":"大区","typeEn":"Region","groupZh":"大区","area":28917.5,"iso":"NZ-OTA","engtype":"Region","capital":"达尼丁","pop":240900,"blurb":"南岛东南，皇后镇与中奥塔哥葡萄酒。"},"geometry":{"type":"Polygon","coordinates":[[[170.2034,-46.0519],[170.2896,-45.968],[170.342,-45.9427],[170.5403,-45.9049],[170.6631,-45.9038],[170.6872,-45.892],[170.6606,-45.851],[170.6868,-45.8623],[170.6805,-45.8813],[170.7479,-45.8729],[170.7485,-45.8459],[170.6802,-45.8462],[170.7323,-45.8451],[170.7509,-45.8046],[170.7283,-45.7722],[170.721,-45.7982],[170.6692,-45.8145],[170.6719,-45.8331],[170.6425,-45.8243],[170.6511,-45.8393],[170.6027,-45.8453],[170.5968,-45.8696],[170.5072,-45.8872],[170.5677,-45.862],[170.6055,-45.8208],[170.6184,-45.8275],[170.6285,-45.7964],[170.7178,-45.7866],[170.6922,-45.7554],[170.6613,-45.7602],[170.6385,-45.7385],[170.6261,-45.7632],[170.6181,-45.7343],[170.5681,-45.7404],[170.5776,-45.7152],[170.6021,-45.7281],[170.6101,-45.6965],[170.6743,-45.6402],[170.6462,-45.6215],[170.6631,-45.6399],[170.6824,-45.6123],[170.674,-45.5984],[170.6946,-45.6193],[170.7253,-45.5959],[170.7275,-45.5496],[170.6368,-45.5598],[170.6115,-45.5758],[170.5618,-45.5539],[170.5529,-45.5094],[170.4816,-45.5092],[170.4764,-45.533],[170.4193,-45.5187],[170.3775,-45.5545],[170.3417,-45.5458],[170.3593,-45.5212],[170.31,-45.4979],[170.2094,-45.5067],[170.2092,-45.4819],[170.2849,-45.4442],[170.2843,-45.3496],[170.3249,-45.3625],[170.3251,-45.3241],[170.3949,-45.3279],[170.4209,-45.3079],[170.3941,-45.2686],[170.3136,-45.2684],[170.3137,-45.2425],[170.3499,-45.2414],[170.3831,-45.2125],[170.3642,-45.187],[170.412,-45.1756],[170.4395,-45.1337],[170.4039,-45.1226],[170.3978,-45.0809],[170.3494,-45.0217],[170.3473,-44.9896],[170.3734,-44.9524],[170.3491,-44.9431],[170.3502,-44.9078],[170.3194,-44.903],[170.3017,-44.9195],[170.252,-44.9188],[170.1645,-44.946],[170.0941,-44.94],[170.0687,-44.9232],[170.0819,-44.9121],[170.0638,-44.8836],[170.0309,-44.8701],[169.9978,-44.8247],[169.9442,-44.654],[169.8913,-44.6443],[169.8362,-44.6689],[169.8056,-44.6613],[169.7549,-44.6389],[169.7572,-44.6121],[169.7306,-44.5651],[169.7085,-44.601],[169.641,-44.596],[169.6407,-44.5648],[169.6634,-44.5372],[169.6343,-44.5018],[169.6419,-44.4664],[169.5425,-44.4486],[169.5788,-44.3401],[169.5684,-44.3193],[169.5806,-44.2523],[169.5432,-44.2078],[169.6058,-44.1585],[169.5989,-44.1503],[169.6387,-44.1199],[169.665,-44.0677],[169.6821,-44.0683],[169.686,-44.0419],[169.7194,-44.0367],[169.6953,-43.9597],[169.5928,-43.9581],[169.579,-44.0341],[169.4626,-44.0593],[169.3871,-44.1187],[169.3387,-44.1025],[169.309,-44.0606],[169.2908,-44.0627],[169.2573,-44.1081],[169.1597,-44.1049],[169.1459,-44.0799],[169.0736,-44.1096],[169.0134,-44.1148],[169.0159,-44.1309],[168.9751,-44.144],[168.9874,-44.1689],[168.9652,-44.1738],[168.9592,-44.2058],[168.9109,-44.2098],[168.8494,-44.2461],[168.8573,-44.2697],[168.8318,-44.3518],[168.7534,-44.3922],[168.7433,-44.4206],[168.6862,-44.392],[168.5861,-44.4538],[168.5235,-44.4604],[168.4606,-44.4955],[168.2897,-44.4964],[168.2349,-44.5426],[168.2369,-44.5758],[168.185,-44.6461],[168.1925,-44.6807],[168.1692,-44.7213],[168.1819,-44.7452],[168.2053,-44.7463],[168.1676,-44.8283],[168.1274,-44.8286],[168.1164,-44.8808],[168.1372,-44.9135],[168.1317,-44.9391],[168.2218,-45.0169],[168.2489,-45.0273],[168.2961,-45.0139],[168.3097,-45.026],[168.2914,-45.0405],[168.2842,-45.1062],[168.217,-45.1444],[168.2394,-45.1544],[168.2515,-45.1995],[168.2997,-45.2212],[168.2882,-45.2449],[168.307,-45.2604],[168.3003,-45.2939],[168.3233,-45.3275],[168.5394,-45.3093],[168.6741,-45.2431],[168.6978,-45.3119],[168.6922,-45.3397],[168.7746,-45.3652],[168.7787,-45.4366],[168.8252,-45.4461],[168.854,-45.4321],[168.8588,-45.452],[168.8869,-45.4628],[168.9596,-45.3591],[169.0677,-45.269],[169.0902,-45.2861],[169.0993,-45.3199],[169.1482,-45.3388],[169.1707,-45.3805],[169.2093,-45.4024],[169.1996,-45.4343],[169.1472,-45.4506],[169.1303,-45.5247],[169.0587,-45.6411],[169.0247,-45.6596],[168.9934,-45.7285],[169.0035,-45.7958],[169.0289,-45.8089],[169.0052,-45.8635],[169.0504,-45.864],[169.0566,-45.8501],[169.0991,-45.8844],[169.0734,-45.9247],[169.0997,-45.948],[169.0672,-45.9804],[169.0727,-46.0016],[169.1264,-46.0018],[169.0797,-46.0083],[169.158,-46.0622],[169.1356,-46.0854],[169.1633,-46.0958],[169.1632,-46.1171],[169.1298,-46.1477],[169.1609,-46.1521],[169.1669,-46.1918],[169.1983,-46.2004],[169.189,-46.2799],[169.1768,-46.2857],[169.1969,-46.3043],[169.1774,-46.3219],[169.1908,-46.3264],[169.1424,-46.3535],[169.1341,-46.3754],[169.1959,-46.4042],[169.1968,-46.4388],[169.1619,-46.4678],[169.1777,-46.4898],[169.2507,-46.5147],[169.2253,-46.5501],[169.1905,-46.5569],[169.2649,-46.5859],[169.2654,-46.6157],[169.3535,-46.6381],[169.3793,-46.607],[169.4381,-46.6128],[169.4474,-46.6059],[169.4333,-46.5914],[169.4677,-46.5807],[169.477,-46.5611],[169.5619,-46.5611],[169.5852,-46.5783],[169.6169,-46.5403],[169.6979,-46.5203],[169.6928,-46.51],[169.7229,-46.4903],[169.7051,-46.4734],[169.683,-46.4849],[169.6635,-46.4713],[169.6295,-46.4902],[169.6152,-46.4798],[169.6542,-46.4668],[169.7534,-46.4832],[169.7811,-46.4525],[169.8191,-46.4497],[169.7942,-46.4347],[169.7999,-46.4122],[169.7803,-46.3976],[169.7924,-46.3606],[170.1709,-46.1531],[170.2003,-46.0919],[170.1922,-46.0528],[170.2034,-46.0519]]]}},{"type":"Feature","properties":{"gid":"NZL.13_1","name":"南部群岛","nameEn":"Southern Islands","nameLocal":"Southern Islands","type":"群岛","typeEn":"Group of islands","groupZh":"群岛","area":707.1,"iso":"NA","engtype":"Group of islands","capital":"—","pop":0,"blurb":"亚南极群岛（斯奈尔斯、奥克兰群岛等），世界遗产，无常住人口。"},"geometry":{"type":"MultiPolygon","coordinates":[[[[165.9261,-50.8444],[165.9162,-50.8367],[165.9188,-50.8517],[165.8968,-50.8549],[165.9127,-50.8622],[165.9153,-50.8871],[165.9518,-50.8814],[165.9564,-50.9042],[166.027,-50.9076],[166.0717,-50.9297],[166.125,-50.9192],[166.085,-50.8917],[166.1379,-50.9161],[166.1806,-50.9013],[166.1689,-50.8831],[166.2083,-50.8822],[166.0761,-50.8483],[166.0567,-50.8653],[165.9883,-50.8664],[165.9261,-50.8444]]],[[[166.1844,-50.5133],[166.1639,-50.5226],[166.1489,-50.5117],[166.1261,-50.5347],[166.1294,-50.5091],[166.0347,-50.5424],[166.0679,-50.5361],[166.0917,-50.5522],[166.0607,-50.5624],[166.0994,-50.5794],[166.0683,-50.645],[166.0828,-50.6731],[166.0278,-50.7158],[165.8776,-50.7696],[165.8895,-50.7798],[165.8682,-50.7997],[165.882,-50.841],[165.9156,-50.8311],[165.9194,-50.8126],[165.9367,-50.8411],[166.0161,-50.8522],[166.0261,-50.8436],[165.9931,-50.8179],[166.0133,-50.8211],[166.0139,-50.8078],[165.9818,-50.7857],[165.9924,-50.7721],[166.0111,-50.7986],[166.0383,-50.8028],[166.0067,-50.7703],[166.0189,-50.7453],[166.0611,-50.7633],[166.0694,-50.8078],[166.0444,-50.8294],[166.0739,-50.8253],[166.0778,-50.8072],[166.1711,-50.8609],[166.2422,-50.8494],[166.23,-50.8431],[166.2417,-50.8233],[166.2014,-50.8164],[166.2317,-50.8072],[166.1717,-50.8039],[166.2267,-50.7922],[166.1917,-50.7917],[166.2211,-50.7742],[166.2054,-50.7538],[166.1328,-50.7772],[166.1933,-50.7411],[166.1074,-50.7388],[166.1689,-50.725],[166.145,-50.7131],[166.08,-50.7192],[166.2006,-50.7161],[166.2028,-50.6944],[166.1283,-50.705],[166.1628,-50.6878],[166.1511,-50.6828],[166.1911,-50.6778],[166.1633,-50.6533],[166.2111,-50.6581],[166.1717,-50.6319],[166.2044,-50.6361],[166.1639,-50.6011],[166.215,-50.6306],[166.2439,-50.6075],[166.2111,-50.6039],[166.225,-50.5881],[166.2109,-50.5824],[166.2861,-50.5836],[166.26,-50.5525],[166.2906,-50.5394],[166.2728,-50.5389],[166.2772,-50.5239],[166.2228,-50.5569],[166.1706,-50.5608],[166.2172,-50.5486],[166.2122,-50.5378],[166.2372,-50.5194],[166.2006,-50.5267],[166.1844,-50.5133]]],[[[166.3078,-50.4869],[166.2728,-50.49],[166.2594,-50.5067],[166.3222,-50.5058],[166.3078,-50.4869]]],[[[166.6069,-48.0153],[166.563,-48.0331],[166.6131,-48.0397],[166.6069,-48.0153]]],[[[169.2117,-52.4672],[169.1379,-52.4751],[169.1579,-52.4861],[169.1007,-52.5497],[169.0423,-52.5316],[169.0156,-52.5444],[169.0389,-52.5688],[169.0844,-52.5655],[169.1044,-52.5896],[169.1283,-52.5908],[169.1328,-52.6086],[169.1471,-52.5956],[169.1853,-52.6038],[169.1743,-52.591],[169.2078,-52.6018],[169.2422,-52.5744],[169.1739,-52.5522],[169.1333,-52.5606],[169.1575,-52.5449],[169.2023,-52.5451],[169.2621,-52.5637],[169.2673,-52.5492],[169.2325,-52.5424],[169.2409,-52.5101],[169.1906,-52.5217],[169.2386,-52.5059],[169.2189,-52.5019],[169.2283,-52.4714],[169.2117,-52.4672]]],[[[178.8007,-49.6653],[178.7279,-49.6851],[178.7508,-49.7119],[178.7829,-49.7142],[178.812,-49.6772],[178.8007,-49.6653]]]]}},{"type":"Feature","properties":{"gid":"NZL.14_1","name":"南地大区","nameEn":"Southland","nameLocal":"Southland","type":"大区","typeEn":"Region","groupZh":"大区","area":31661.4,"iso":"NZ-STL","engtype":"Region","capital":"因弗卡吉尔","pop":100143,"blurb":"最南端大区，峡湾与牧业。"},"geometry":{"type":"MultiPolygon","coordinates":[[[[168.1274,-46.9249],[168.1093,-46.9266],[168.1562,-46.9365],[168.1274,-46.9249]]],[[[168.5309,-46.7358],[168.5114,-46.7578],[168.4796,-46.7534],[168.4998,-46.7691],[168.4708,-46.7717],[168.5063,-46.7798],[168.5115,-46.7996],[168.5443,-46.7713],[168.5488,-46.7525],[168.5309,-46.7358]]],[[[168.242,-46.9027],[168.2277,-46.9136],[168.2506,-46.9152],[168.242,-46.9027]]],[[[168.4462,-46.5781],[168.4689,-46.5817],[168.4335,-46.576],[168.4462,-46.5781]]],[[[168.5105,-46.5741],[168.5243,-46.5974],[168.4297,-46.5853],[168.4176,-46.5711],[168.3606,-46.6002],[168.5141,-46.6078],[168.592,-46.5864],[168.5658,-46.592],[168.5896,-46.5833],[168.5483,-46.5572],[168.603,-46.5519],[168.798,-46.5828],[168.8315,-46.6086],[168.8237,-46.6258],[168.8467,-46.6607],[168.9387,-46.6572],[169.0056,-46.6745],[169.0392,-46.6605],[169.0567,-46.6718],[169.106,-46.6631],[169.112,-46.6443],[169.1423,-46.6423],[169.1267,-46.6395],[169.1415,-46.6303],[169.1288,-46.6031],[169.1705,-46.6236],[169.136,-46.6455],[169.1697,-46.6574],[169.204,-46.662],[169.2784,-46.6239],[169.2649,-46.5859],[169.1905,-46.5569],[169.2256,-46.5498],[169.2499,-46.5127],[169.1777,-46.4898],[169.1614,-46.4669],[169.1968,-46.4388],[169.196,-46.4044],[169.1341,-46.3754],[169.1424,-46.3535],[169.1908,-46.3264],[169.1774,-46.3219],[169.1969,-46.3043],[169.1768,-46.2857],[169.189,-46.2799],[169.1983,-46.2004],[169.1669,-46.1918],[169.1609,-46.1521],[169.1298,-46.1477],[169.1632,-46.1171],[169.1633,-46.0958],[169.1356,-46.0854],[169.1579,-46.0684],[169.1533,-46.0487],[169.1035,-46.036],[169.0797,-46.0083],[169.1278,-46.0031],[169.0727,-46.0016],[169.0666,-45.9853],[169.0997,-45.948],[169.0734,-45.9247],[169.0991,-45.8844],[169.0566,-45.8501],[169.0504,-45.864],[169.0052,-45.8635],[169.0289,-45.8089],[169.0035,-45.7958],[168.9934,-45.7285],[169.0247,-45.6596],[169.0587,-45.6411],[169.1303,-45.5247],[169.1472,-45.4505],[169.1993,-45.4345],[169.2109,-45.4093],[169.1707,-45.3805],[169.1482,-45.3388],[169.0993,-45.3199],[169.0902,-45.2861],[169.0677,-45.269],[168.9596,-45.3591],[168.8869,-45.4628],[168.8588,-45.452],[168.854,-45.4321],[168.8252,-45.4461],[168.7787,-45.4366],[168.7746,-45.3652],[168.6922,-45.3397],[168.6978,-45.3119],[168.6741,-45.2431],[168.5394,-45.3093],[168.3233,-45.3275],[168.3003,-45.2939],[168.307,-45.2604],[168.2882,-45.2449],[168.2997,-45.2212],[168.2515,-45.1995],[168.2394,-45.1544],[168.217,-45.1444],[168.2842,-45.1062],[168.2914,-45.0405],[168.3097,-45.026],[168.2959,-45.0138],[168.2357,-45.0243],[168.1746,-44.981],[168.1761,-44.9663],[168.131,-44.938],[168.1372,-44.9135],[168.1165,-44.8764],[168.1274,-44.8286],[168.1676,-44.8283],[168.2044,-44.7489],[168.1817,-44.745],[168.1692,-44.7213],[168.1925,-44.6807],[168.185,-44.6461],[168.2369,-44.5758],[168.2346,-44.543],[168.2897,-44.4964],[168.3368,-44.4954],[168.366,-44.4244],[168.3518,-44.4042],[168.4114,-44.3616],[168.3684,-44.3545],[168.3814,-44.3381],[168.3482,-44.3291],[168.3454,-44.2821],[168.3056,-44.2792],[168.2804,-44.2601],[168.2258,-44.2564],[168.1577,-44.2822],[168.0521,-44.2586],[168.1196,-44.2909],[168.0904,-44.3312],[167.9942,-44.3286],[168.0179,-44.3838],[168.058,-44.4123],[168.0758,-44.5186],[168.0555,-44.511],[168.0495,-44.451],[168.0006,-44.3681],[168.0022,-44.3372],[167.9871,-44.3779],[167.9313,-44.3901],[167.8722,-44.4348],[167.8439,-44.4847],[167.8156,-44.4957],[167.8308,-44.5282],[167.8172,-44.5991],[167.9131,-44.6233],[167.9287,-44.6718],[167.9132,-44.6721],[167.9286,-44.6828],[167.9134,-44.6859],[167.8725,-44.6256],[167.8062,-44.6031],[167.7825,-44.5721],[167.75,-44.581],[167.7381,-44.6034],[167.6333,-44.6421],[167.6632,-44.6848],[167.6134,-44.6599],[167.5653,-44.685],[167.5606,-44.7179],[167.6203,-44.7482],[167.6319,-44.7827],[167.5933,-44.7391],[167.5268,-44.7314],[167.4939,-44.7529],[167.548,-44.8023],[167.5003,-44.8528],[167.5312,-44.8816],[167.4956,-44.8657],[167.4892,-44.8467],[167.5385,-44.8011],[167.489,-44.7774],[167.4421,-44.776],[167.397,-44.814],[167.3553,-44.8247],[167.4073,-44.9314],[167.383,-44.9346],[167.4423,-44.9837],[167.4123,-44.9728],[167.3816,-44.9979],[167.403,-44.9626],[167.3575,-44.947],[167.3764,-44.9099],[167.3396,-44.8445],[167.3268,-44.8445],[167.2713,-44.8698],[167.2213,-44.9185],[167.2421,-44.928],[167.2116,-44.9268],[167.1896,-44.9501],[167.1973,-44.9625],[167.1461,-44.9755],[167.125,-45.0118],[167.0921,-45.026],[167.105,-45.0332],[166.9742,-45.1384],[166.994,-45.166],[166.9672,-45.1925],[167.0113,-45.2801],[167.1106,-45.2768],[167.1186,-45.2606],[167.1456,-45.2658],[167.1715,-45.2497],[167.1435,-45.2779],[167.1617,-45.3075],[167.1915,-45.3199],[167.1677,-45.3184],[167.1239,-45.2826],[167.0343,-45.2932],[167.0074,-45.3144],[167.1096,-45.3871],[167.1397,-45.4411],[167.1204,-45.4585],[167.0568,-45.5067],[167.0722,-45.4766],[167.1142,-45.4494],[167.1156,-45.4313],[167.0688,-45.3628],[167.0373,-45.3543],[167.0189,-45.4152],[166.9822,-45.4058],[166.9171,-45.4244],[166.9789,-45.3991],[167.016,-45.4066],[167.0138,-45.375],[166.9992,-45.3716],[167.0279,-45.352],[166.9618,-45.3205],[166.8972,-45.3441],[166.9503,-45.3179],[166.8542,-45.2772],[166.7681,-45.3596],[166.7717,-45.3786],[166.711,-45.4709],[166.7301,-45.4979],[166.6879,-45.5065],[166.6694,-45.5577],[166.6763,-45.5782],[166.7409,-45.5795],[166.8072,-45.5474],[166.8529,-45.5498],[166.874,-45.5395],[166.8636,-45.52],[166.8982,-45.5277],[167.0147,-45.4866],[166.8835,-45.5438],[166.8947,-45.5562],[166.9958,-45.5539],[166.9866,-45.5639],[166.9577,-45.552],[166.8832,-45.5638],[166.8702,-45.5524],[166.7291,-45.5959],[166.7344,-45.6609],[166.9264,-45.627],[166.9697,-45.6044],[166.938,-45.6307],[166.7514,-45.6679],[166.7284,-45.7274],[166.8228,-45.7044],[166.935,-45.7236],[166.9528,-45.6955],[166.9628,-45.7005],[166.9477,-45.7198],[166.9807,-45.7176],[166.8833,-45.738],[166.8377,-45.7636],[166.8563,-45.7746],[166.7804,-45.7618],[166.6217,-45.7911],[166.5702,-45.8165],[166.5961,-45.795],[166.5215,-45.7937],[166.4549,-45.8132],[166.4331,-45.8417],[166.4402,-45.883],[166.4261,-45.9047],[166.4513,-45.9412],[166.4499,-45.9985],[166.472,-46.0118],[166.4732,-45.9957],[166.4991,-46.0017],[166.5957,-45.9705],[166.6819,-45.8688],[166.7079,-45.8583],[166.6473,-45.949],[166.7054,-45.9571],[166.767,-45.9446],[166.7541,-45.9538],[166.7714,-45.968],[166.6189,-45.9875],[166.599,-46.0159],[166.6089,-46.0529],[166.59,-46.0336],[166.584,-46.0625],[166.5645,-46.0719],[166.5759,-46.092],[166.6131,-46.0604],[166.6451,-46.0833],[166.6736,-46.0518],[166.6873,-46.0644],[166.6846,-46.0517],[166.7244,-46.0181],[166.7354,-46.0221],[166.697,-46.0552],[166.7054,-46.0749],[166.739,-46.0384],[166.7383,-46.0591],[166.7507,-46.0591],[166.7661,-46.0411],[166.7352,-46.0194],[166.7864,-45.9867],[166.7747,-45.9779],[166.8503,-45.969],[166.9178,-45.922],[166.8549,-45.9812],[166.7737,-46.0013],[166.7815,-46.046],[166.737,-46.064],[166.7334,-46.0907],[166.7247,-46.0715],[166.7081,-46.0917],[166.7162,-46.1112],[166.6188,-46.1434],[166.6085,-46.1577],[166.6504,-46.1741],[166.6443,-46.1945],[166.6614,-46.2045],[166.7652,-46.2145],[166.7803,-46.2308],[166.8095,-46.2129],[166.8732,-46.21],[167.0186,-46.2272],[167.1061,-46.2579],[167.2169,-46.2626],[167.2698,-46.2452],[167.3416,-46.2505],[167.3638,-46.2274],[167.3523,-46.1951],[167.3922,-46.1783],[167.4029,-46.1521],[167.519,-46.1567],[167.6113,-46.1913],[167.7223,-46.2662],[167.7299,-46.2988],[167.6865,-46.3219],[167.7305,-46.3346],[167.7359,-46.3649],[167.783,-46.3889],[167.8309,-46.3681],[167.8837,-46.3916],[167.8804,-46.3677],[167.9142,-46.357],[168.0381,-46.3836],[168.0221,-46.3599],[167.9593,-46.3402],[167.95,-46.3078],[167.9617,-46.3328],[168.0184,-46.3283],[168.0125,-46.355],[168.0848,-46.3387],[168.1567,-46.3614],[168.1973,-46.3915],[168.2745,-46.4982],[168.3043,-46.4948],[168.2933,-46.4702],[168.3031,-46.464],[168.267,-46.4604],[168.2684,-46.4417],[168.2711,-46.4598],[168.3183,-46.4558],[168.3273,-46.4494],[168.3117,-46.4295],[168.3401,-46.4179],[168.3768,-46.4851],[168.2945,-46.5082],[168.2862,-46.524],[168.2974,-46.5332],[168.2778,-46.5401],[168.286,-46.5117],[168.2241,-46.5232],[168.2307,-46.5524],[168.2669,-46.5565],[168.2751,-46.5845],[168.3105,-46.594],[168.3278,-46.6244],[168.3602,-46.6119],[168.3062,-46.5883],[168.3006,-46.5481],[168.3343,-46.551],[168.3501,-46.5356],[168.3742,-46.548],[168.3625,-46.5555],[168.3782,-46.5741],[168.4162,-46.5598],[168.5105,-46.5741]]],[[[167.4343,-47.2246],[167.3967,-47.2326],[167.3794,-47.2559],[167.4002,-47.2612],[167.4394,-47.2348],[167.4343,-47.2246]]],[[[167.652,-46.7887],[167.6622,-46.7699],[167.6441,-46.754],[167.6022,-46.7557],[167.6065,-46.7894],[167.652,-46.7887]]],[[[167.677,-47.1988],[167.661,-47.2056],[167.6782,-47.2117],[167.677,-47.1988]]],[[[167.7034,-47.1791],[167.6905,-47.1891],[167.7056,-47.2095],[167.7248,-47.1901],[167.7034,-47.1791]]],[[[168.0936,-46.9735],[168.1314,-46.9592],[168.0226,-46.9512],[168.0246,-46.9321],[168.0052,-46.9242],[167.8871,-46.9839],[167.9787,-46.9294],[167.9714,-46.9015],[167.9404,-46.8825],[167.9628,-46.8991],[168.0023,-46.8949],[167.9908,-46.8707],[168.0076,-46.8695],[168.0322,-46.8978],[168.0119,-46.9026],[168.0465,-46.9196],[168.0631,-46.9175],[168.0421,-46.9023],[168.0671,-46.9071],[168.0684,-46.8951],[168.0715,-46.908],[168.1404,-46.9122],[168.1639,-46.8958],[168.1307,-46.9002],[168.1232,-46.8932],[168.1501,-46.8797],[168.126,-46.8753],[168.1447,-46.8611],[168.0764,-46.8541],[168.0909,-46.832],[168.0045,-46.7904],[167.9774,-46.7209],[167.869,-46.6835],[167.8356,-46.703],[167.7892,-46.6874],[167.7546,-46.6947],[167.7425,-46.715],[167.7196,-46.7144],[167.7251,-46.7281],[167.7039,-46.7545],[167.7191,-46.7853],[167.7002,-46.7956],[167.7509,-46.8483],[167.7708,-46.9228],[167.7333,-46.9574],[167.6692,-46.9773],[167.7004,-47.0033],[167.6865,-47.0145],[167.6919,-47.0338],[167.7284,-47.0528],[167.6204,-47.0418],[167.5594,-47.0913],[167.5677,-47.1131],[167.5903,-47.1139],[167.5549,-47.1556],[167.5727,-47.1477],[167.576,-47.1662],[167.5217,-47.189],[167.5185,-47.2039],[167.4984,-47.1976],[167.4666,-47.2163],[167.4472,-47.2671],[167.4661,-47.2829],[167.4917,-47.2701],[167.4904,-47.2853],[167.5377,-47.29],[167.5729,-47.2787],[167.5932,-47.2453],[167.6173,-47.2479],[167.6097,-47.2713],[167.6459,-47.2638],[167.6567,-47.2442],[167.6367,-47.2494],[167.6624,-47.2292],[167.6511,-47.2214],[167.6206,-47.2448],[167.5529,-47.2329],[167.5776,-47.2371],[167.6091,-47.2251],[167.597,-47.218],[167.606,-47.2101],[167.6391,-47.2047],[167.598,-47.1961],[167.6746,-47.1943],[167.6606,-47.1656],[167.6864,-47.171],[167.6974,-47.1512],[167.7218,-47.1822],[167.7579,-47.1708],[167.8203,-47.1924],[167.8658,-47.1813],[167.8662,-47.1681],[167.8973,-47.1704],[167.9498,-47.1282],[167.9818,-47.1345],[167.9968,-47.1247],[167.9879,-47.112],[168.0314,-47.1284],[168.071,-47.103],[168.1347,-47.1187],[168.0553,-47.0762],[168.1461,-47.1177],[168.1571,-47.1071],[168.1409,-47.0782],[168.2203,-47.097],[168.207,-47.0788],[168.1512,-47.0673],[168.1756,-47.0584],[168.1616,-47.0417],[168.2106,-47.0663],[168.1977,-47.0517],[168.2188,-47.0351],[168.2016,-47.028],[168.2293,-47.016],[168.209,-47.015],[168.2162,-46.9937],[168.1775,-46.9729],[168.1767,-46.9423],[168.1996,-46.9254],[168.1725,-46.9293],[168.1738,-46.9709],[168.1433,-46.9694],[168.1394,-46.9906],[168.0749,-46.9913],[168.0936,-46.9735]]],[[[166.684,-45.6019],[166.6057,-45.603],[166.5677,-45.6215],[166.5532,-45.6493],[166.5537,-45.6313],[166.5382,-45.627],[166.4444,-45.7392],[166.5407,-45.6816],[166.5521,-45.6509],[166.5547,-45.6832],[166.5809,-45.6908],[166.5455,-45.6985],[166.5828,-45.6961],[166.5627,-45.7155],[166.6094,-45.7359],[166.5804,-45.7325],[166.59,-45.7542],[166.6472,-45.7397],[166.6477,-45.7143],[166.663,-45.7521],[166.6854,-45.7479],[166.7178,-45.725],[166.7237,-45.6983],[166.7166,-45.6247],[166.684,-45.6019]]],[[[166.9638,-45.149],[166.8689,-45.2406],[166.9473,-45.2941],[166.9978,-45.2998],[166.9493,-45.2031],[166.9706,-45.1663],[166.9638,-45.149]]],[[[167.8441,-46.4518],[167.8345,-46.4555],[167.8549,-46.4599],[167.8441,-46.4518]]]]}},{"type":"Feature","properties":{"gid":"NZL.15_1","name":"塔拉纳基大区","nameEn":"Taranaki","nameLocal":"Taranaki","type":"大区","typeEn":"Region","groupZh":"大区","area":7932.9,"iso":"NZ-TKI","engtype":"Region","capital":"新普利茅斯","pop":126015,"blurb":"围绕塔拉纳基火山的锥形地带。"},"geometry":{"type":"Polygon","coordinates":[[[174.8771,-39.4047],[174.8659,-39.389],[174.8795,-39.3902],[174.8916,-39.3581],[174.8228,-39.334],[174.8129,-39.3136],[174.862,-39.2555],[174.8596,-39.2321],[174.9147,-39.2335],[174.9504,-39.1836],[174.941,-39.1777],[174.9588,-39.171],[174.9499,-39.1633],[174.9817,-39.1568],[174.9779,-39.1396],[174.9939,-39.1381],[174.983,-39.1121],[175.0002,-39.1288],[174.998,-39.1106],[175.0692,-39.105],[175.043,-39.0834],[175.0473,-39.0704],[174.9633,-39.0663],[174.9765,-39.042],[174.9603,-38.9949],[174.9146,-39.0108],[174.911,-38.9892],[174.8689,-38.9891],[174.8855,-38.969],[174.8713,-38.9284],[174.8842,-38.9126],[174.8566,-38.8887],[174.8276,-38.9099],[174.7867,-38.8224],[174.8078,-38.82],[174.82,-38.787],[174.8629,-38.7746],[174.7942,-38.731],[174.7564,-38.745],[174.654,-38.7332],[174.6169,-38.7229],[174.6149,-38.7066],[174.5931,-38.8172],[174.4381,-38.9633],[174.3647,-38.9926],[174.2007,-38.9884],[174.0889,-39.0512],[174.0294,-39.0544],[174.0038,-39.0854],[173.9112,-39.1201],[173.7916,-39.1929],[173.7515,-39.2787],[173.7932,-39.4128],[173.9109,-39.519],[173.9871,-39.5542],[174.2016,-39.5881],[174.2973,-39.6263],[174.3528,-39.6591],[174.4185,-39.7323],[174.535,-39.8045],[174.7266,-39.8684],[174.7795,-39.8617],[174.7663,-39.8529],[174.7934,-39.8336],[174.803,-39.8031],[174.8345,-39.8005],[174.8882,-39.7513],[174.9231,-39.7435],[174.9299,-39.6829],[174.988,-39.6654],[174.9697,-39.6463],[174.9676,-39.6052],[174.9917,-39.5401],[174.9703,-39.5254],[174.9673,-39.4848],[174.922,-39.4715],[174.8846,-39.4355],[174.8771,-39.4047]]]}},{"type":"Feature","properties":{"gid":"NZL.16_1","name":"塔斯曼大区","nameEn":"Tasman","nameLocal":"Tasman","type":"大区","typeEn":"Region","groupZh":"大区","area":9632.2,"iso":"NZ-TAS","engtype":"Region","capital":"里士满","pop":57807,"blurb":"南岛北端，阿贝尔塔斯曼国家公园。"},"geometry":{"type":"MultiPolygon","coordinates":[[[[172.7208,-42.1031],[172.733,-42.0345],[172.7571,-42.036],[172.803,-41.9852],[172.8081,-41.9581],[172.8472,-41.9426],[172.8647,-41.909],[172.8476,-41.8742],[172.8677,-41.8665],[172.8909,-41.8183],[172.9457,-41.7809],[172.926,-41.7484],[172.9579,-41.7495],[173.0038,-41.7248],[173.0574,-41.6685],[173.0587,-41.6257],[173.0893,-41.6242],[173.1515,-41.5856],[173.1724,-41.5241],[173.2493,-41.5245],[173.3044,-41.5066],[173.2508,-41.4666],[173.2948,-41.4256],[173.285,-41.4027],[173.2974,-41.3931],[173.2564,-41.3822],[173.2496,-41.3646],[173.23,-41.3688],[173.1366,-41.2876],[173.0942,-41.2924],[173.0853,-41.2852],[173.1043,-41.2772],[173.0753,-41.2773],[173.0868,-41.2673],[173.0718,-41.2534],[173.0996,-41.2614],[173.1074,-41.2488],[173.0658,-41.1839],[173.0369,-41.1588],[173.0494,-41.187],[173.0088,-41.1421],[173.019,-41.1247],[173.0245,-41.1379],[173.0362,-41.0961],[173.0003,-41.0637],[173.0237,-41.0444],[173.0124,-40.9921],[173.0693,-40.9611],[173.0497,-40.9497],[173.0624,-40.9373],[173.0509,-40.9177],[173.0635,-40.9057],[173.0461,-40.8875],[173.0655,-40.8782],[173.0583,-40.8572],[173.0149,-40.8482],[172.998,-40.782],[172.9542,-40.7888],[172.9397,-40.8281],[172.9217,-40.8002],[172.8794,-40.8333],[172.798,-40.8163],[172.7934,-40.7999],[172.7304,-40.7696],[172.6905,-40.7176],[172.6788,-40.7321],[172.687,-40.6793],[172.6667,-40.6798],[172.6488,-40.6572],[172.6698,-40.6385],[172.6821,-40.6605],[172.6856,-40.5839],[172.7526,-40.5163],[172.8929,-40.5195],[173.0162,-40.5508],[172.899,-40.5133],[172.688,-40.498],[172.643,-40.5077],[172.5502,-40.5714],[172.5538,-40.5885],[172.5764,-40.5659],[172.6299,-40.5554],[172.6249,-40.6039],[172.6131,-40.5884],[172.5763,-40.5911],[172.5677,-40.6013],[172.5813,-40.5993],[172.5863,-40.6173],[172.5672,-40.6076],[172.5521,-40.619],[172.5565,-40.6062],[172.5163,-40.6256],[172.5165,-40.6411],[172.5055,-40.6221],[172.5439,-40.6055],[172.5336,-40.5818],[172.2925,-40.7472],[172.2177,-40.7746],[172.2488,-40.8069],[172.2336,-40.869],[172.2625,-40.859],[172.2898,-40.8775],[172.2815,-40.8989],[172.2977,-40.9225],[172.3758,-40.9344],[172.3864,-40.9493],[172.3109,-41.0112],[172.3337,-41.035],[172.3248,-41.0595],[172.3503,-41.0634],[172.3827,-41.0226],[172.4192,-41.0335],[172.4915,-41.0226],[172.486,-41.055],[172.5142,-41.0677],[172.5197,-41.0955],[172.5529,-41.1024],[172.6185,-41.1603],[172.6291,-41.195],[172.6738,-41.1883],[172.6918,-41.2092],[172.6577,-41.2393],[172.5748,-41.2577],[172.6003,-41.3009],[172.5843,-41.3763],[172.5124,-41.4128],[172.4612,-41.3944],[172.4159,-41.4126],[172.4311,-41.429],[172.4189,-41.4707],[172.343,-41.5115],[172.3273,-41.6038],[172.291,-41.6348],[172.2644,-41.6273],[172.2374,-41.6402],[172.2515,-41.7027],[172.2134,-41.689],[172.1271,-41.716],[172.1179,-41.7562],[172.0973,-41.7743],[172.1163,-41.7892],[172.1157,-41.8684],[172.0938,-41.8744],[172.0929,-41.8919],[172.0654,-41.8944],[172.0774,-41.9205],[172.0506,-41.9523],[172.0701,-41.9647],[172.081,-42.0077],[172.12,-42.0146],[172.1049,-42.0484],[172.1352,-42.104],[172.2067,-42.0983],[172.2056,-42.1145],[172.2477,-42.1324],[172.2515,-42.1503],[172.3334,-42.1492],[172.3494,-42.2223],[172.3334,-42.2387],[172.3544,-42.2561],[172.3479,-42.2767],[172.4309,-42.3056],[172.4536,-42.2748],[172.5151,-42.2641],[172.5594,-42.22],[172.6161,-42.1943],[172.6097,-42.1658],[172.6409,-42.1329],[172.6362,-42.102],[172.6784,-42.0878],[172.6911,-42.1066],[172.7208,-42.1031]]],[[[173.1292,-41.2577],[173.1043,-41.2632],[173.2006,-41.2841],[173.1292,-41.2577]]]]}},{"type":"Feature","properties":{"gid":"NZL.17_1","name":"怀卡托大区","nameEn":"Waikato","nameLocal":"Waikato","type":"大区","typeEn":"Region","groupZh":"大区","area":25522.7,"iso":"NZ-WKO","engtype":"Region","capital":"汉密尔顿","pop":498771,"blurb":"奶业中心，怀卡托河与《指环王》取景地。"},"geometry":{"type":"MultiPolygon","coordinates":[[[[176.0285,-38.386],[176.0238,-38.3651],[176.0586,-38.3345],[176.1311,-38.3036],[176.1377,-38.2876],[176.1087,-38.2758],[176.1293,-38.2732],[176.116,-38.2691],[176.1503,-38.2182],[176.1101,-38.1669],[176.0307,-38.1666],[176.0307,-38.1392],[175.9818,-38.1386],[176.0622,-38.0268],[176.0132,-37.9935],[175.9715,-37.9864],[175.9494,-37.9567],[175.9413,-37.9282],[175.9772,-37.9137],[175.9542,-37.9019],[175.9718,-37.8828],[175.9362,-37.8814],[175.935,-37.8426],[175.9059,-37.8286],[175.9277,-37.776],[175.8408,-37.6419],[175.8415,-37.6133],[175.8117,-37.5643],[175.831,-37.5368],[175.806,-37.5107],[175.8135,-37.4849],[175.8328,-37.4716],[175.8656,-37.5004],[175.8993,-37.4956],[175.8609,-37.4611],[175.9101,-37.4303],[175.9039,-37.4057],[175.9245,-37.4044],[175.9166,-37.3793],[175.94,-37.3732],[175.9432,-37.3531],[175.8799,-37.2312],[175.8785,-37.1995],[175.8578,-37.2072],[175.8506,-37.176],[175.8636,-37.1649],[175.881,-37.2018],[175.8928,-37.1956],[175.879,-37.1499],[175.8902,-37.1129],[175.8604,-37.1265],[175.8785,-37.1054],[175.8887,-37.1133],[175.8859,-37.0287],[175.862,-37.0059],[175.837,-37.0524],[175.8127,-37.0596],[175.8356,-37.048],[175.8485,-37.0031],[175.872,-37.0001],[175.8432,-36.9645],[175.856,-36.9229],[175.8193,-36.8831],[175.8196,-36.8412],[175.7642,-36.8209],[175.7593,-36.8463],[175.7741,-36.8464],[175.7632,-36.8648],[175.7589,-36.8365],[175.713,-36.8271],[175.697,-36.8636],[175.7194,-36.8725],[175.6996,-36.8885],[175.7154,-36.9061],[175.7014,-36.8913],[175.6844,-36.8974],[175.6909,-36.8803],[175.6762,-36.8889],[175.6666,-36.8719],[175.685,-36.8617],[175.6733,-36.835],[175.7083,-36.8363],[175.7016,-36.8071],[175.7476,-36.7906],[175.7553,-36.7573],[175.8271,-36.7396],[175.8219,-36.7212],[175.7977,-36.7173],[175.7831,-36.6921],[175.7091,-36.7271],[175.6353,-36.7261],[175.6777,-36.7425],[175.6396,-36.744],[175.6443,-36.7674],[175.6072,-36.7572],[175.6275,-36.7179],[175.6074,-36.7099],[175.6052,-36.6821],[175.5559,-36.6844],[175.5566,-36.6649],[175.5844,-36.664],[175.5711,-36.6453],[175.5836,-36.6275],[175.5602,-36.5982],[175.5232,-36.5954],[175.5197,-36.555],[175.5335,-36.5402],[175.4945,-36.5109],[175.4696,-36.51],[175.4761,-36.5352],[175.4433,-36.5029],[175.4233,-36.512],[175.4121,-36.471],[175.3455,-36.4695],[175.3262,-36.49],[175.3448,-36.5533],[175.4718,-36.6208],[175.4375,-36.6264],[175.4471,-36.6604],[175.4305,-36.7168],[175.4802,-36.7341],[175.4571,-36.7687],[175.4831,-36.7541],[175.4955,-36.7646],[175.4856,-36.7795],[175.5056,-36.794],[175.423,-36.8201],[175.4659,-36.8284],[175.4281,-36.8334],[175.438,-36.8448],[175.4737,-36.8377],[175.4684,-36.8529],[175.4063,-36.8537],[175.4305,-36.9019],[175.4995,-36.9742],[175.5242,-37.0548],[175.5151,-37.102],[175.5438,-37.1663],[175.4402,-37.2179],[175.3952,-37.2295],[175.3659,-37.2191],[175.3239,-37.1919],[175.2954,-37.1233],[175.3058,-37.0916],[175.2913,-37.024],[175.1848,-37.0408],[175.1616,-37.0158],[175.1408,-37.0987],[175.1539,-37.1361],[175.1315,-37.186],[175.0896,-37.1795],[175.0738,-37.1947],[175.0545,-37.1808],[174.9903,-37.2166],[174.9732,-37.1948],[174.948,-37.1957],[174.9193,-37.2366],[174.8868,-37.2306],[174.8504,-37.2512],[174.8481,-37.2342],[174.8063,-37.2268],[174.7389,-37.2679],[174.6999,-37.2616],[174.6582,-37.282],[174.6916,-37.3572],[174.7203,-37.3798],[174.7449,-37.3672],[174.7407,-37.3418],[174.7754,-37.345],[174.741,-37.3857],[174.707,-37.3763],[174.7,-37.417],[174.7687,-37.5609],[174.8384,-37.7963],[174.8709,-37.789],[174.8647,-37.7739],[174.9011,-37.7906],[174.9102,-37.7664],[174.8973,-37.7636],[174.9196,-37.7534],[174.9127,-37.7431],[174.9292,-37.7553],[174.9336,-37.7324],[174.9389,-37.7525],[174.953,-37.7503],[174.9525,-37.7244],[174.9521,-37.7659],[174.9675,-37.7735],[174.9275,-37.7707],[174.9128,-37.7861],[174.9274,-37.7959],[174.9511,-37.7793],[174.9744,-37.7972],[174.9473,-37.7889],[174.9458,-37.8088],[174.9387,-37.7889],[174.9187,-37.7964],[174.9286,-37.8081],[174.8994,-37.8048],[174.902,-37.8169],[174.8724,-37.7961],[174.8701,-37.8316],[174.8615,-37.8071],[174.8463,-37.8112],[174.8653,-37.8005],[174.8437,-37.8039],[174.7768,-37.8313],[174.7582,-37.8589],[174.7957,-38.0155],[174.8338,-37.9897],[174.8143,-37.9646],[174.8507,-37.9323],[174.8508,-37.9518],[174.8955,-37.963],[174.8732,-37.969],[174.8729,-37.9977],[174.8606,-37.9895],[174.8486,-38.0247],[174.8207,-38.0063],[174.7895,-38.0272],[174.7782,-38.0826],[174.8111,-38.0791],[174.8422,-38.0396],[174.8473,-38.0616],[174.8588,-38.0368],[174.8598,-38.0558],[174.8884,-38.0467],[174.8902,-38.0648],[174.9084,-38.0499],[174.8999,-38.0751],[174.8759,-38.0783],[174.9174,-38.075],[174.9034,-38.0839],[174.9212,-38.0919],[174.8693,-38.0952],[174.8753,-38.1154],[174.8944,-38.1067],[174.8746,-38.1269],[174.8592,-38.0995],[174.8549,-38.1194],[174.8479,-38.1022],[174.8272,-38.1077],[174.8184,-38.1289],[174.8425,-38.117],[174.8583,-38.1403],[174.8546,-38.1552],[174.8496,-38.1302],[174.835,-38.133],[174.8288,-38.1579],[174.8283,-38.1422],[174.8147,-38.1455],[174.8236,-38.1336],[174.8073,-38.1427],[174.8049,-38.1193],[174.7781,-38.1364],[174.7788,-38.1091],[174.7619,-38.12],[174.7752,-38.0885],[174.7345,-38.124],[174.6812,-38.1099],[174.7139,-38.2018],[174.7159,-38.306],[174.6567,-38.3834],[174.6346,-38.3868],[174.6456,-38.4564],[174.6137,-38.7149],[174.7535,-38.7448],[174.7942,-38.731],[174.8629,-38.7746],[174.9379,-38.7502],[174.9348,-38.7306],[174.9643,-38.6968],[174.9567,-38.6647],[175.0005,-38.6663],[175.1165,-38.6219],[175.2132,-38.6394],[175.2851,-38.588],[175.3002,-38.6006],[175.303,-38.5715],[175.3247,-38.5514],[175.3355,-38.5815],[175.401,-38.5511],[175.5005,-38.5591],[175.5416,-38.598],[175.6055,-38.5851],[175.6369,-38.5525],[175.6286,-38.6006],[175.5759,-38.6499],[175.5796,-38.6818],[175.5184,-38.7519],[175.5772,-38.8232],[175.5447,-38.8645],[175.58,-38.9107],[175.5539,-38.9557],[175.5694,-38.9701],[175.5626,-38.9868],[175.682,-38.9797],[175.6358,-39.0453],[175.6136,-39.0506],[175.6187,-39.0826],[175.6478,-39.1001],[175.6347,-39.1584],[175.5579,-39.276],[175.6692,-39.2969],[175.7518,-39.2879],[175.8126,-39.3003],[175.8681,-39.263],[175.8547,-39.2442],[175.8927,-39.2236],[175.886,-39.2059],[175.9597,-39.1842],[175.976,-39.15],[176.081,-39.1572],[176.1466,-39.1345],[176.1761,-39.1439],[176.2331,-39.0979],[176.3404,-39.1731],[176.3953,-39.1619],[176.3872,-39.137],[176.3696,-39.1326],[176.4435,-39.1208],[176.4202,-39.0619],[176.4492,-39.0016],[176.6103,-38.9983],[176.5985,-38.9333],[176.6977,-38.856],[176.6242,-38.7543],[176.6175,-38.7013],[176.646,-38.6059],[176.6178,-38.5947],[176.6056,-38.6087],[176.552,-38.5808],[176.5334,-38.5351],[176.5028,-38.5265],[176.5022,-38.5108],[176.4763,-38.5101],[176.4764,-38.5333],[176.3868,-38.5065],[176.359,-38.5687],[176.2999,-38.551],[176.3232,-38.5072],[176.3031,-38.4854],[176.2292,-38.5222],[176.1791,-38.5187],[176.1479,-38.4873],[176.1188,-38.4133],[176.0285,-38.386]]],[[[175.9454,-37.038],[175.9392,-37.0613],[175.9559,-37.0469],[175.9454,-37.038]]],[[[175.4536,-36.7686],[175.4287,-36.7949],[175.4573,-36.7891],[175.4536,-36.7686]]],[[[175.9386,-36.619],[175.9229,-36.6174],[175.9259,-36.6292],[175.9489,-36.6278],[175.9386,-36.619]]],[[[175.7878,-36.5811],[175.7507,-36.5874],[175.7868,-36.6094],[175.7759,-36.6375],[175.8342,-36.637],[175.8271,-36.6174],[175.7903,-36.6054],[175.7878,-36.5811]]],[[[175.7724,-36.4292],[175.7597,-36.4379],[175.7873,-36.4418],[175.7724,-36.4292]]]]}},{"type":"Feature","properties":{"gid":"NZL.18_1","name":"惠灵顿大区","nameEn":"Wellington","nameLocal":"Wellington","type":"大区","typeEn":"Region","groupZh":"大区","area":8090.9,"iso":"NZ-WGN","engtype":"Region","capital":"惠灵顿","pop":520971,"blurb":"首都所在，库克海峡门户。"},"geometry":{"type":"MultiPolygon","coordinates":[[[[174.8503,-41.2273],[174.901,-41.2367],[174.8987,-41.2589],[174.9125,-41.2581],[174.8479,-41.3593],[174.8746,-41.384],[174.8688,-41.4099],[174.9187,-41.4368],[175.042,-41.3735],[175.1207,-41.3893],[175.2166,-41.4313],[175.1949,-41.5265],[175.2175,-41.5402],[175.2367,-41.6077],[175.2909,-41.6135],[175.3248,-41.6064],[175.3661,-41.5716],[175.4317,-41.5723],[175.5344,-41.4955],[175.5852,-41.4874],[175.6744,-41.4143],[175.8108,-41.3605],[175.8629,-41.317],[175.8827,-41.2742],[175.9629,-41.2448],[176.0037,-41.1712],[176.0632,-41.13],[176.1069,-41.0153],[176.1459,-40.9572],[176.2325,-40.8999],[176.2198,-40.8863],[176.2574,-40.824],[176.2705,-40.7808],[176.2582,-40.7598],[176.2716,-40.7446],[176.2466,-40.7409],[176.2342,-40.7076],[176.1032,-40.6729],[176.082,-40.7157],[176.0172,-40.7056],[175.974,-40.7229],[175.9755,-40.7383],[175.9434,-40.7407],[175.935,-40.7668],[175.9099,-40.7509],[175.8716,-40.7779],[175.8497,-40.7614],[175.8269,-40.7609],[175.8109,-40.7796],[175.7647,-40.7681],[175.7907,-40.7256],[175.7701,-40.6989],[175.7542,-40.7093],[175.7524,-40.6974],[175.6906,-40.6966],[175.6937,-40.7163],[175.6277,-40.7528],[175.4734,-40.6934],[175.4343,-40.7464],[175.3715,-40.7268],[175.3468,-40.7521],[175.3283,-40.7442],[175.2682,-40.7687],[175.193,-40.7573],[175.1887,-40.743],[175.2065,-40.7321],[175.1365,-40.7003],[175.0631,-40.8243],[174.9834,-40.8848],[174.9479,-40.9899],[174.8463,-41.0499],[174.8393,-41.0642],[174.8672,-41.0867],[174.8587,-41.1157],[174.8373,-41.1247],[174.8629,-41.1031],[174.8495,-41.0887],[174.8047,-41.1112],[174.7401,-41.1723],[174.7142,-41.2192],[174.6645,-41.2468],[174.6448,-41.2381],[174.6133,-41.2855],[174.6599,-41.3408],[174.7156,-41.3624],[174.7915,-41.3468],[174.7986,-41.3286],[174.8208,-41.3449],[174.839,-41.3277],[174.8342,-41.289],[174.803,-41.316],[174.8041,-41.2861],[174.7793,-41.2822],[174.8503,-41.2273]]],[[[174.7827,-41.0778],[174.7726,-41.0974],[174.7896,-41.0904],[174.7827,-41.0778]]],[[[174.9436,-40.8222],[174.9201,-40.8222],[174.8688,-40.8862],[174.9181,-40.8683],[174.9544,-40.8288],[174.9436,-40.8222]]]]}},{"type":"Feature","properties":{"gid":"NZL.19_1","name":"西海岸大区","nameEn":"West Coast","nameLocal":"West Coast","type":"大区","typeEn":"Region","groupZh":"大区","area":23348.0,"iso":"NZ-WTC","engtype":"Region","capital":"格雷茅斯","pop":33390,"blurb":"南岛西岸，冰川与温带雨林。"},"geometry":{"type":"MultiPolygon","coordinates":[[[[171.1148,-43.0974],[171.1289,-43.0813],[171.1459,-43.0888],[171.1842,-43.0644],[171.2196,-43.0647],[171.2407,-43.031],[171.2377,-43.0025],[171.3084,-42.9662],[171.3147,-42.948],[171.3622,-42.9372],[171.3932,-42.9426],[171.396,-42.9593],[171.4375,-42.9357],[171.4423,-42.9137],[171.491,-42.8959],[171.5172,-42.9142],[171.5869,-42.8957],[171.6341,-42.9026],[171.6651,-42.8863],[171.6869,-42.9061],[171.7101,-42.9038],[171.7464,-42.8741],[171.733,-42.8533],[171.7626,-42.8373],[171.7639,-42.7917],[171.8126,-42.79],[171.8844,-42.7496],[171.8851,-42.7187],[171.9259,-42.6662],[171.9723,-42.6535],[171.9744,-42.6391],[172.0937,-42.6211],[172.1085,-42.5805],[172.1783,-42.5355],[172.1867,-42.5041],[172.2271,-42.4795],[172.2357,-42.4565],[172.2788,-42.4499],[172.3472,-42.3918],[172.4168,-42.3838],[172.4469,-42.3614],[172.4487,-42.3286],[172.4662,-42.3195],[172.479,-42.277],[172.4536,-42.2748],[172.4309,-42.3056],[172.3479,-42.2767],[172.3544,-42.2561],[172.3334,-42.2387],[172.3494,-42.2223],[172.3334,-42.1492],[172.2515,-42.1503],[172.2477,-42.1324],[172.2056,-42.1145],[172.2067,-42.0983],[172.1352,-42.104],[172.1049,-42.0484],[172.12,-42.0146],[172.081,-42.0077],[172.0701,-41.9647],[172.0506,-41.9519],[172.0774,-41.9205],[172.0654,-41.8944],[172.0929,-41.8919],[172.0938,-41.8744],[172.1157,-41.8684],[172.1163,-41.7892],[172.0973,-41.7743],[172.1179,-41.7562],[172.119,-41.7254],[172.188,-41.6925],[172.2515,-41.7027],[172.2374,-41.6402],[172.2644,-41.6273],[172.291,-41.6348],[172.3273,-41.6038],[172.343,-41.5115],[172.4189,-41.4707],[172.4311,-41.429],[172.4159,-41.4126],[172.4612,-41.3944],[172.5124,-41.4128],[172.5843,-41.3763],[172.6003,-41.3009],[172.5744,-41.2583],[172.6579,-41.2392],[172.692,-41.1999],[172.6732,-41.1882],[172.6289,-41.1948],[172.6185,-41.1604],[172.5529,-41.1024],[172.5198,-41.0957],[172.5132,-41.0668],[172.4921,-41.0647],[172.4915,-41.0226],[172.4192,-41.0335],[172.3827,-41.0226],[172.3503,-41.0634],[172.3248,-41.0595],[172.3337,-41.035],[172.3109,-41.0112],[172.3864,-40.9493],[172.3758,-40.9344],[172.2977,-40.9225],[172.2815,-40.8989],[172.2898,-40.8775],[172.2625,-40.859],[172.2336,-40.869],[172.2488,-40.8069],[172.2177,-40.7746],[172.1339,-40.8503],[172.0929,-40.9147],[172.1117,-41.0269],[172.0981,-41.2399],[172.1316,-41.2607],[172.1049,-41.2581],[172.1005,-41.2897],[172.0916,-41.2761],[172.0607,-41.3883],[171.9865,-41.4456],[171.8582,-41.6243],[171.7054,-41.7247],[171.6547,-41.742],[171.5894,-41.727],[171.5951,-41.7664],[171.5769,-41.7494],[171.5871,-41.7274],[171.5501,-41.7501],[171.4593,-41.7528],[171.4552,-41.8851],[171.4175,-41.9183],[171.3916,-42.0213],[171.3656,-42.0349],[171.3605,-42.0722],[171.3258,-42.1139],[171.3062,-42.26],[171.2805,-42.3131],[171.2397,-42.3742],[171.2186,-42.3796],[171.1639,-42.5142],[171.0964,-42.6028],[170.9476,-42.7235],[170.8596,-42.8309],[170.7208,-42.9302],[170.5945,-42.9934],[170.4584,-43.0227],[170.4109,-43.0416],[170.3489,-43.0937],[170.2601,-43.1081],[170.1664,-43.2184],[170.2127,-43.1898],[170.2176,-43.1649],[170.2319,-43.165],[170.224,-43.1553],[170.2575,-43.1565],[170.273,-43.176],[170.2267,-43.1937],[170.2054,-43.2265],[170.1342,-43.2306],[169.974,-43.3624],[169.7937,-43.4214],[169.6897,-43.5446],[169.6492,-43.5535],[169.6086,-43.5921],[169.5707,-43.6024],[169.5549,-43.5863],[169.5023,-43.6267],[169.4263,-43.6253],[169.3707,-43.643],[169.3462,-43.6701],[169.153,-43.7513],[169.0181,-43.8527],[168.8871,-43.9061],[168.8049,-43.9719],[168.6495,-43.9955],[168.6154,-43.9769],[168.6169,-43.9578],[168.5126,-44.0019],[168.3668,-44.0087],[168.3614,-44.0313],[168.3264,-44.0509],[168.3256,-44.0843],[168.2855,-44.1026],[168.2517,-44.1539],[168.1036,-44.2432],[168.0521,-44.2586],[168.1577,-44.2822],[168.2503,-44.2551],[168.3454,-44.2821],[168.3482,-44.3291],[168.3814,-44.3381],[168.3684,-44.3545],[168.4117,-44.3637],[168.3518,-44.4042],[168.366,-44.4244],[168.3345,-44.4968],[168.4609,-44.4954],[168.5235,-44.4604],[168.5861,-44.4538],[168.6867,-44.3919],[168.7426,-44.421],[168.7534,-44.3922],[168.8318,-44.3518],[168.8573,-44.2697],[168.8494,-44.2461],[168.9109,-44.2098],[168.9592,-44.2058],[168.9652,-44.1738],[168.9874,-44.1689],[168.9751,-44.144],[169.0159,-44.1309],[169.0132,-44.1149],[169.0736,-44.1096],[169.1459,-44.0799],[169.1597,-44.1049],[169.2573,-44.1081],[169.2908,-44.0627],[169.309,-44.0606],[169.3387,-44.1025],[169.3868,-44.1188],[169.4626,-44.0593],[169.5787,-44.0343],[169.5928,-43.9581],[169.72,-43.9599],[169.7583,-43.9337],[169.7709,-43.8993],[169.8379,-43.8666],[169.8584,-43.837],[169.8944,-43.8337],[169.9,-43.813],[169.9727,-43.7873],[169.9788,-43.7471],[170.0305,-43.7232],[170.0285,-43.6908],[170.0952,-43.6555],[170.0981,-43.5955],[170.1398,-43.5895],[170.2286,-43.5192],[170.3281,-43.4818],[170.356,-43.5061],[170.395,-43.4982],[170.4592,-43.4613],[170.4755,-43.433],[170.5297,-43.41],[170.6151,-43.4319],[170.6329,-43.3968],[170.6566,-43.3869],[170.6467,-43.3693],[170.7161,-43.3432],[170.7053,-43.3188],[170.7598,-43.3183],[170.8605,-43.2813],[170.8731,-43.2458],[170.9287,-43.2065],[170.9482,-43.206],[170.9485,-43.2273],[170.9917,-43.2176],[171.02,-43.1745],[171.0473,-43.1636],[171.0374,-43.1459],[171.0676,-43.1283],[171.0636,-43.1146],[171.0847,-43.1011],[171.1054,-43.1121],[171.1148,-43.0974]]],[[[170.2414,-43.1657],[170.2223,-43.1769],[170.2528,-43.1631],[170.2414,-43.1657]]]]}}]}