{"type":"FeatureCollection","features":[{"type":"Feature","properties":{"gid":"ISR.1_1","name":"戈兰区","nameEn":"Golan","nameLocal":"","type":"District","typeEn":"District","groupZh":"区","area":1236.0,"iso":"NA","engtype":"District","capital":"卡茨林","pop":53000,"blurb":"东北部高地，1967 年后由以色列控制，争议领土，以葡萄园与温泉著称。"},"geometry":{"type":"MultiPolygon","coordinates":[[[[35.64913,32.69056],[35.64941,32.6873],[35.66138,32.69382],[35.68613,32.6953],[35.70321,32.70179],[35.73348,32.72363],[35.75626,32.72624],[35.76419,32.74732],[35.77957,32.75195],[35.85293,32.84004],[35.85946,32.8559],[35.85666,32.87082],[35.86412,32.89507],[35.90094,32.93873],[35.89771,32.96387],[35.88464,32.97434],[35.87344,33.06574],[35.87531,33.10211],[35.84174,33.12263],[35.85106,33.14502],[35.86598,33.1646],[35.86785,33.17672],[35.86319,33.19724],[35.84733,33.21123],[35.85013,33.2532],[35.82215,33.27559],[35.81749,33.28584],[35.85106,33.32315],[35.81304,33.34626],[35.82379,33.36152],[35.81722,33.36403],[35.81358,33.35616],[35.80379,33.35311],[35.77858,33.33532],[35.76709,33.33245],[35.75579,33.31799],[35.73547,33.31251],[35.69696,33.26926],[35.6714,33.25091],[35.68336,33.24954],[35.69001,33.24413],[35.67653,33.21184],[35.67584,33.19004],[35.68238,33.15252],[35.66378,33.1069],[35.66073,33.05904],[35.65783,33.06189],[35.64706,33.05915],[35.63205,33.03793],[35.61564,33.02412],[35.62754,33.00111],[35.62924,32.97801],[35.62482,32.92675],[35.61665,32.90219],[35.62333,32.89576],[35.63082,32.89851],[35.6438,32.88448],[35.66119,32.8535],[35.66392,32.83754],[35.65496,32.7999],[35.65011,32.74599],[35.6389,32.72616],[35.61963,32.70791],[35.64604,32.69625],[35.64913,32.69056]]],[[[35.65629,33.24652],[35.65992,33.24816],[35.63564,33.2452],[35.6442,33.24283],[35.65629,33.24652]]]]}},{"type":"Feature","properties":{"gid":"ISR.2_1","name":"南部区","nameEn":"HaDarom","nameLocal":"","type":"District","typeEn":"District","groupZh":"区","area":14525.9,"iso":"IL-D","engtype":"District","capital":"贝尔谢巴","pop":1200000,"blurb":"涵盖内盖夫沙漠大部，贝尔谢巴为沙漠之都，地广人稀。"},"geometry":{"type":"Polygon","coordinates":[[[34.91069,29.49708],[34.9193,29.5032],[34.95514,29.54958],[34.96601,29.54707],[34.98646,29.58982],[35.03267,29.63071],[35.02975,29.70504],[35.04682,29.767],[35.04971,29.78719],[35.04681,29.8021],[35.05128,29.82091],[35.08077,29.87231],[35.07761,29.95053],[35.09845,30.02256],[35.17581,30.11914],[35.14448,30.23953],[35.16354,30.27623],[35.16012,30.29618],[35.16648,30.31338],[35.18872,30.3347],[35.1919,30.34662],[35.18663,30.36222],[35.15201,30.41862],[35.15599,30.43215],[35.16977,30.44935],[35.17668,30.46723],[35.2017,30.57452],[35.2312,30.6238],[35.24607,30.63571],[35.25138,30.65795],[35.29002,30.72508],[35.29011,30.76588],[35.29892,30.78673],[35.31383,30.8023],[35.33297,30.80824],[35.33807,30.8284],[35.33306,30.84491],[35.33337,30.86301],[35.3601,30.91386],[35.415,30.94883],[35.41506,30.96946],[35.40688,30.98895],[35.40453,31.00522],[35.40859,31.02561],[35.44684,31.07641],[35.45979,31.12038],[35.45878,31.13596],[35.45379,31.15682],[35.44585,31.1715],[35.40122,31.22313],[35.38981,31.24446],[35.39494,31.2646],[35.45506,31.35933],[35.47151,31.39961],[35.47506,31.41976],[35.47559,31.48824],[35.40953,31.48906],[35.39374,31.48427],[35.32517,31.43673],[35.2928,31.4244],[35.23874,31.37473],[35.22404,31.36718],[35.15965,31.35872],[35.14577,31.36146],[35.12466,31.35207],[35.02611,31.35819],[34.93879,31.34411],[34.91394,31.34979],[34.8979,31.36122],[34.88665,31.37677],[34.88395,31.39669],[34.9034,31.43017],[34.92554,31.45472],[34.94556,31.48727],[34.94928,31.50468],[34.94495,31.54544],[34.95374,31.58301],[34.96923,31.60279],[34.94749,31.61722],[34.9286,31.62194],[34.91861,31.63194],[34.87527,31.65416],[34.87138,31.70389],[34.87555,31.71889],[34.87,31.73694],[34.87527,31.75],[34.86666,31.75639],[34.84944,31.75694],[34.83861,31.78],[34.82666,31.79277],[34.81972,31.79083],[34.79805,31.76805],[34.7886,31.76472],[34.77972,31.77333],[34.76555,31.80277],[34.74277,31.81528],[34.73111,31.8075],[34.71278,31.80722],[34.72138,31.80166],[34.72916,31.78972],[34.71583,31.78778],[34.71278,31.77889],[34.70111,31.77778],[34.67305,31.78694],[34.67388,31.79556],[34.69083,31.80639],[34.68639,31.81416],[34.67611,31.81889],[34.67361,31.82777],[34.67999,31.83389],[34.69694,31.83056],[34.70499,31.83278],[34.70528,31.85806],[34.71444,31.87055],[34.70889,31.875],[34.69221,31.8725],[34.6861,31.87889],[34.6707,31.87472],[34.65597,31.84514],[34.65181,31.84403],[34.65264,31.83375],[34.64986,31.83042],[34.63986,31.83153],[34.64125,31.81903],[34.63542,31.82431],[34.63736,31.83486],[34.6343,31.82514],[34.63903,31.81764],[34.59014,31.73125],[34.5218,31.63597],[34.51764,31.63708],[34.52014,31.6407],[34.5168,31.63736],[34.51931,31.63292],[34.48903,31.59458],[34.53252,31.55984],[34.54613,31.54261],[34.54627,31.52338],[34.53739,31.50987],[34.50824,31.50393],[34.4079,31.42061],[34.37457,31.38384],[34.36583,31.35877],[34.36857,31.303],[34.35752,31.28562],[34.26801,31.22361],[34.35052,30.98797],[34.40759,30.84391],[34.49565,30.68413],[34.52459,30.57996],[34.52169,30.52538],[34.56509,30.48132],[34.54442,30.43079],[34.54696,30.40008],[34.61674,30.36047],[34.63712,30.29405],[34.75565,30.00456],[34.75359,29.98941],[34.85587,29.73918],[34.85518,29.691],[34.87311,29.66374],[34.87761,29.64494],[34.86353,29.5903],[34.86753,29.56117],[34.87228,29.54444],[34.88545,29.52266],[34.91069,29.49708]]]}},{"type":"Feature","properties":{"gid":"ISR.3_1","name":"海法区","nameEn":"Haifa","nameLocal":"","type":"District","typeEn":"District","groupZh":"区","area":884.8,"iso":"NA","engtype":"District","capital":"海法","pop":1000000,"blurb":"北部港口与工业城，巴哈伊空中花园世界遗产。"},"geometry":{"type":"Polygon","coordinates":[[[34.86597,32.40984],[34.88805,32.40888],[34.90388,32.40388],[34.93278,32.40916],[34.98722,32.40527],[35.02166,32.37944],[35.06133,32.38664],[35.08116,32.45912],[35.09043,32.47389],[35.16316,32.5024],[35.19483,32.52438],[35.21112,32.54272],[35.20333,32.5525],[35.18833,32.55833],[35.18083,32.57027],[35.17444,32.57388],[35.16861,32.57194],[35.16138,32.56194],[35.1475,32.55527],[35.14361,32.545],[35.13721,32.54333],[35.12639,32.53],[35.11749,32.52805],[35.08138,32.53361],[35.07527,32.54222],[35.06528,32.54222],[35.06222,32.54888],[35.05305,32.5525],[35.05111,32.55778],[35.05472,32.57305],[35.04417,32.58222],[35.03472,32.585],[35.03305,32.59861],[35.02444,32.605],[35.02361,32.60889],[35.02972,32.61278],[35.05583,32.61055],[35.05444,32.61694],[35.03944,32.62028],[35.03611,32.62416],[35.03666,32.63416],[35.04333,32.64249],[35.05389,32.64444],[35.07555,32.63833],[35.09222,32.66306],[35.1125,32.67361],[35.11388,32.68278],[35.10416,32.69305],[35.10611,32.70638],[35.11111,32.70889],[35.12083,32.69861],[35.13083,32.70583],[35.13333,32.71278],[35.1311,32.71999],[35.14333,32.73027],[35.13889,32.74638],[35.15361,32.76611],[35.15611,32.77722],[35.14139,32.80833],[35.14417,32.83111],[35.11916,32.83972],[35.1,32.8511],[35.10361,32.87],[35.09222,32.87861],[35.08729,32.89012],[35.09027,32.90834],[35.08627,32.9183],[35.0793,32.91744],[35.08181,32.90042],[35.07097,32.86264],[35.04653,32.82653],[35.02653,32.81597],[35.03431,32.81042],[35.02875,32.80903],[35.02347,32.81597],[35.01514,32.81264],[35.00903,32.82347],[35.00375,32.81847],[34.99097,32.82903],[35.0093,32.82486],[35.01653,32.82764],[35.0018,32.82625],[34.98236,32.83681],[34.9543,32.82514],[34.95597,32.80653],[34.95292,32.80625],[34.94708,32.73708],[34.94153,32.71375],[34.93681,32.70708],[34.93069,32.70542],[34.92597,32.69458],[34.92181,32.64042],[34.90764,32.58236],[34.91014,32.57681],[34.90014,32.5532],[34.90375,32.5493],[34.89653,32.54125],[34.89931,32.53375],[34.89125,32.51514],[34.89431,32.51347],[34.88597,32.49153],[34.88847,32.4868],[34.88569,32.47847],[34.88208,32.4782],[34.88403,32.47125],[34.87931,32.47403],[34.87792,32.47125],[34.86708,32.47097],[34.87931,32.46958],[34.88153,32.46458],[34.86597,32.40984]]]}},{"type":"Feature","properties":{"gid":"ISR.4_1","name":"中央区","nameEn":"HaMerkaz","nameLocal":"","type":"District","typeEn":"District","groupZh":"区","area":1244.7,"iso":"IL-M","engtype":"District","capital":"拉姆拉","pop":2200000,"blurb":"地中海沿岸人口稠密带，特拉维夫通勤圈腹地。"},"geometry":{"type":"Polygon","coordinates":[[[34.8251,31.79277],[34.82949,31.80247],[34.84993,31.81963],[34.89816,31.83026],[34.90878,31.83598],[34.91777,31.85804],[34.92513,31.86295],[34.97531,31.86122],[35.02614,31.86998],[35.03499,31.89334],[35.03015,31.90936],[35.00732,31.9249],[34.992,31.94251],[34.98956,31.96516],[35.00324,31.99013],[34.99886,32.0],[35.00329,32.00306],[35.00112,32.01517],[35.00916,32.03007],[35.01147,32.04481],[35.00816,32.05634],[34.9831,32.0911],[34.99554,32.12264],[34.99433,32.13545],[34.98676,32.16398],[34.96772,32.19097],[34.96727,32.20258],[34.96898,32.21424],[34.98707,32.249],[35.00926,32.27103],[35.01258,32.27846],[35.00788,32.30708],[35.009,32.33402],[35.02626,32.3581],[35.05924,32.37375],[35.06133,32.38664],[35.02166,32.37944],[35.00333,32.39139],[34.99139,32.40416],[34.93278,32.40916],[34.90388,32.40388],[34.88805,32.40888],[34.86597,32.40984],[34.85958,32.39736],[34.85986,32.38347],[34.85597,32.37931],[34.84681,32.33292],[34.84292,32.33042],[34.83903,32.29875],[34.83125,32.2832],[34.82431,32.25264],[34.8032,32.19298],[34.83972,32.18805],[34.86583,32.16861],[34.86333,32.15028],[34.86583,32.13499],[34.8475,32.10944],[34.84361,32.08416],[34.84777,32.07639],[34.86138,32.06721],[34.86805,32.03666],[34.88333,32.02888],[34.88444,32.02111],[34.85444,32.01194],[34.84555,32.02055],[34.835,32.0225],[34.80805,31.99972],[34.79972,31.99778],[34.77722,31.99778],[34.76861,32.00194],[34.75083,32.00166],[34.73097,32.00681],[34.71208,31.95542],[34.68847,31.91847],[34.6707,31.87486],[34.6861,31.87889],[34.69221,31.8725],[34.70889,31.875],[34.71444,31.87055],[34.70528,31.85806],[34.70499,31.83278],[34.69694,31.83056],[34.67999,31.83389],[34.67361,31.82777],[34.67611,31.81889],[34.68639,31.81416],[34.69083,31.80639],[34.67166,31.79277],[34.67777,31.78389],[34.695,31.78194],[34.70111,31.77778],[34.71278,31.77889],[34.71583,31.78778],[34.72916,31.78972],[34.72138,31.80166],[34.71278,31.80722],[34.73111,31.8075],[34.74055,31.81555],[34.76555,31.80277],[34.77972,31.77333],[34.7886,31.76472],[34.79805,31.76805],[34.8251,31.79277]]]}},{"type":"Feature","properties":{"gid":"ISR.5_1","name":"北部区","nameEn":"HaZafon","nameLocal":"","type":"District","typeEn":"District","groupZh":"区","area":3531.9,"iso":"NA","engtype":"District","capital":"拿撒勒","pop":1500000,"blurb":"加利利地区，阿拉伯族群比例高，拿撒勒与太巴列湖。"},"geometry":{"type":"Polygon","coordinates":[[[35.63564,33.2452],[35.62313,33.24274],[35.62325,33.24834],[35.5972,33.27736],[35.59016,33.28218],[35.58465,33.27423],[35.58378,33.28192],[35.56747,33.29082],[35.56379,33.28835],[35.5631,33.27274],[35.55516,33.25751],[35.54556,33.25376],[35.5458,33.23792],[35.53652,33.23259],[35.54148,33.19845],[35.52549,33.13937],[35.53099,33.13381],[35.51866,33.11624],[35.50169,33.11393],[35.50275,33.09332],[35.44498,33.09068],[35.43014,33.06552],[35.38138,33.06146],[35.37722,33.055],[35.35851,33.05692],[35.35815,33.06339],[35.34448,33.07968],[35.33589,33.07201],[35.32423,33.08194],[35.3199,33.08781],[35.32381,33.09587],[35.31925,33.10144],[35.30007,33.10125],[35.29377,33.10806],[35.28068,33.10126],[35.26064,33.09782],[35.22879,33.09487],[35.22569,33.09852],[35.21093,33.09979],[35.20591,33.09426],[35.20647,33.08896],[35.17239,33.09367],[35.15451,33.0859],[35.15496,33.09143],[35.10292,33.09406],[35.10569,33.07653],[35.10125,33.05069],[35.0882,33.01403],[35.08736,32.99958],[35.07736,32.97264],[35.06625,32.91875],[35.07375,32.92153],[35.0793,32.91744],[35.08627,32.9183],[35.09027,32.90834],[35.08729,32.89012],[35.09222,32.87861],[35.10361,32.87],[35.1,32.8511],[35.11916,32.83972],[35.14417,32.83111],[35.14139,32.80833],[35.15611,32.77722],[35.15361,32.76611],[35.13889,32.74638],[35.14333,32.73027],[35.1311,32.71999],[35.13333,32.71278],[35.13083,32.70583],[35.12083,32.69861],[35.11111,32.70889],[35.10611,32.70638],[35.10416,32.69305],[35.11388,32.68278],[35.1125,32.67361],[35.09222,32.66306],[35.07555,32.63833],[35.05389,32.64444],[35.04055,32.64],[35.03611,32.62416],[35.03944,32.62028],[35.05444,32.61694],[35.05583,32.61055],[35.02972,32.61278],[35.02361,32.60889],[35.03305,32.59861],[35.03472,32.585],[35.04417,32.58222],[35.05472,32.57305],[35.05111,32.55778],[35.06528,32.54222],[35.07527,32.54222],[35.08555,32.53249],[35.12028,32.52805],[35.13055,32.53305],[35.13721,32.54333],[35.14361,32.545],[35.1475,32.55527],[35.16138,32.56194],[35.16861,32.57194],[35.17444,32.57388],[35.18083,32.57027],[35.18833,32.55833],[35.20333,32.5525],[35.21112,32.54272],[35.21669,32.54806],[35.23168,32.55157],[35.24553,32.54517],[35.27869,32.51996],[35.29443,32.5134],[35.31401,32.51155],[35.36291,32.51917],[35.39061,32.51712],[35.40679,32.50689],[35.42302,32.48359],[35.42493,32.44218],[35.43785,32.41992],[35.43754,32.41487],[35.44426,32.40982],[35.49448,32.41101],[35.53651,32.3961],[35.56786,32.38978],[35.55834,32.40345],[35.56856,32.41065],[35.56567,32.43325],[35.57742,32.43637],[35.57495,32.44958],[35.58321,32.45237],[35.58569,32.45726],[35.57383,32.46857],[35.58825,32.49759],[35.57886,32.50285],[35.57247,32.5152],[35.56129,32.51807],[35.56664,32.52445],[35.57894,32.52942],[35.57155,32.54458],[35.5841,32.54223],[35.58585,32.55168],[35.59687,32.55363],[35.58659,32.57164],[35.592,32.59038],[35.59005,32.59661],[35.58033,32.60465],[35.58,32.6329],[35.60331,32.64426],[35.60527,32.65278],[35.61657,32.65656],[35.61473,32.67065],[35.62122,32.67692],[35.64941,32.6873],[35.64604,32.69625],[35.61963,32.70791],[35.6389,32.72616],[35.65011,32.74599],[35.65496,32.7999],[35.66392,32.83754],[35.66119,32.8535],[35.6438,32.88448],[35.63082,32.89851],[35.62333,32.89576],[35.61665,32.90219],[35.62482,32.92675],[35.62924,32.97801],[35.62754,33.00111],[35.61564,33.02412],[35.63205,33.03793],[35.64706,33.05915],[35.65783,33.06189],[35.66073,33.05904],[35.66378,33.1069],[35.68238,33.15252],[35.67584,33.19004],[35.67653,33.21184],[35.69001,33.24413],[35.68336,33.24954],[35.6714,33.25091],[35.6442,33.24283],[35.63564,33.2452]]]}},{"type":"Feature","properties":{"gid":"ISR.6_1","name":"耶路撒冷区","nameEn":"Jerusalem","nameLocal":"","type":"District","typeEn":"District","groupZh":"区","area":584.3,"iso":"NA","engtype":"District","capital":"耶路撒冷","pop":1200000,"blurb":"宗教圣城所在，地位争议，三大宗教圣地汇聚。"},"geometry":{"type":"Polygon","coordinates":[[[34.96923,31.60279],[34.97833,31.61579],[35.00883,31.64399],[35.02544,31.65638],[35.07231,31.67565],[35.12457,31.71986],[35.1672,31.73475],[35.21759,31.73588],[35.22941,31.75167],[35.23242,31.78785],[35.2142,31.80411],[35.1678,31.80389],[35.12462,31.81876],[35.1045,31.827],[35.0825,31.84439],[35.06345,31.83476],[35.04467,31.81735],[35.0192,31.80954],[34.99156,31.81294],[34.97224,31.82001],[34.96389,31.84679],[34.97531,31.86122],[34.92513,31.86295],[34.91777,31.85804],[34.90878,31.83598],[34.89816,31.83026],[34.84993,31.81963],[34.82949,31.80247],[34.8251,31.79277],[34.83861,31.78],[34.84944,31.75694],[34.86666,31.75639],[34.87527,31.75],[34.87,31.73694],[34.87555,31.71889],[34.87138,31.70389],[34.87527,31.65416],[34.91861,31.63194],[34.9286,31.62194],[34.94749,31.61722],[34.96923,31.60279]]]}},{"type":"Feature","properties":{"gid":"ISR.7_1","name":"特拉维夫区","nameEn":"Tel Aviv","nameLocal":"","type":"District","typeEn":"District","groupZh":"区","area":175.2,"iso":"IL-TA","engtype":"District","capital":"特拉维夫","pop":1450000,"blurb":"经济与科技中心，地中海现代都会，初创企业密集。"},"geometry":{"type":"Polygon","coordinates":[[[34.8032,32.19298],[34.79458,32.16653],[34.79125,32.16542],[34.79292,32.15569],[34.78986,32.1543],[34.78375,32.12903],[34.76986,32.09681],[34.76653,32.0957],[34.76792,32.08958],[34.76042,32.06847],[34.75403,32.05736],[34.74653,32.0532],[34.73125,32.00696],[34.75083,32.00166],[34.76861,32.00194],[34.77722,31.99778],[34.79972,31.99778],[34.80805,31.99972],[34.835,32.0225],[34.84555,32.02055],[34.85444,32.01194],[34.88444,32.02111],[34.88333,32.02888],[34.86805,32.03666],[34.86138,32.06721],[34.84777,32.07639],[34.84361,32.08416],[34.8475,32.10944],[34.86583,32.13499],[34.86333,32.15028],[34.86583,32.16861],[34.83972,32.18805],[34.8032,32.19298]]]}}]}